X,Y,OBJECTID,County,PSC_NUMBER,SCHOOL_NAME,STREET,CITY,STATE,ZIP,Grades,School_Type
-8602280.564,4756992.9936,1,Montgomery,15.270,Little Bennett Elementary,23930 BURDETTE FOREST ROAD,CLARKSBURG,MD,20871,K-5,Elementary
-8587536.8671,4720240.1732,2,Montgomery,15.207,Burning Tree Elementary,7900 BEECH TREE ROAD,BETHESDA,MD,20817,K-5,Elementary
-8583177.6964,4736399.5588,3,Montgomery,15.236,North Lake Center,15101  BAUER DRIVE,ROCKVILLE,MD,20853,,Alternate
-8570205.8605,4734801.0057,4,Montgomery,15.169,Drew (Dr. Charles) Elementary,1200 SWINGINGDALE DR,SILVER SPRING,MD,20905,pre-K-5,Elementary
-8601597.9662,4743514.8582,5,Montgomery,15.269,Great Seneca Creek Elementary,13010 DAIRYMAID ROAD,GERMANTOWN,MD,20874,K-5,Elementary
-8592514.5446,4742313.6502,6,Montgomery,15.068,Gaithersburg Middle,2 TEACHERS WAY,GAITHERSBURG,MD,20877,6-8,Middle
-8590863.1124,4727978.6381,7,Montgomery,15.053,Churchill (Winston) High,11300 GAINSBOROUGH ROAD,POTOMAC,MD,20854,9-12,High
-8373669.9706,4624865.3431,8,Worcester,23.007,Buckingham Elementary,100 BUCKINGHAM ROAD,BERLIN,MD,21811,PreK-4,Elementary
-8393012.8748,4602790.2294,9,Worcester,23.008,Snow Hill Elementary,515 COULBOURNE LANE,SNOW HILL,MD,21863,PreK-3,Elementary
-8412003.9623,4588867.8134,10,Worcester,23.011,Pocomoke Middle,800 EIGHTH STREET,POCOMOKE CITY,MD,21851,4-8,Elementary/Middle
-8372502.2612,4626283.5615,11,Worcester,23.012,Berlin Intermediate,309 FRANKLIN AVENUE,BERLIN,MD,21811,4-6,Elementary/Middle
-8370335.8612,4634754.5291,12,Worcester,23.001,Showell Elementary,11318 SHOWELL SCHOOL ROAD,BERLIN,MD,21811,PreK-4,Elementary
-8411104.7517,4587516.3677,13,Worcester,23.002,Pocomoke Elementary,2119 POCOMOKE BELTWAY,POCOMOKE CITY,MD,21851,PreK-3,Elementary
-8410475.1574,4587887.4643,14,Worcester,23.003,Pocomoke High,1817 OLD VIRGINIA ROAD,POCOMOKE CITY,MD,21851,9-12,High
-8370138.3888,4627809.1685,15,Worcester,23.004,Stephen Decatur High,9913 SEAHAWK ROAD,BERLIN,MD,21811,9-12,High
-8392339.5904,4603305.49,16,Worcester,23.005,Snow Hill High,305 S. CHURCH STREET,SNOW HILL,MD,21863,9-12,High
-8426387.1508,4638105.33,17,Wicomico,22.026,Westside Intermediate,8000 QUANTICO ROAD,HEBRON,MD,21830,2-5,Elementary
-8388651.1756,4635233.7569,18,Wicomico,22.027,Willards Elementary,36161 RICHLAND ROAD,WILLARDS,MD,21874,PreK-3,Elementary
-8417954.0029,4631075.0419,19,Wicomico,22.028,Pemberton Elementary,1300 PEMBERTON DRIVE,SALISBURY,MD,21801,PreK-5,Elementary
-8432135.219,4645366.4926,20,Wicomico,22.018,Mardela Middle/High,24940 DELMAR ROAD,MARDELA,MD,21837,6-12,Middle/High
-8416043.0055,4632696.4727,21,Wicomico,22.020,Chipman Elementary,711 LAKE STREET,SALISBURY,MD,21801,PreK-1,Elementary
-8431150.4698,4630461.1036,22,Wicomico,22.024,Westside Primary,6046 QUANTICO ROAD,QUANTICO,MD,21856,PreK-1,Elementary
-8411729.5248,4630383.7681,23,Wicomico,22.010,Glen Avenue Elementary,1615 GLEN AVENUE,SALISBURY,MD,21804,2-5,Elementary
-8432345.6163,4645918.9696,24,Wicomico,22.012,Northwestern Elementary,9975 SHARPTOWN ROAD,MARDELA SPRINGS,MD,21837,PreK-5,Elementary
-8414568.9006,4629786.335,25,Wicomico,22.014,Prince St. Elementary,400 PRINCE STREET,SALISBURY,MD,21804,PreK-5,Elementary
-8414520.1502,4631299.9829,26,Wicomico,22.015,Wicomico Middle,635 EAST MAIN STREET,SALISBURY,MD,21804,6-8,Middle
-8417031.6731,4624645.536,27,Wicomico,22.016,Fruitland Primary,301 NORTH DIVISION STREET,FRUITLAND,MD,21826,PreK-2,Elementary
-8418271.7972,4625468.2059,28,Wicomico,22.017,Fruitland Intermediate,208 W. MAIN STREET,FRUITLAND,MD,21826,3-5,Elementary
-8412910.4575,4632414.1221,29,Wicomico,22.003,East Salisbury Elementary,1201 OCEAN CITY ROAD,SALISBURY,MD,21804,3-5,Elementary
-8414884.2332,4633104.6584,30,Wicomico,22.004,North Salisbury Elementary,1213 EMERSON AVENUE,SALISBURY,MD,21801,3-5,Elementary
-8406857.171,4632816.1543,31,Wicomico,22.005,Beaver Run Elementary,31481 OCEAN CITY ROAD,SALISBURY,MD,21804,PreK-2,Elementary
-8413004.0194,4642880.4218,32,Wicomico,22.007,Delmar Elementary,811 SOUTH 2ND STREET,DELMAR,MD,21875,PreK-4,Elementary
-8414760.2014,4628332.8879,33,Wicomico,22.008,J.M. Bennett High,300 EAST COLLEGE AVENUE,SALISBURY,MD,21804,9-12,High
-8413461.358,4631131.5852,34,Wicomico,22.009,Wicomico High,201 LONG AVENUE,SALISBURY,MD,21804,9-12,High
-8649338.7294,4809458.942,35,Washington,21.051,Funkstown Elementary,23 FUNKSTOWN ROAD,HAGERSTOWN,MD,21740,K-12,Elementary/Middle/High
-8676423.977,4817241.103,36,Washington,21.048,Claud Kitchens Outdoor School at Fairview,12808 DRAPER ROAD,CLEAR SPRING,MD,21722,Outdoor,Environmental Ed.
-8675595.7401,4816189.7249,37,Washington,21.042,Clear Spring Elementary,12627 BROADFORDING ROAD,CLEAR SPRING,MD,21722,PreK-5,Elementary
-8653179.4557,4810146.3182,38,Washington,21.038,E. Russell Hicks Middle,1321 SOUTH POTOMAC STREET,HAGERSTOWN,MD,21740,6-8,Middle                                            
-8412815.4717,4628902.2771,39,Wicomico,22.001,Parkside High,1015 BEAGLIN PARK DRIVE,SALISBURY,MD,21804,9-12,High
-8417269.053,4629189.7554,40,Wicomico,22.002,Pinehurst Elementary,520 S. PINEHURST AVENUE,SALISBURY,MD,21801,PreK-5,Elementary
-8651555.9993,4817928.7919,41,Washington,21.046,Fountaindale Elementary,901 NORTHERN AVENUE,HAGERSTOWN,MD,21740,PreK-5,Elementary
-8653329.3243,4810047.5901,42,Washington,21.049,Antietam Academy,40 WEST OAK RIDGE DRIVE,HAGERSTOWN,MD,21740,6-12,Middle/High
-8649638.1256,4813308.1754,43,Washington,21.041,Pangborn Blvd. Elementary,195 PANGBORN BOULEVARD,HAGERSTOWN,MD,21740,PreK-5,Elementary
-8654143.0527,4821083.6196,44,Washington,21.047,Maugansville Elementary,18023 MAUGANS AVENUE,MAUGANSVILLE,MD,21767,PreK-5,Elementary
-8648724.9079,4811556.0532,45,Washington,21.045,Eastern Elementary,1320 YALE DRIVE,HAGERSTOWN,MD,21741,3-5,Elementary
-8640226.7337,4816069.3485,46,Washington,21.035,Old Forge Elementary,21615 OLD FORGE ROAD,HAGERSTOWN,MD,21740,PreK-5,Elementary
-8635871.4963,4816223.0865,47,Washington,21.036,Smithsburg Elementary,67 N. MAIN STREET,SMITHSBURG,MD,21783,PreK-5,Elementary
-8569490.4583,4669661.3159,48,Charles,08.047,William A. Diggs Elementary School,2615 DAVIS ROAD,WALDORF,MD,20603,PreK-5,Elementary
-8661687.9043,4807983.5432,49,Washington,21.029,Williamsport Elementary,1 SOUTH CLIFTON DRIVE,WILLIAMSPORT,MD,21795,PreK-5,Elementary
-8648947.0825,4820069.3751,50,Washington,21.030,Paramount Elementary,19410 LONGMEADOW ROAD,HAGERSTOWN,MD,21742,PreK-5,Elementary
-8661750.6024,4807539.2734,51,Washington,21.031,Williamsport High,5 SOUTH CLIFTON DRIVE,WILLIAMSPORT,MD,21795,9-12,High                                              
-8653019.3644,4810427.2495,52,Washington,21.032,Emma K. Doub Elementary,1221 SOUTH POTOMAC STREET,HAGERSTOWN,MD,21740,PreK-5,Elementary
-8653659.6738,4816134.54,53,Washington,21.033,Salem Avenue Elementary,1323 SALEM AVENUE,HAGERSTOWN,MD,21740,PreK-5,Elementary
-8646770.3431,4773265.447,54,Washington,21.022,Pleasant Valley Elementary,1707 ROHRORSVILLE ROAD,KNOXVILLE,MD,21758,PreK-5,Elementary
-8626315.312,4824499.288,55,Washington,21.023,Cascade Elementary,14519 PENNERSVILLE ROAD,CASCADE,MD,21719,PreK-5,Elementary
-8651338.5548,4816985.0485,56,Washington,21.024,North Hagerstown High,1200 PENNSYLVANIA AVENUE,HAGERSTOWN,MD,21740,9-12,High                                              
-8704823.958,4822035.5179,57,Washington,21.025,Hancock Middle/High,289 W. MAIN STREET,HANCOCK,MD,21750,6-12,Middle/High
-8635622.8524,4816626.9384,58,Washington,21.026,Smithsburg High,66 N MAIN ST,SMITHSBURG,MD,21783,9-12,High
-8644129.4367,4795884.5309,59,Washington,21.001,Boonsboro High,10 CAMPUS AVENUE,BOONSBORO,MD,21713,9-12,High                                              
-8651057.0978,4817436.3268,60,Washington,21.017,Northern Middle,701 NORTHERN AVENUE,HAGERSTOWN,MD,21740,6-8,Middle                                            
-8655956.0309,4787112.0663,61,Washington,21.019,Sharpsburg Elementary,17525 SHEPHERDSTOWN PIKE,SHARPSBURG,MD,21782,PreK-5,Elementary
-8653110.6643,4810930.0379,62,Washington,21.020,South Hagerstown High,1101 S. POTOMAC STREET,HAGERSTOWN,MD,21740,9-12,High                                              
-8651794.9664,4812797.7695,63,Washington,21.021,Bester Elementary,385 MILL ST.,HAGERSTOWN,MD,21740,PreK-5,Elementary
-8661974.8425,4807066.4264,64,Washington,21.009,Springfield Middle,334 EAST SUNSET AVE,WILLIAMSPORT,MD,21795,6-8,Middle
-8653524.7951,4810097.1154,65,Washington,21.013,Washington County Technical High,50 WEST OAK RIDGE DRIVE,HAGERSTOWN,MD,21740,11-12,Career Tech
-8641753.7685,4801816.4195,66,Washington,21.014,Greenbrier Elementary,21222 SAN MAR ROAD,BOONSBORO,MD,21713,PreK-5,Elementary
-8704742.6777,4822439.2093,67,Washington,21.015,Hancock Elementary,290 W. MAIN STREET,HANCOCK,MD,21750,PreK-5,Elementary
-8652779.0054,4816680.6355,68,Washington,21.003,Western Heights Middle,1300 MARSHALL STREET,HAGERSTOWN,MD,21740,6-8,Middle
-8658007.4976,4810737.8321,69,Washington,21.004,Hickory Elementary,11101 HICKORY SCHOOL ROAD,WILLIAMSPORT,MD,21795,PreK-5,Elementary
-8675911.8419,4816309.9415,70,Washington,21.005,Clear Spring High,12630 BROADFORDING ROAD,CLEAR SPRING,MD,21722,9-12,High                                              
-8675817.1342,4816429.7383,71,Washington,21.007,Clear Spring Middle,12628 BROADFORDING ROAD,CLEAR SPRING,MD,21722,6-8,Middle                                            
-8635518.5635,4816967.1847,72,Washington,21.008,Smithsburg Middle,68 N MAIN ST,SMITHSBURG,MD,21783,6-8,Middle                                            
-8461144.2478,4702015.143,73,Talbot,20.006,Chapel District Elementary,11430 CORDOVA ROAD,CORDOVA,MD,21625,PreK-5,Elementary
-8467774.5384,4674271.206,74,Talbot,20.007,White Marsh Elementary,4322 LOVERS LANE,TRAPPE,MD,21673,PreK-5,Elementary
-8484412.0263,4690235.8341,75,Talbot,20.008,St. Michaels Middle/High,200 SEYMOUR AVENUE,ST MICHAELS,MD,21663,6-12,Middle/High
-8644054.9781,4795553.5571,76,Washington,21.027,Boonsboro Elementary,5 CAMPUS AVENUE,BOONSBORO,MD,21713,PreK-5,Elementary
-8484596.8368,4690198.7123,77,Talbot,20.001,St. Michaels Elementary,100 SEYMOUR AVENUE,ST MICHAELS,MD,21663,PreK-5,Elementary
-8467591.6512,4686756.4202,78,Talbot,20.002,Easton High,723 MECKLENBURG AVENUE,EASTON,MD,21601,9-12,High
-8469692.6265,4689396.5064,79,Talbot,20.010,Easton Elementary School,307 GLENWOOD AVENUE,EASTON,MD,21601,2-5,Elementary
-8468859.4435,4687783.7828,80,Talbot,20.004,Easton Middle,201 PEACHBLOSSUM ROAD,EASTON,MD,21601,6-8,Middle
-8513999.6611,4621090.4761,81,St. Mary's,18.022,Green Holly Elementary,46060 MILLSTONE LANDING ROAD,LEXINGTON PARK,MD,20653,PK-5,Elementary
-8515175.1636,4619054.8198,82,St. Mary's,18.023,Greenview Knolls Elementary,45711 MILITARY LANE,GREAT MILLS,MD,20634,PK-5,Elementary
-8520006.2182,4603074.8361,83,St. Mary's,18.027,Piney Point Elementary,44550 TALL TIMBERS ROAD,TALL TIMBERS,MD,20690,PK-5,Elementary
-8510579.1312,4611074.6644,84,St. Mary's,18.029,Park Hall Elementary,20343 HERMANVILLE ROAD,PARK HALL,MD,20667,PK-5,Elementary
-8546705.2825,4645601.3492,85,St. Mary's,18.016,White Marsh Elementary,29090 THOMPSON CORNER ROAD,MECHANICSVILLE,MD,20659,K-5,Elementary
-8545762.6506,4646638.5591,86,St. Mary's,18.017,Lettie Marshall Dent Elementary,37840 NEW MARKET TURNER ROAD,MECHANICSVILLE,MD,20659,PK-5,Elementary
-8538863.9729,4630447.2444,87,St. Mary's,18.019,Chopticon High,25390 COLTON POINT ROAD,MORGANZA,MD,20660,9-12,High
-8514558.1531,4614439.9117,88,St. Mary's,18.020,Great Mills High,21130 GREAT MILLS ROAD,GREAT MILLS,MD,20634,9-12,High
-8511243.8226,4616222.7386,89,St. Mary's,18.021,Lexington Park Elementary,46763 SHANGRI-LA DRIVE,LEXINGTON PARK,MD,20653,PK-5,Elementary
-8514766.6198,4620838.5479,90,St. Mary's,18.010,Esperanza Middle,22790 MAPLE ROAD,LEXINGTON PARK,MD,20653,6-8,Middle
-8532203.2041,4635271.6313,91,St. Mary's,18.011,Oakville Elementary,26410 THREE NOTCH ROAD,MECHANICSVILLE,MD,20659,PK-5,Elementary
-8543302.029,4750563.3109,92,Howard,13.086,Ducketts Lane Elementary,6501 DUCKETTS LN,ELKRIDGE,MD,21075,PreK-5,Elementary
-8542123.7507,4748225.9891,93,Howard,13.087,Thomas Viaduct Middle,7000 BANBURY DR,HANOVER,MD,21075,6-8,Middle
-8559913.2795,4709787.8344,94,Prince George's,16.260,Fairmont Heights High,6501 COLUMBIA PARK RD,LANDOVER,MD,20785,9-12,High
-8419075.9386,4624162.8743,95,Wicomico,22.030,New Bennett Middle,532 S DIVISION ST,FRUITLAND,MD,21826,6-8,Middle
-8543037.1796,4717568.9055,96,Prince George's,16.262,Bowie-Belair High Annex,3021 BELAIR DR,BOWIE,MD,20715,9,High
-8525773.5954,4658383.3853,97,Calvert,04.029,New Calvert Middle,655 CHESAPEAKE BLVD,PRINCE FREDERICK,MD,20678,6-8,Middle
-8771485.4174,4816032.1774,98,Allegany,01.038,Allegany High,900 SETON DRIVE,CUMBERLAND,MD,21502,9-12,High
-8531203.5723,4623905.1851,99,St. Mary's,18.033,Captain Walter Francis Duke Elementary School,23595 HAYDEN FARM LN,LEONARDTOWN,MD,20650,PreK-5,Elementary
-8612241.6436,4768668.9915,100,Frederick,10.078,Sugarloaf Elementary,3400 STONE BARN DR,FREDERICK,MD,21704,,Elementary
-8548541.0533,4785503.4495,101,Baltimore County,03.077,Timber Grove Elementary,701 ACADEMY AVENUE,OWINGS MILLS,MD,21117,PreK-5,Elementary
-8552794.2682,4775449.1501,102,Baltimore County,03.078,Hernwood Elementary,9919 MARRIOTTSVILLE ROAD,RANDALLSTOWN,MD,21133,PreK-5,Elementary
-8499686.2881,4774816.6378,103,Baltimore County,03.079,Oliver Beach Elementary,12912 CUNNINGHILL COVE ROAD,BALTIMORE,MD,21220,PreK-5,Elementary
-8506904.9195,4787261.3786,104,Baltimore County,03.080,Kingsville Elementary,7300 SUNSHINE AVENUE,KINGSVILLE,MD,21087,K-5,Elementary
-8530585.5801,4788007.4832,105,Baltimore County,03.069,Padonia International Elementary,9834 GREENSIDE DRIVE,COCKEYSVILLE,MD,21030,PreK-5,Elementary
-8513536.5436,4779050.9063,106,Baltimore County,03.070,Perry Hall Elementary,9021 BELAIR ROAD,BALTIMORE,MD,21236,PreK-5,Elementary
-8518168.6325,4771796.0303,107,Baltimore County,03.072,Elmwood Elementary,531 DALE AVENUE,BALTIMORE,MD,21206,PreK-5,Elementary
-8522584.8464,4795327.5823,108,Baltimore County,03.074,Jacksonville Elementary,3400 HILLENDALE HEIGHTS ROAD,PHOENIX,MD,21131,K-5,Elementary
-8512897.0121,4768355.0258,109,Baltimore County,03.075,Eastern Technical High,1100 MACE AVENUE,BALTIMORE,MD,21221,9-12,High
-8509902.4691,4756100.9783,110,Baltimore County,03.056,Edgemere Elementary,7201 NORTH POINT ROAD,BALTIMORE,MD,21219,PreK-5,Elementary
-8521751.0595,4777667.8075,111,Baltimore County,03.065,White Oak Special Education,8401 LEEFIELD ROAD,BALTIMORE,MD,21234,Sp. Ed.,Special Ed.
-8508773.5024,4779259.1262,112,Baltimore County,03.067,Chapel Hill Elementary,5200 JOPPA ROAD,PERRY HALL,MD,21128,K-5,Elementary
-8542114.6425,4766996.4605,113,Baltimore County,03.050,Woodlawn High,1801 WOODLAWN DRIVE,BALTIMORE,MD,21207,9-12,High
-8509482.0598,4755775.82,114,Baltimore County,03.051,Sparrows Point Middle/High,7400 NORTH POINT ROAD,BALTIMORE,MD,21219,"6-8;",Middle/High
-8517981.8018,4758827.4788,115,Baltimore County,03.052,Dundalk Elementary,2717 SOUTH PLAYFIELD STREET,BALTIMORE,MD,21222,PreK-5,Elementary
-8548927.5762,4774439.4122,116,Baltimore County,03.054,Randallstown Elementary,9013 LIBERTY ROAD,RANDALLSTOWN,MD,21133,K-5,Elementary
-8513708.1422,4766061.7554,117,Baltimore County,03.055,Essex Elementary,100 MACE AVENUE,ESSEX,MD,21221,PreK-5,Elementary
-8528729.585,4776412.1298,118,Baltimore County,03.042,Rodgers Forge Elementary,250 DUMBARTON ROAD,BALTIMORE,MD,21212,K-5,Elementary
-8542175.0317,4769656.3072,119,Baltimore County,03.043,Woodlawn Middle,3033 SAINT LUKE'S LANE,BALTIMORE,MD,21207,6-8,Middle
-8528623.3168,4783683.5205,120,Baltimore County,03.045,Ridgely Middle,121 RIDGELY ROAD,LUTHERVILLE,MD,21093,6-8,Middle
-8517770.9726,4761394.7677,121,Baltimore County,03.047,Holabird Middle,1701 DELVALE AVENUE,BALTIMORE,MD,21222,4-8,Elementary/Middle
-8511133.5454,4763889.856,122,Baltimore County,03.034,Sandalwood Elementary,900 SOUTH MARLYN AVENUE,BALTIMORE,MD,21221,PreK-5,Elementary
-8510260.9149,4753436.3718,123,Baltimore County,03.035,Chesapeake Terrace Elementary,2112 LODGE FARM ROAD,BALTIMORE,MD,21219,PreK-5,Elementary
-8511249.1504,4767867.6279,124,Baltimore County,03.038,Stemmers Run Middle,201 STEMMERS RUN ROAD,BALTIMORE,MD,21221,6-8,Middle
-8517465.0941,4758913.9957,125,Baltimore County,03.041,Dundalk Middle,7400 DUNMANWAY,BALTIMORE,MD,21222,6-8,Middle
-8545298.7923,4773143.9648,126,Baltimore County,03.025,Scotts Branch Elementary,8220 TAWNMOORE ROAD,BALTIMORE,MD,21244,K-5,Elementary
-8547037.6268,4772519.8486,127,Baltimore County,03.027,Winfield Elementary,8300 CARLSON LANE,BALTIMORE,MD,21244,PreK-5,Elementary
-8550617.1029,4788763.5581,128,Baltimore County,03.030,Glyndon Elementary,445 GLYNDON DRIVE,REISTERSTOWN,MD,21136,PreK-5,Elementary
-8516197.8596,4770912.0096,129,Baltimore County,03.031,Shady Spring Elementary,8868 GOLDENWOOD RD,BALTIMORE,MD,21237,PreK-5,Elementary
-8510455.7407,4766668.3057,130,Baltimore County,03.020,Mars Estates Elementary,1500 HOMBERG AVENUE,BALTIMORE,MD,21221,PreK-5,Elementary
-8537668.4379,4758738.4175,131,Baltimore County,03.021,Maiden Choice,4901 SHELBOURNE ROAD,BALTIMORE,MD,21227,Sp.,Special Ed.
-8526912.7113,4776525.4382,132,Baltimore County,03.022,Stoneleigh Elementary,900 PEMBERTON ROAD,BALTIMORE,MD,21212,K-5,Elementary
-8543422.1715,4760370.9667,133,Baltimore County,03.024,Hillcrest Elementary,1500 FREDERICK ROAD,BALTIMORE,MD,21228,K-5,Elementary
-8544706.8585,4763986.638,134,Baltimore County,03.010,Woodbridge Elementary,1410 PLEASANT VALLEY DRIVE,BALTIMORE,MD,21228,PreK-5,Elementary
-8511990.5446,4778080.0924,135,Baltimore County,03.011,Perry Hall High,4601 EBENEZER ROAD,BALTIMORE,MD,21236,9-12,High
-8521289.6829,4776348.376,136,Baltimore County,03.012,Villa Cresta Elementary,2600 RADER AVENUE,BALTIMORE,MD,21234,PreK-5,Elementary
-8516526.3763,4768142.9166,137,Baltimore County,03.015,Rosedale Center,8200 OLD PHILADELPHIA ROAD,BALTIMORE,MD,21237,6-12,Alternate
-8517987.8971,4773482.7912,138,Baltimore County,03.004,Fullerton Elementary,4400 FULLERTON AVENUE,BALTIMORE,MD,21236,PreK-5,Elementary
-8536541.4528,4756441.8358,139,Baltimore County,03.005,Halethorpe Elementary,4300 MAPLE AVENUE,HALETHORPE,MD,21227,PreK-5,Elementary
-8530361.3894,4789617.5631,140,Baltimore County,03.006,Cockeysville Middle,10401 GREENSIDE DRIVE,COCKEYSVILLE,MD,21030,6-8,Middle
-8539778.4292,4760349.6681,141,Baltimore County,03.008,Western School of Technology/Science,100 KENWOOD AVENUE,BALTIMORE,MD,21228,9-12,Career Tech
-8519209.3798,4780735.6856,142,Baltimore County,03.009,Pine Grove Elementary,2701 SUMMIT AVENUE,BALTIMORE,MD,21234,PreK-5,Elementary
-8527693.4801,4766660.3072,143,Baltimore City,30.250,Cecil Elementary # 007,2000 CECIL AVENUE,BALTIMORE,MD,21218,PreK-5,Elementary
-8552287.0904,4788271.2707,144,Baltimore County,03.002,Chatsworth Elementary,222 NEW AVENUE,REISTERSTOWN,MD,21136,PreK-5,Elementary
-8506983.5182,4763680.5677,145,Baltimore County,03.003,Chesapeake High,1801 TURKEY POINT ROAD,BALTIMORE,MD,21221,9-12,High
-8531656.1348,4764486.6287,146,Baltimore City,30.277,Harlem Park PK-8 # 035,1401 W LAFAYETTE AVE,BALTIMORE,MD,21217,PK-8,PreK-8
-8532684.1445,4765712.0821,147,Baltimore City,30.242,Matthew A. Henson Elementary # 029,1600 N PAYSON ST,BALTIMORE,MD,21217,PK-5,Elementary
-8535293.7327,4767493.4582,148,Baltimore City,30.254,Hilton Elementary # 021,3301 CARLISLE AVE,BALTIMORE,MD,21216,PreK-5,Elementary
-8531685.6116,4764328.6376,149,Baltimore City,30.274,Harlem Park Building #078,1500 HARLEM AVE,BALTIMORE,MD,21217,9-12,High
-8520998.7876,4767739.3364,150,Baltimore City,30.264,Thurgood Marshall Building #170 (formerly #77 Herring Run Jr,5001 SINCLAIR LANE,BALTIMORE,MD,21206,"PK-5;",Elementary/Middle
-8534117.9123,4766923.4864,151,Baltimore City,30.261,Gwynns Falls Elementary # 060,2700 GWYNNS FALLS E,BALTIMORE,MD,21216,PreK-5,Elementary
-8528338.753,4768144.8057,152,Baltimore City,30.260,Barclay PK-8 # 054,2900 BARCLAY ST,BALTIMORE,MD,21218,PreK-8,PreK-8
-8527038.268,4764289.3927,153,Baltimore City,30.275,Thomas G. Hayes Building #102,601 NORTH CENTRAL AVE,BALTIMORE,MD,21202,6-8,Middle
-8531602.1088,4763468.0022,154,Baltimore City,30.243,Franklin Square # 095,1400 W. LEXINGTON ST,BALTIMORE,MD,21223,PreK-8,PreK-8
-8524949.68,4766007.4101,155,Baltimore City,30.269,Lakewood Early Learning Center # 086,2625 FEDERAL ST,BALTIMORE,MD,21213,PreK,Elementary
-8524687.2259,4765799.6779,156,Baltimore City,30.270,Fort Worthington Elementary # 085,2710 E. HOFFMAN STREET,BALTIMORE,MD,21213,K-8,PreK-8
-8545650.0857,4762427.9189,157,Baltimore City,30.276,Bragg Nature Study Center,6601 BALTIMORE NATIONAL PIKE,BALTIMORE,MD,21228,,Science
-8533279.3193,4764709.4438,158,Baltimore City,30.252,James Mosher Elementary # 144,2400 MOSHER ST,BALTIMORE,MD,21216,PK-5,Elementary
-8533189.2665,4774206.9799,159,Baltimore City,30.268,The Mt. Washington School #221,1801 SULGRAVE AVE,BALTIMORE,MD,21209,K-8,Elementary/Middle
-8526297.4354,4754130.299,160,Baltimore City,30.248,Curtis Bay PK-8 # 207,4301 WEST BAY AVE,BALTIMORE,MD,21225,PK-5,Elementary
-8521788.4277,4768866.2657,161,Baltimore City,30.256,Furley Elementary # 206,4633 FURLEY AVE,BALTIMORE,MD,21206,PK-5,Elementary
-8538608.2607,4766386.7408,162,Baltimore City,30.255,Dickey Hill PK-8 # 201,5025 DICKEY HILL RD,BALTIMORE,MD,21207,PK-8,PreK-8
-8535744.6884,4769997.2573,163,Baltimore City,30.257,Callaway Elementary # 251,3701 FERNHILL AVE,BALTIMORE,MD,21215,PK-5,Elementary
-8531800.1917,4770582.6101,164,Baltimore City,30.258,Medfield Heights Elementary # 249,4300 BUCHANAN AVE,BALTIMORE,MD,21211,PK-5,Elementary
-8509113.3043,4632723.9942,165,Calvert,04.018,Patuxent Elementary,35 APPEAL LANE,LUSBY,MD,20657,1-5,Elementary
-8532734.0021,4676727.2726,166,Calvert,04.005,Northern High,2950 CHANEYVILLE ROAD,OWINGS,MD,20736,9-12,High
-8533034.5092,4676642.0885,167,Calvert,04.006,Northern Middle,2954 CHANEYVILLE RD,OWINGS,MD,20736,6-8,Middle
-8529901.7723,4679939.8307,168,Calvert,04.007,Mt. Harmony Elementary,900 W. MT. HARMONY ROAD,OWINGS,MD,20736,K-5,Elementary
-8509917.5818,4637037.9378,169,Calvert,04.009,Southern Middle,9615 H. G. TRUEMAN ROAD,LUSBY,MD,20657,6-8,Middle
-8530122.7836,4667661.83,170,Calvert,04.010,Huntingtown Elementary,4345 HUNTINGTOWN RD,HUNTINGTOWN,MD,20639,PreK-5,Elementary
-8540746.9589,4772170.7247,171,Baltimore County,03.136,Campfield Early Childhood Center,6834 ALTER ST,BALTIMORE,MD,21207,PreK-K,Elementary
-8519638.8147,4646136.8263,172,Calvert,04.002,Mutual Elementary,1455 BALL ROAD,PORT REPUBLIC,MD,20676,K-5,Elementary
-8525200.1883,4657827.1837,173,Calvert,04.003,Calvert High,520 FOX RUN BLVD.,PRINCE FREDERICK,MD,20678,9-12,High
-8551530.5155,4777375.4552,174,Baltimore County,03.147,Deer Park Middle Magnet,9830 WINANDS ROAD,RANDALLSTOWN,MD,21133,6-8,Middle
-8551329.0557,4777608.3937,175,Baltimore County,03.170,Deer Park Elementary,9809 LYONS MILL ROAD,OWINGS MILLS,MD,21117,PreK-5,Elementary
-8545174.8037,4775214.8472,176,Baltimore County,03.181,Winand Elementary,8301 SCOTTS LEVEL ROAD,BALTIMORE,MD,21208,PreK-5,Elementary
-8541664.1745,4758907.0938,177,Baltimore County,03.128,Catonsville High,421 BLOOMSBURY AVENUE,BALTIMORE,MD,21228,9-12,High
-8541084.884,4762861.4125,178,Baltimore County,03.159,Westowne Elementary,401 HARLEM LANE,BALTIMORE,MD,21228,PreK-5,Elementary
-8550308.4463,4784780.3412,179,Baltimore County,03.166,Cedarmere Elementary,17 NICODEMUS ROAD,REISTERSTOWN,MD,21136,PreK-5,Elementary
-8552971.2131,4788181.3352,180,Baltimore County,03.150,Franklin Elementary,33 COCKEYSMILL ROAD,REISTERSTOWN,MD,21136,PreK-5,Elementary
-8541154.9656,4773209.7743,181,Baltimore County,03.126,Sudbrook Magnet Middle,4300 BEDFORD ROAD,BALTIMORE,MD,21208,6-8,Middle
-8537645.3736,4775538.3201,182,Baltimore County,03.183,Wellwood International Elementary,2901 SMITH AVENUE,PIKESVILLE,MD,21208,K-5,Elementary
-8543772.9807,4772845.2723,183,Baltimore County,03.098,Milford Mill Academy,3800 WASHINGTON AVE,BALTIMORE,MD,21244,9-12,High
-8528374.0223,4787929.7558,184,Baltimore County,03.133,Dulaney High,255 PADONIA ROAD,TIMONIUM,MD,21093,9-12,High
-8527932.2465,4789812.3803,185,Baltimore County,03.193,Warren Elementary,900 BOSLEY ROAD,COCKEYSVILLE,MD,21030,PreK-5,Elementary
-8532577.0527,4781145.8406,186,Baltimore County,03.189,Riderwood Elementary,1711 LANDRAKE ROAD,BALTIMORE,MD,21204,K-5,Elementary
-8546810.1394,4808108.8406,187,Baltimore County,03.178,Fifth District Elementary,3725 MOUNT CARMEL ROAD,UPPERCO,MD,21155,K-5,Elementary
-8552674.4467,4788528.0081,188,Baltimore County,03.127,Franklin Middle,10 COCKEYSMILL ROAD,REISTERSTOWN,MD,21136,6-8,Middle
-8520014.997,4779086.0768,189,Baltimore County,03.137,Harford Hills Elementary,8902 OLD HARFORD ROAD,BALTIMORE,MD,21234,PreK-5,Elementary
-8523971.5266,4775781.4209,190,Baltimore County,03.186,Halstead Academy,1111 HALSTEAD ROAD,BALTIMORE,MD,21234,PreK-5,Elementary
-8527409.3756,4781527.0111,191,Baltimore County,03.168,Hampton Elementary,1115 CHARMUTH ROAD,LUTHERVILLE,MD,21093,PreK-5,Elementary
-8521777.2228,4778225.5118,192,Baltimore County,03.162,Oakleigh Elementary,1901 WHITE OAK AVENUE,BALTIMORE,MD,21234,PreK-5,Elementary
-8517259.2326,4762920.7337,193,Baltimore County,03.174,Berkshire Elementary,7431 POPLAR AVE,BALTIMORE,MD,21224,PreK-5,Elementary
-8518247.0094,4778098.8361,194,Baltimore County,03.188,Carney Elementary,3131 EAST JOPPA RD,BALTIMORE,MD,21234,PreK-5,Elementary
-8518604.8706,4793170.8759,195,Baltimore County,03.161,Carroll Manor Elementary,4434 CARROLL MANOR RD,BALDWIN,MD,21013,K-5,Elementary
-8523043.2412,4779833.9285,196,Baltimore County,03.134,Loch Raven High,1212 COWPENS AVENUE,BALTIMORE,MD,21286,9-12,High
-8524641.5976,4777713.3803,197,Baltimore County,03.154,Loch Raven Technical Academy,8101 LASALLE ROAD,BALTIMORE,MD,21286,6-8,Middle
-8514199.7875,4760932.9405,198,Baltimore County,03.172,Battle Monument Special,7801 E COLLINGHAM DRIVE,BALTIMORE,MD,21222,Sp.Ed,Special Ed.
-8514441.9307,4760874.9651,199,Baltimore County,03.173,Charlesmont Elementary,7800 W. COLLINGHAM DRIVE,BALTIMORE,MD,21222,PreK-5,Elementary
-8516167.8502,4759673.2746,200,Baltimore County,03.156,Grange Elementary,2000 CHURCH ROAD,BALTIMORE,MD,21222,PreK-5,Elementary
-8517972.7164,4761323.97,201,Baltimore County,03.155,Norwood Elementary,1700 DELVALE AVENUE,BALTIMORE,MD,21222,PreK-3,Elementary
-8513992.4999,4760193.639,202,Baltimore County,03.153,Bear Creek Elementary,1601 MELBOURNE ROAD,BALTIMORE,MD,21222,PreK-5,Elementary
-8533270.3059,4755627.3335,203,Baltimore County,03.184,Riverview Elementary,3298 KESSLER ROAD,BALTIMORE,MD,21227,PreK-5,Elementary
-8517749.5258,4759965.9356,204,Baltimore County,03.140,Dundalk High/Sollers Point Technical High,1901 DELVALE AVENUE,BALTIMORE,MD,21222,9-12,High
-8514623.7712,4759711.2293,205,Baltimore County,03.145,Patapsco High & Center for Arts,8100 WISE AVENUE,BALTIMORE,MD,21222,9-12,High
-8514435.9301,4758985.2503,206,Baltimore County,03.157,Sandy Plains Elementary,8330 KAVANAUGH ROAD,BALTIMORE,MD,21222,PreK-5,Elementary
-8504037.1061,4771047.9501,207,Baltimore County,03.135,Chase Elementary,11701 EASTERN AVENUE,BALTIMORE,MD,21220,PreK-5,Elementary
-8517981.1554,4763943.2146,208,Baltimore County,03.151,Colgate Elementary,401 51ST STREET,BALTIMORE,MD,21224,K-5,Elementary
-8517269.3942,4771924.2786,209,Baltimore County,03.165,Overlea High,5401 KENWOOD AVENUE,BALTIMORE,MD,21206,9-12,High
-8518290.59,4770639.7459,210,Baltimore County,03.191,McCormick Elementary,5101 HAZELWOOD AVE,BALTIMORE,MD,21206,PreK-5,Elementary
-8532715.7837,4756797.5097,211,Baltimore County,03.149,Lansdowne High,3800 HOLLINS FERRY ROAD,BALTIMORE,MD,21227,9-12,High
-8508700.6119,4765542.1503,212,Baltimore County,03.192,Middleborough Elementary,313 WEST ROAD,BALTIMORE,MD,21221,PreK-5,Elementary
-8512074.8993,4769383.2718,213,Baltimore County,03.182,Orems Elementary,711 HIGH VILLA ROAD,BALTIMORE,MD,21221,PreK-5,Elementary
-8510106.2131,4771417.7737,214,Baltimore County,03.175,Glenmar Elementary,9700 COMMUNITY DRIVE,BALTIMORE,MD,21220,PreK-5,Elementary
-8508950.151,4768498.6276,215,Baltimore County,03.152,Hawthorne Elementary,125 KINGSTON ROAD,BALTIMORE,MD,21220,PreK-5,Elementary
-8512610.9938,4765239.7537,216,Baltimore County,03.163,Sussex Elementary,515 SOUTH WOODWARD DRIVE,BALTIMORE,MD,21221,PreK-5,Elementary
-8519067.0868,4779946.743,217,Baltimore County,03.001,Pine Grove Middle,9200 OLD HARFORD ROAD,BALTIMORE,MD,21234,6-8,Middle
-8503804.8034,4768979.0433,218,Baltimore County,03.179,Seneca Elementary,545 CARROLLWOOD ROAD,BALTIMORE,MD,21220,PreK-5,Elementary
-8510921.1523,4765913.542,219,Baltimore County,03.129,Deep Creek Elementary,1101 EAST HOMBERG AVENUE,BALTIMORE,MD,21221,K-5,Elementary
-8530418.2281,4764671.2579,220,Baltimore City,30.061,Furman L. Templeton Elementary # 125,1200 N PENNSYLVANIA AVE,BALTIMORE,MD,21217,PK-5,Elementary
-8446710.8098,4770284.288,221,Kent,14.002,Galena Elementary,114 SOUTH MAIN STREET,GALENA,MD,21635,PreK-5,Elementary
-8535316.0129,4760102.6108,222,Baltimore City,30.085,Violetville PK-8 #226,1207 PINE HEIGHTS AVE,BALTIMORE,MD,21229,PK-8,PreK-8
-8523628.4891,4657912.2484,223,Calvert,04.004,Calvert Elementary,1450 DARES BEACH ROAD,PRINCE FREDERICK,MD,20678,PreK-5,Elementary
-8570756.7236,4799526.2297,224,Carroll,06.042,Westminster High,1225 WASHINGTON RD,WESTMINSTER,MD,21157,9-12,High
-8448313.3395,4814747.6136,225,Cecil,07.041,Leeds Elementary,615 DEAVER RD,ELKTON,MD,21921,PreK-5,Elementary
-8452852.9308,4805893.8934,226,Cecil,07.040,North East High,300 IRISHTOWN RD,NORTH EAST,MD,21901,9-12,High
-8846051.8918,4777813.6812,227,Garrett,11.012,Crellin Elementary,115 KENDALL DRIVE,OAKLAND,MD,21550,K-5,Elementary
-8503245.5459,4806007.0166,228,Harford,12.043,Forest Hill Elementary,2407 ROCKS RD,FOREST HILL,MD,21050,K-5,Elementary
-8498280.2424,4797162.6123,229,Harford,12.022,Homestead/Wakefield Elementary,900 S. MAIN STREET,BEL AIR,MD,21014,PreK-5,Elementary
-8492839.7829,4801689.6035,230,Harford,12.012,Prospect Mill Elementary,101 PROSPECT MILL RD.,BEL AIR,MD,21015,PreK-5,Elementary
-8557929.695,4723433.7129,231,Prince George's,16.108,Greenbelt Elementary,66 RIDGE ROAD,GREENBELT,MD,20770,PreK-5,Elementary
-8564643.439,4727737.39,232,Prince George's,16.042,Duckworth (James E.) Regional School,11201 EVANS TRAIL,BELTSVILLE,MD,20705,K-12,Special Ed.
-8569496.4034,4720793.7942,233,Prince George's,16.071,Langley Park-McCormick Elementary,8201 15TH AVENUE,HYATTSVILLE,MD,20783,PreK-6,Elementary
-8558510.7511,4716512.6133,234,Prince George's,16.100,Brent (Margaret) Regional School,5816 LAMONT TERRACE,NEW CARROLLTON,MD,20784,K-8,Special Ed.
-8556374.1209,4748323.1141,235,Howard,13.030,Atholton Elementary,6700 SENECA DRIVE,COLUMBIA,MD,21046,PreK-5,Elementary
-8545474.5334,4766813.7125,236,Baltimore County,03.125,Chadwick Elementary,1918 WINDER ROAD,BALTIMORE,MD,21244,PreK-5,Elementary
-8554351.5524,4751049.505,237,Howard,13.022,Stevens Forest Elementary,6045 STEVENS FOREST RD,COLUMBIA,MD,21045,PreK-5,Elementary
-8546309.6043,4755005.4412,238,Howard,13.071,Bonnie Branch Middle,4979 ILCHESTER ROAD,ELLICOTT CITY,MD,21043,6-8,Middle
-8513135.2105,4760236.8659,239,Baltimore County,03.116,Battle Grove Elementary,7828 ST PATRICIA LANE,BALTIMORE,MD,21222,PreK-5,Elementary
-8534003.8106,4799600.324,240,Baltimore County,03.117,Sparks Elementary,601 BELFAST ROAD,SPARKS,MD,21152,K-5,Elementary
-8551266.9379,4786082.3202,241,Baltimore County,03.120,Franklin High,12000 REISTERSTOWN ROAD,REISTERSTOWN,MD,21136,9-12,High
-8520346.6313,4777526.3232,242,Baltimore County,03.121,Parkville High,2600 PUTTY HILL AVENUE,BALTIMORE,MD,21234,9-12,High
-8514991.823,4760980.3282,243,Baltimore County,03.122,General John Stricker Middle,7855 TRAPPE RD,BALTIMORE,MD,21222,6-8,Middle
-8517089.0971,4758634.6942,244,Baltimore County,03.110,Logan Elementary,7601 DUNMANWAY,BALTIMORE,MD,21222,PreK-5,Elementary
-8542725.3808,4770124.7277,245,Baltimore County,03.111,Woodmoor Elementary,3200 ELBA DRIVE,BALTIMORE,MD,21207,PreK-5,Elementary
-8511006.2231,4777252.1025,246,Baltimore County,03.112,Joppa View Elementary,8727 HONEYGO BOULEVARD,PERRY HALL,MD,21128,PreK-5,Elementary
-8510895.1989,4763781.0728,247,Baltimore County,03.113,Deep Creek Middle,1000 SOUTH MARLYN AVENUE,BALTIMORE,MD,21221,6-8,Middle
-8527136.2476,4777787.6413,248,Baltimore County,03.114,Towson High,69 CEDAR AVENUE,TOWSON,MD,21286,9-12,High
-8544018.5749,4771239.6311,249,Baltimore County,03.104,Hebbville Elementary,3335 WASHINGTON AVENUE,BALTIMORE,MD,21244,PreK-5,Elementary
-8533354.1051,4757559.3136,250,Baltimore County,03.105,Lansdowne Elementary,2301 ALMA ROAD,BALTIMORE,MD,21227,PreK-5,Elementary
-8551108.9457,4787085.9956,251,Baltimore County,03.106,Reisterstown Elementary,223 WALGROVE ROAD,REISTERSTOWN,MD,21136,PreK-5,Elementary
-8515740.9711,4769499.0372,252,Baltimore County,03.107,Golden Ring Middle,6700 KENWOOD AVENUE,BALTIMORE,MD,21237,6-8,Middle
-8512693.941,4781346.6893,253,Baltimore County,03.108,Gunpowder Elementary,9540 HOLIDAY MANOR ROAD,BALTIMORE,MD,21236,K-5,Elementary
-8585807.8268,4661607.6095,254,Charles,08.039,Henry E. Lackey High,3000 CHICKAMUXEN ROAD,INDIAN HEAD,MD,20640,9-12,High
-8565681.1826,4667042.6423,255,Charles,08.028,William B. Wade Elementary,2300 SMALLWOOD DRIVE,WALDORF,MD,20603,Pre-K-5,Elementary
-8588355.6092,4659002.0689,256,Charles,08.029,Gale-Bailey Elementary,4740 PISGAH MARBURY ROAD,MARBURY,MD,20658,PreK-5,Elementary
-8579947.3688,4666636.3621,257,Charles,08.030,J.C. Parks Elementary,3505 LIVINGSTON ROAD,INDIAN HEAD,MD,20640,PreK-5,Elementary
-8567934.8083,4667676.7234,258,Charles,08.031,Westlake High,3300 MIDDLETOWN RD,WALDORF,MD,20603,9-12,High
-8566716.4944,4657101.2541,259,Charles,08.032,Mary H. Matula Elementary,6025 RADIO STATION ROAD,LA PLATA,MD,20646,PreK-5,Elementary
-8568558.0004,4653691.4505,260,Charles,08.021,Milton Somers Middle,300 WILLOW LANE,LA PLATA,MD,20646,6-8,Middle
-8591706.6719,4644341.0475,261,Charles,08.023,Mt. Hope/Nanjemoy Elementary,9275 IRONSIDES ROAD,NANJEMOY,MD,20662,PreK-5,Elementary
-8549073.8511,4666962.0822,262,Charles,08.024,Malcolm Elementary,14760 POPLAR HILL ROAD,WALDORF,MD,20601,PreK-5,Elementary
-8563545.5127,4669369.1673,263,Charles,08.025,Daniel of St. Thomas Jenifer Elementary,2820 JENIFER SCHOOL LANE,WALDORF,MD,20603,PreK-5,Elementary
-8564954.4847,4630357.895,264,Charles,08.027,Dr. Thomas L. Higdon Elementary,12872 ROCK POINT RD,NEWBURG,MD,20664,PreK-5,Elementary
-8566086.3343,4656868.6428,265,Charles,08.013,La Plata High,6035 RADIO STATION ROAD,LA PLATA,MD,20646,9-12,High
-8565077.609,4630651.8092,266,Charles,08.015,Piccowaxen Middle,12834 ROCK POINT ROAD,NEWBURG,MD,20664,6-8,Middle
-8580148.0508,4666446.101,267,Charles,08.016,Matthew Henson Middle,3535 LIVINGSTON ROAD,INDIAN HEAD,MD,20640,6-8,Middle
-8574854.0638,4660300.7883,268,Charles,08.018,Robert D. Stethem Educational Center,7775 MARSHALL CORNER ROAD,POMFRET,MD,20675,6-12,Alternate
-8560773.0428,4663715.7961,269,Charles,08.019,Eva Turner Elementary,1000 BANNISTER CIRCLE,WALDORF,MD,20602,PreK-5,Elementary
-8586576.7704,4664966.3622,270,Charles,08.005,Gen. Smallwood Middle,4990 INDIAN HEAD HIGHWAY,INDIAN HEAD,MD,20640,6-8,Middle
-8590174.9337,4664600.6625,271,Charles,08.008,Indian Head Elementary,4200 INDIAN HEAD HIGHWAY,INDIAN HEAD,MD,20640,PreK-5,Elementary
-8562903.7582,4664911.1782,272,Charles,08.011,Arthur Middleton Elementary,1109 COPLEY AVENUE,WALDORF,MD,20601,PreK-5,Elementary
-8565702.5092,4657037.9449,273,Charles,08.012,F.B. Gwynn Center,5998 RADIO STATION ROAD,LAPLATA,MD,20646,PreK-8,Special Ed.
-8574916.3174,4660123.1643,274,Charles,08.001,Dr. James Craik Elementary,7725 MARSHALL CORNER ROAD,POMFRET,MD,20675,PreK-5,Elementary
-8560229.5736,4664719.0212,275,Charles,08.002,Benjamin Stoddert Middle,2040 ST THOMAS DR,WALDORF,MD,20601,6-8,Middle
-8559153.1779,4667986.587,276,Charles,08.003,John Hanson Middle,3165 JOHN HANSON DRIVE,WALDORF,MD,20601,6-8,Middle
-8562633.5492,4663764.107,277,Charles,08.004,Dr. Gustavus Brown Elementary,421 UNIVERSITY AVE,WALDORF,MD,20602,PreK-5,Elementary
-8455486.4228,4813547.7814,278,Cecil,07.036,Bay View Elementary,910 NORTH EAST RD,NORTH EAST,MD,21901,PreSchoo-5,Elementary
-8440440.2676,4806921.8863,279,Cecil,07.037,Holly Hall Elementary,233 WHITE HALL RD,ELKTON,MD,21921,PreK-5,Elementary
-8458314.5765,4804280.5017,280,Cecil,07.038,Charlestown Elementary,550 BALTIMORE ST,CHARLESTOWN,MD,21914,PreK-5,Elementary
-8444757.4029,4818692.2214,281,Cecil,07.039,Cherry Hill Middle,2535 SINGERLY RD,ELKTON,MD,21921,6-8,Middle
-8439956.5676,4816393.9814,282,Cecil,07.030,Cecil Manor Elementary,971 ELK MILLS RD,ELKTON,MD,21921,PreK-5,Elementary
-8446322.2445,4779961.6337,283,Cecil,07.031,Cecilton Elementary,251 WEST MAIN ST,CECILTON,MD,21913,PreK-5,Elementary
-8441923.7166,4811227.2858,284,Cecil,07.032,Elkton High,110 JAMES ST,ELKTON,MD,21921,9-12,High
-8445435.7657,4821168.925,285,Cecil,07.033,Providence Special,3035 SINGERLY ROAD,ELKTON,MD,21921,6-12,Alternate
-8468545.3714,4808890.4182,286,Cecil,07.034,Bainbridge Elementary,41 PRESTON DR,PORT DEPOSIT,MD,21904,PreSchoo-5,Elementary
-8453237.0028,4807457.7832,287,Cecil,07.035,North East Elementary,301 THOMAS AVE,NORTH EAST,MD,21901,PreK-5,Elementary
-8467644.1575,4822629.2852,288,Cecil,07.023,Rising Sun Middle,289 PEARL ST,RISING SUN,MD,21911,6-8,Middle
-8449073.1678,4798676.4658,289,Cecil,07.024,Elk Neck Elementary,41 RACINE SCHOOL RD,ELKTON,MD,21921,K-5,Elementary
-8467648.9296,4819730.4006,290,Cecil,07.026,Rising Sun Elementary,500 HOPEWELL RD,RISING SUN,MD,21911,PreK-5,Elementary
-8441467.5999,4795119.3748,291,Cecil,07.027,Bohemia Manor Middle/High,2755 AUGUSTINE HERMAN HWY,CHESAPEAKE CITY,MD,21915,6-12,Middle/High
-8441405.9081,4810940.4773,292,Cecil,07.029,Elkton Middle,615 NORTH STREET,ELKTON,MD,21921,6-8,Middle
-8441890.8736,4810746.8208,293,Cecil,07.016,Gilpin Manor Elementary,203 NEWARK AVE,ELKTON,MD,21921,PreK-5,Elementary
-8468007.1408,4803518.0031,294,Cecil,07.018,Perryville Middle,850 AIKEN AVE,PERRYVILLE,MD,21903,6-8,Middle
-8477928.5495,4818704.6795,295,Cecil,07.019,Conowingo Elementary,471 ROWLANDSVILLE RD,CONOWINGO,MD,21918,PreK-5,Elementary
-8467828.9366,4803003.0775,296,Cecil,07.020,Perryville Elementary,901 MAYWOOD AVENUE,PERRYVILLE,MD,21903,PreK-5,Elementary
-8444633.8095,4818507.3127,297,Cecil,07.021,Kenmore Elementary,2475 SINGERLY RD,ELKTON,MD,21921,K-5,Elementary
-8457083.9767,4821234.3209,298,Cecil,07.022,Rising Sun High,100 TIGER DRIVE,NORTH EAST,MD,21901,9-12,High
-8437951.3157,4808733.957,299,Cecil,07.011,Thomson Estates Elementary,203 EAST THOMSON DRIVE,ELKTON,MD,21921,PreK-5,Elementary
-8453525.0769,4808064.3667,300,Cecil,07.012,North East Middle,200 EAST CECIL AVE,NORTH EAST,MD,21901,6-8,Middle
-8467306.7633,4805434.4368,301,Cecil,07.013,Perryville High,1696 PERRYVILLE RD,PERRYVILLE,MD,21903,9-12,High
-8458562.1289,4822565.9513,302,Cecil,07.014,Calvert Elementary,79 BRICK MEETINGHOUSE RD,RISING SUN,MD,21911,K-5,Elementary
-8439779.5733,4797442.0928,303,Cecil,07.015,Chesapeake City Elementary,214 THIRD ST,CHESAPEAKE CITY,MD,21915,K-5,Elementary
-8563939.5241,4779334.6096,304,Carroll,06.043,Oklahoma Road Middle,6300 OKLAHOMA ROAD,SYKESVILLE,MD,21784,6-8,Middle
-8569138.3342,4804191.5752,305,Carroll,06.046,Cranberry Station Elementary,505 NORTH CENTER ST,WESTMINSTER,MD,21157,PreK-5,Elementary
-8570614.6837,4782688.7035,306,Carroll,06.048,Century High,355 RONSDALE RD,SYKESVILLE,MD,21784,9-12,High
-8570561.0246,4798576.9513,307,Carroll,06.050,Gateway,225 KATE WAGNER RD,WESTMINSTER,MD,21157,6-12,Alternate
-8570893.2382,4805518.5075,308,Carroll,06.036,Westminster West Middle,60 MONROE ST,WESTMINSTER,MD,21157,6-8,Middle
-8553835.8551,4806963.2302,309,Carroll,06.037,Spring Garden Elementary,700 BOXWOOD DRIVE,HAMPSTEAD,MD,21074,PreK-5,Elementary
-8583101.2365,4812198.9987,310,Carroll,06.039,Runnymede Elementary,3000 LANGDON DRIVE,WESTMINSTER,MD,21158,PreK-5,Elementary
-8567358.0446,4779212.8126,311,Carroll,06.040,Piney Ridge Elementary,6315 FREEDOM AVENUE,SYKESVILLE,MD,21784,K-5,Elementary
-8556722.7076,4814163.2979,312,Carroll,06.028,N. Carroll Middle,2401 HANOVER PIKE,HAMPSTEAD,MD,21074,6-8,Middle
-8567812.5069,4775266.6182,313,Carroll,06.029,Sykesville Middle,7301 SPRINGFIELD AVE,SYKESVILLE,MD,21784,6-8,Middle
-8588236.8063,4776245.1921,314,Carroll,06.030,Mt. Airy Elementary,405 N MAIN STREET,MT. AIRY,MD,21771,3-5,Elementary
-8570740.5675,4799178.2974,315,Carroll,06.032,Carroll County Career & Technology Center,1229 WASHINGTON RD,WESTMINSTER,MD,21157,10-12,Career Tech
-8566994.6971,4780495.1351,316,Carroll,06.020,Eldersburg Elementary,1021 JOHNSVILLE RD,SYKESVILLE,MD,21784,PreK-5,Elementary
-8558674.7378,4817110.3853,317,Carroll,06.033,Manchester Elementary,3224 YORK ST,MANCHESTER,MD,21102,PreK-5,Elementary
-8577645.7957,4786792.1607,318,Carroll,06.023,Winfield Elementary,4401 SALEM BOTTOM RD,WESTMINSTER,MD,21157,PreK-5,Elementary
-8586368.274,4806869.5278,319,Carroll,06.024,Francis Scott Key High,3525 BARK HILL RD,UNION BRIDGE,MD,21791,9-12,High
-8587987.5635,4776380.7067,320,Carroll,06.026,Mt. Airy Middle,102 WATERSVILLE ROAD,MT. AIRY,MD,21771,6-8,Middle
-8576212.6433,4785334.8761,321,Carroll,06.012,S. Carroll High,1300 W OLD LIBERTY RD,SYKESVILLE,MD,21784,9-12,High
-8565306.4421,4781889.2722,322,Carroll,06.015,Freedom Elementary,5626 SYKESVILLE RD,SYKESVILLE,MD,21784,K-5,Elementary
-8590649.4846,4815604.1436,323,Carroll,06.016,Taneytown Elementary,100 KINGS DRIVE,TANEYTOWN,MD,21787,PreK-5,Elementary
-8570854.2773,4798631.461,324,Carroll,06.018,Robert Moton Elementary,1413 WASHINGTON RD,WESTMINSTER,MD,21157,PreK-5,Special Ed.
-8566344.7324,4781046.8547,325,Carroll,06.019,Liberty High,5855 BARTHOLOW RD,SYKESVILLE,MD,21784,9-12,High
-8574455.6221,4805034.0299,326,Carroll,06.003,Westminster Elementary,811 UNIONTOWN RD,WESTMINSTER,MD,21157,PreK-5,Elementary
-8570511.9258,4804422.0629,327,Carroll,06.004,Westminster East Middle,121 LONGWELL AVE,WESTMINSTER,MD,21157,6-8,Middle
-8562564.3767,4796695.1486,328,Carroll,06.005,Sandymount Elementary,2222 OLD WESTMINSTER PIKE,FINKSBURG,MD,21048,PreK-5,Elementary
-8565215.6978,4789028.0432,329,Carroll,06.007,Mechanicsville Elementary,3838 SYKESVILLE RD,SYKESVILLE,MD,21784,PreK-5,Elementary
-8435757.772,4677415.4615,330,Caroline,05.007,Federalsburg Elementary,302 S. UNIVERSITY AVENUE,FEDERALSBURG,MD,21632,PreK-5,Elementary
-8442678.1123,4708571.3119,331,Caroline,05.009,Caroline Career & Technology Center,10855 CENTRAL AVENUE,RIDGELY,MD,21660,9-12,Career Tech
-8440885.113,4686586.41,332,Caroline,05.010,Col. Richardson Middle,25390 RICHARDSON ROAD,FEDERALSBURG,MD,21632,6-8,Middle
-8590228.5876,4815457.2822,333,Carroll,06.002,Northwest Middle,99 KINGS DRIVE,TANEYTOWN,MD,21787,6-8,Middle
-8438238.9268,4719381.3219,334,Caroline,05.001,Greensboro Elementary,625 N. MAIN ST,GREENSBORO,MD,21639,PreK-5,Elementary
-8442588.9607,4708555.9028,335,Caroline,05.002,North Caroline High,10990 RIVER ROAD,RIDGELY,MD,21660,9-12,High
-8441528.4891,4703041.1453,336,Caroline,05.003,Denton Elementary,303 SHARP ROAD,DENTON,MD,21629,PreK-5,Elementary
-8441163.7833,4686606.4338,337,Caroline,05.004,Col. Richardson High,25320 RICHARDSON ROAD,FEDERALSBURG,MD,21632,9-12,High
-8447366.9356,4714887.9578,338,Caroline,05.006,Ridgely Elementary,118 N. CENTRAL AVENUE,RIDGELY,MD,21660,PreK-5,Elementary
-8509268.6357,4629700.0961,339,Calvert,04.019,Patuxent High,12485 SOUTHERN CONNECTOR BLVD.,LUSBY,MD,20657,9-12,High
-8523933.6514,4680623.2249,340,Calvert,04.020,Windy Hill Elementary,9550 BOYDS TURN RD,OWINGS,MD,20736,PreK-5,Elementary
-8515890.839,4645158.24,341,Calvert,04.021,St. Leonard Elementary,5370 ST. LEONARD RD.,ST. LEONARD,MD,20685,PreK-5,Elementary
-8523947.338,4680798.9104,342,Calvert,04.022,Windy Hill Middle,9560 BOYDS TURN ROAD,OWINGS,MD,20736,6-8,Middle
-8510514.4976,4629800.8847,343,Calvert,04.023,Dowell Elementary,12680 HG TRUEMAN ROAD,LUSBY,MD,20657,PreK-5,Elementary
-8509729.0986,4630688.9737,344,Calvert,04.024,Mill Creek Middle,12200 SOUTHERN CONNECTOR BLVD.,LUSBY,MD,20657,6-8,Middle
-8520093.0918,4676440.6965,345,Calvert,04.011,Beach Elementary,7900 OLD BAYSIDE RD,CHESAPEAKE BEACH,MD,20732,PreK-5,Elementary
-8508872.2846,4632656.6474,346,Calvert,04.013,Appeal Elementary,11655 H.G. TRUEMAN ROAD,LUSBY,MD,20657,PreK-K,Elementary
-8527389.1389,4674527.0594,347,Calvert,04.014,Sunderland Elementary,150 CLYDE JONES ROAD,SUNDERLAND,MD,20689,PreK-5,Elementary
-8525622.3014,4663959.4087,348,Calvert,04.015,Plum Point Elementary,1245 PLUM POINT ROAD,HUNTINGTOWN,MD,20639,PreK-5,Elementary
-8525170.7037,4664137.6315,349,Calvert,04.017,Plum Point Middle,1475 PLUM POINT ROAD,HUNTINGTOWN,MD,20639,6-8,Middle
-8509092.5551,4797923.2431,350,Harford,12.011,Youth's Benefit Elementary,1901 FALLSTON RD,FALLSTON,MD,21047,PreK-5,Elementary
-8494547.0831,4790776.7614,351,Harford,12.013,William S. James Elementary,1 LAURENTUM PARKWAY,ABINGDON,MD,21009,K-5,Elementary
-8492412.6392,4782346.9737,352,Harford,12.014,Edgewood Middle,2311 WLGHBY BCH RD,EDGEWOOD,MD,21040,6-8,Middle
-8497153.0599,4780723.9992,353,Harford,12.002,Magnolia Elementary,901 TRIMBLE RD,JOPPA,MD,21085,PreK-5,Elementary
-8493391.3562,4786291.2597,354,Harford,12.003,William Paca/Old Post Rd. Elementary,2706 OLD PHILADELPHIA RD,ABINGDON,MD,21009,PreK-5,Elementary
-8498999.1465,4798060.7208,355,Harford,12.004,Bel Air High,100 HEIGHE ST,BEL AIR,MD,21014,9-12,High
-8478596.3742,4795770.8767,356,Harford,12.006,Aberdeen Middle,111 MOUNT ROYAL AVENUE,ABERDEEN,MD,21001,6-8,Middle
-8505452.3812,4818869.7898,357,Harford,12.007,North Harford Middle,112 PYLESVILLE RD,PYLESVILLE,MD,21132,6-8,Middle
-8836374.0696,4781297.121,358,Garrett,11.006,Broad Ford Elementary,905 BROAD FORD SCHOOL RD,OAKLAND,MD,21550,K-5,Elementary
-8827844.3669,4817430.1418,359,Garrett,11.019,Hickory Environmental Education Center,604 PRIDE PARKWAY,ACCIDENT,MD,21520,,Environmental Ed.
-8828799.6051,4811777.2151,360,Garrett,11.013,Accident Elementary,534 ACCIDENT BITTINGER ROAD P.O. BOX 260,ACCIDENT,MD,21520,PreK-5,Elementary
-8506282.2972,4796723.1392,361,Harford,12.001,Fallston High,2301 CARRS MILL RD,FALLSTON,MD,21047,9-12,High
-8839365.7557,4817516.8548,362,Garrett,11.002,Friendsville Elementary,841 FIRST AVENUE P O BOX 59,FRIENDSVILLE,MD,21531,PreK-5,Elementary
-8811319.1211,4821703.4268,363,Garrett,11.004,Grantsville Elementary,120 GRANT ST P.O. BOX 9,GRANTSVILLE,MD,21536,K-5,Elementary
-8827878.6793,4817140.3144,364,Garrett,11.009,Northern Middle,371 PRIDE PARKWAY,ACCIDENT,MD,21520,6-8,Middle
-8827363.4759,4817325.0009,365,Garrett,11.014,Northern High,86 PRIDE PARKWAY,ACCIDENT,MD,21520,9-12,High
-8836589.7451,4781370.8808,366,Garrett,11.008,Southern Middle,605 HARVEY WINTERS RD.,OAKLAND,MD,21550,6-8,Middle
-8837647.5654,4779730.1272,367,Garrett,11.005,Southern High,345 OAKLAND DRIVE,OAKLAND,MD,21550,9-12,High
-8842528.718,4771858.716,368,Garrett,11.016,Swan Meadow Elementary,6709 GARRETT HWY.,OAKLAND,MD,21550,1-8,Elementary/Middle
-8838139.6984,4778577.9235,369,Garrett,11.015,Yough Glades Elementary,70 WOLF ACRES DRIVE,OAKLAND,MD,21550,PreK-5,Elementary
-8795399.2673,4820528.2391,370,Garrett,11.011,Route 40 Elementary,17764 NATIONAL PIKE,FROSTBURG,MD,21532,PreK-5,Elementary                                        
-8617847.4603,4799236.9703,371,Frederick,10.060,Lewistown Elementary,11119 HESSONG BRIDGE RD,THURMONT,MD,21788,PreK-5,Elementary
-8634554.5034,4794892.9123,372,Frederick,10.061,Myersville Elementary,429 MAIN STREET,MYERSVILLE,MD,21773,K-5,Elementary
-8633206.0067,4804392.3105,373,Frederick,10.056,Wolfsville Elementary,12520 WOLFSVILLE RD,SMITHSBURG,MD,21783,K-5,Elementary
-8615928.7569,4784483.7141,374,Frederick,10.059,Gov Thos. Johnson Middle,1799 SCHIFFERSTADT DRIVE,FREDERICK,MD,21701,6-8,Middle
-8616760.1277,4784042.2806,375,Frederick,10.057,Gov Thos. Johnson High,1501 NORTH MARKET ST,FREDERICK,MD,21701,9-12,High
-8623837.5897,4766654.3312,376,Frederick,10.066,Carroll Manor Elementary,5624 ADAMSTOWN RD,ADAMSTOWN,MD,21710,PK-5,Elementary
-8615087.4671,4810021.8542,377,Frederick,10.064,Thurmont Primary,7989 ROCKY RIDGE ROAD,THURMONT,MD,21788,PK-2,Elementary
-8617620.9669,4784582.8447,378,Frederick,10.065,Heather Ridge,1445 TANEY AVENUE,FREDERICK,MD,21702,6-12,Alternate
-8638832.3691,4766858.742,379,Frederick,10.055,Brunswick Middle,301 CUMMINGS DR,BRUNSWICK,MD,21716,6-8,Middle
-8617167.264,4813593.2245,380,Frederick,10.051,Catoctin High,14745 SABILLASVILLE RD,THURMONT,MD,21788,9-12,High
-8604080.2816,4779648.1185,381,Frederick,10.053,Deer Crossing Elementary,10601 FINN DRIVE,NEW MARKET,MD,21774,K-5,Elementary
-8560809.8801,4662441.2151,382,Charles,08.045,Mary Burgess Neal Elementary,12105 ST. GEORGES DRIVE,WALDORF,MD,20602,PreK-5,Elementary
-8536422.724,4769329.1857,383,Baltimore City,30.182,Garrison Middle # 042,3910 BARRINGTON RD,BALITMORE,MD,21207,6-8,Middle
-8611057.1998,4790696.8393,384,Frederick,10.045,Walkersville Middle,55 FREDERICK ST,WALKERSVILLE,MD,21793,6-8,Middle
-8602432.6359,4767996.9874,385,Frederick,10.046,Windsor Knolls Middle,11150 WINDSOR RD,IJAMSVILLE,MD,21754,6-8,Middle
-8622361.9004,4819608.5607,386,Frederick,10.047,Sabillasville Elementary,16210B SABILLASVILLE RD,SABILLASVILLE,MD,21780,K-5,Elementary
-8609404.494,4768568.4067,387,Frederick,10.048,Urbana High,3471 CAMPUS DRIVE,IJAMSVILLE,MD,21754,9-12,High
-8610819.4419,4779056.0118,388,Frederick,10.049,Spring Ridge Elementary,9051 RIDGEFIELD DR,FREDERICK,MD,21701,PK-5,Elementary
-8610475.0408,4792977.1144,389,Frederick,10.050,Glade Elementary,9525 GLADE ROAD,WALKERSVILLE,MD,21793,PK-5,Elementary
-8621767.5816,4780693.4246,390,Frederick,10.039,Hillcrest Elementary,1285 HILLCREST DR,FREDERICK,MD,21702,PK-5,Elementary
-8617293.1416,4787078.9084,391,Frederick,10.040,Monocacy Elementary,7421 HAYWARD ROAD,FREDERICK,MD,21702,PK-5,Elementary
-8620688.456,4777079.9359,392,Frederick,10.041,Ballenger Creek Middle,5525 BALLENGER CREEK PIKE,FREDERICK,MD,21703,6-8,Middle
-8601159.8452,4770928.499,393,Frederick,10.042,Green Valley Elementary,11501 FINGERBOARD RD,MONROVIA,MD,21770,K-5,Elementary
-8619535.2399,4775935.4676,394,Frederick,10.043,Ballenger Creek Elementary,5250 KINGSBROOK DR,FREDERICK,MD,21703,PK-5,Elementary
-8591185.079,4774870.4461,395,Frederick,10.044,Twin Ridge Elementary,1106 LEAFY HOLLOW CIRCLE,MT AIRY,MD,21771,PK-5,Elementary
-8617605.1398,4786992.1643,396,Frederick,10.034,Monocacy Middle,8009 O'POSSUMTOWN PK,FREDERICK,MD,21702,6-8,Middle
-8599787.7476,4791198.5535,397,Frederick,10.035,Liberty Elementary,11820 LIBERTY RD,LIBERTYTOWN,MD,21762,K-5,Elementary
-8639270.3728,4767154.7058,398,Frederick,10.036,Brunswick High,101 CUMMINGS DRIVE,BRUNSWICK,MD,21716,9-12,High
-8619144.2659,4781263.0322,399,Frederick,10.037,W. Frederick Middle,515 W PATRICK ST,FREDERICK,MD,21701,6-8,Middle
-8603611.1819,4803511.4715,400,Frederick,10.038,New Midway Elementary,12226 WOODSBORO PIKE,KEYMAR,MD,21757,3-5,Elementary
-8642091.0393,4767443.8603,401,Frederick,10.025,Brunswick Elementary,400 CENTRAL AVE,BRUNSWICK,MD,21716,PK-5,Elementary
-8617835.2393,4786466.5074,402,Frederick,10.026,Career & Technology Center,7922 OPOSSUMTOWN PK,FREDERICK,MD,21702,10-12,Career Tech
-8602254.5613,4776791.6025,403,Frederick,10.030,New Market Elementary,93 W. MAIN STREET,NEW MARKET,MD,21774,PreK-5,Elementary
-8602443.8902,4776931.3027,404,Frederick,10.031,New Market Middle,125 WEST MAIN STREET,NEW MARKET,MD,21774,6-8,Middle
-8597914.4133,4769591.1848,405,Frederick,10.032,Kemptown Elementary,3456 KEMPTOWN CH RD,MONROVIA,MD,21770,K-5,Elementary
-8599131.4057,4783873.7502,406,Frederick,10.017,Linganore High,12013 OLD ANNAPOLIS RD,FREDERICK,MD,21701,9-12,High
-8632549.8256,4773247.5932,407,Frederick,10.018,Valley Elementary,3519 JEFFERSON PIKE,JEFFERSON,MD,21755,PK-5,Elementary
-8617507.8992,4783316.6411,408,Frederick,10.021,N. Frederick Elementary,1010 FAIRVIEW AVENUE,FREDERICK,MD,21701,PK-5,Elementary
-8611280.0653,4768600.1385,409,Frederick,10.022,Urbana Elementary,3554 URBANA PIKE,FREDERICK,MD,21704,SpecEdPK-5,Elementary
-8618326.9623,4781204.8655,410,Frederick,10.023,Parkway Elementary,300 CARROLL PARKWAY,FREDERICK,MD,21701,K-5,Elementary
-8616634.0896,4810934.1433,411,Frederick,10.008,Thurmont Middle,408 E MAIN ST,THURMONT,MD,21788,6-8,Middle
-8619127.2652,4781545.7705,412,Frederick,10.009,Frederick High,650 CARROLL PARKWAY,FREDERICK,MD,21701,9-12,High
-8631252.0631,4785459.4386,413,Frederick,10.010,Middletown Middle,100 MARTHA MASON STREET,MIDDLETOWN,MD,21769,6-8,Middle
-8611847.6205,4790005.3617,414,Frederick,10.012,Walkersville High,81 FREDERICK ST,WALKERSVILLE,MD,21793,9-12,High
-8606402.8699,4798370.075,415,Frederick,10.014,Woodsboro Elementary,101 LIBERTY RD,WOODSBORO,MD,21798,PK-2,Elementary
-8615773.8986,4810462.8768,416,Frederick,10.015,Thurmont Elementary,805 E MAIN ST,THURMONT,MD,21788,3-5,Elementary
-8631485.9709,4785477.8727,417,Frederick,10.001,Middletown Elementary,201 E GREEN STREET,MIDDLETOWN,MD,21769,3-5,Elementary
-8631118.5518,4785838.8164,418,Frederick,10.005,Middletown High,200 HIGH ST,MIDDLETOWN,MD,21769,9-12,High
-8608263.8903,4822870.6815,419,Frederick,10.006,Emmitsburg Elementary,300 S. SETON AVENUE,EMMITSBURG,MD,21727,PK-5,Elementary
-8621907.42,4789853.4773,420,Frederick,10.007,Yellow Springs Elementary,8717 YELLOW SPRINGS RD,FREDERICK,MD,21702,K-5,Elementary
-8481063.315,4635834.2069,421,Dorchester,09.012,South Dorchester Pre K-8,3485 GOLDEN HILL ROAD,CHURCH CREEK,MD,21622,PreK-8,PreK-8
-8446224.2841,4662787.8697,422,Dorchester,09.013,North Dorchester High,5875 CLOVERDALE ROAD,HURLOCK,MD,21643,9-12,High
-8445226.9394,4668918.2261,423,Dorchester,09.014,Hurlock Elementary,301 CHARLES STREET,HURLOCK,MD,21643,PreK-5,Elementary
-8470555.9187,4658522.4725,424,Dorchester,09.015,Mace's Lane Middle,1101 MACE'S LANE,CAMBRIDGE,MD,21613,6-8,Middle
-8470471.8954,4658226.0915,425,Dorchester,09.016,Choptank Elementary,1103 MACE'S LANE,CAMBRIDGE,MD,21613,PreK-5,Elementary
-8470215.7564,4661636.1539,426,Dorchester,09.017,Judy Hoyer Center,1405 GLASGOW ROAD,CAMBRIDGE,MD,21613,Prek,Elementary
-8441617.6805,4648561.3031,427,Dorchester,09.005,Vienna Elementary,4905 OCEAN GATEWAY,VIENNA,MD,21869,PreK-6,Elementary
-8470723.0312,4656924.1906,428,Dorchester,09.008,Dorchester Student Services Center,2455 CAMBRIDGE BELTWAY AKA NEW DIRECTIONS LEARNING ACADEMY,CAMBRIDGE,MD,21613,9-12,Alternate
-8470259.9794,4656663.437,429,Dorchester,09.009,Cambridge-South Dorchester High,2475 CAMBRIDGE BELTWAY,CAMBRIDGE,MD,21613,9-12,High
-8470608.5529,4656042.7825,430,Dorchester,09.010,Maple Elementary,5225 EGYPT ROAD,CAMBRIDGE,MD,21613,PreK-8,Special Ed.
-8454012.3728,4665877.2133,431,Dorchester,09.011,Warwick Elementary,155 MAIN STREET,SECRETARY,MD,21664,PreK-5,Elementary
-8569027.526,4670458.4198,432,Charles,08.042,North Point High School,2500 DAVIS ROAD,WALDORF,MD,20603,9-12,Career Tech
-8554105.6309,4655906.3298,433,Charles,08.040,T C Martin Elementary,6315 OLIVERS SHOP ROAD,BRYANTOWN,MD,20617,PreK-5,Elementary
-8470310.025,4661812.3547,434,Dorchester,09.001,Sandy Hill Elementary,1503 GLASGOW ROAD,CAMBRIDGE,MD,21613,PreK-5,Elementary
-8564630.7455,4668015.3486,435,Charles,08.034,C. Paul Barnhart Elementary,5800 LANCASTER CIRCLE,WALDORF,MD,20603,PreK-5,Elementary
-8567229.2901,4671186.9176,436,Charles,08.035,Mattawoman Middle,10145 BERRY ROAD,WALDORF,MD,20603,6-8,Middle
-8567160.647,4671367.8814,437,Charles,08.036,Berry Elementary,10155 BERRY ROAD,WALDORF,MD,20603,PreK-5,Elementary
-8559688.4924,4755418.1703,438,Howard,13.018,Applications and Research Lab,10920 ROUTE #108,ELLICOTT CITY,MD,21043,,Career Tech
-8553838.6531,4764575.8802,439,Howard,13.019,Mt. Hebron High,9440 ROUTE 99,ELLICOTT CITY,MD,21042,9-12,High
-8541424.5254,4752325.5491,440,Howard,13.020,Elkridge Elementary,7075 MONTGOMERY ROAD,ELKRIDGE,MD,21075,K-5,Elementary
-8548818.0459,4756805.1587,441,Howard,13.010,Worthington Elementary,4570 ROUND HILL ROAD,ELLICOTT CITY,MD,21043,K-5,Elementary
-8550751.642,4754155.523,442,Howard,13.012,Howard High,8700 OLD ANNAPOLIS ROAD,ELLICOTT CITY,MD,21043,9-12,High
-8558308.3281,4748644.3831,443,Howard,13.013,Atholton High,6520 FREETOWN ROAD,COLUMBIA,MD,21044,9-12,High
-8552266.8566,4751148.0056,444,Howard,13.014,Jeffers Hill Elementary,6000 TAMAR DR,COLUMBIA,MD,21045,K-5,Elementary
-8556078.8053,4745707.1548,445,Howard,13.016,Hammond High,8800 GUILFORD ROAD,COLUMBIA,MD,21046,9-12,High
-8559126.6133,4753900.0388,446,Howard,13.003,Harpers Choice Middle,5450 BEAVERKILL ROAD,COLUMBIA,MD,21044,6-8,Middle
-8579290.9404,4769599.7394,447,Howard,13.004,Lisbon Elementary,15901 FREDERICK ROAD,WOODBINE,MD,21797,K-5,Elementary
-8556192.3175,4759880.1178,448,Howard,13.005,Centennial Lane Elementary,3825 CENTENNIAL LANE,ELLICOTT CITY,MD,21042,K-5,Elementary
-8554188.9053,4752243.1144,449,Howard,13.007,Talbott Springs Elementary,9550 BASKET RING ROAD,COLUMBIA,MD,21045,PreK-5,Elementary
-8554187.4113,4751434.7808,450,Howard,13.008,Oakland Mills Middle,9540 KILIMANJARO ROAD,COLUMBIA,MD,21045,6-8,Middle
-8556818.5018,4753379.7794,451,Howard,13.079,Bryant Woods Elementary,5450 BLUE HERON LANE,COLUMBIA,MD,21044,PreK-5,Elementary
-8574297.4548,4764389.6935,452,Howard,13.069,Glenwood Middle,2680 ROUTE 97,GLENWOOD,MD,21738,6-8,Middle
-8552898.6683,4758471.9793,453,Howard,13.001,Dunloggin Middle,9129 NORTHFIELD ROAD,ELLICOTT CITY,MD,21042,6-8,Middle
-8553707.366,4751583.7845,454,Howard,13.002,Oakland Mills High,9410 KILIMANJARO ROAD,COLUMBIA,MD,21045,9-12,High
-8561929.4568,4743413.3412,455,Howard,13.077,Reservoir High,11550 SCAGGSVILLE ROAD,FULTON,MD,20759,9-12,High                                              
-8558061.9993,4742908.8612,456,Howard,13.076,Hammond Middle,8110 ALADDIN DRIVE,LAUREL,MD,20723,6-8,Middle
-8553181.5813,4754519.4632,457,Howard,13.075,Thunder Hill Elementary,9357 MELLENBROOK RD,COLUMBIA,MD,21045,K-5,Elementary
-8555744.0781,4754507.0606,458,Howard,13.066,Running Brook Elementary,5215 WEST RUNNING BROOK ROAD,COLUMBIA,MD,21044,PreK-5,Elementary
-8557881.2145,4752818.1821,459,Howard,13.060,Wilde Lake Middle,10481 CROSS FOX LANE,COLUMBIA,MD,21044,6-8,Middle
-8558061.9993,4742908.8612,460,Howard,13.064,Hammond Elementary,8110 ALADDIN DR,LAUREL,MD,20723,K-5,Elementary
-8554017.1894,4738537.7756,461,Howard,13.065,Laurel Woods Elementary,9250 N. LAUREL ROAD,LAUREL,MD,20723,PreK-5,Elementary
-8551330.8275,4765091.0218,462,Howard,13.067,Hollifield Station Elementary,8701 STONEHOUSE DRIVE,ELLICOTT CITY,MD,21043,PreK-5,Elementary
-8555973.0779,4742488.2297,463,Howard,13.068,Gorman Crossing Elementary,9999 WINTER SUN RD.,LAUREL,MD,20723,PreK-5,Elementary
-8569796.275,4759878.0435,464,Howard,13.081,Folly Quarter Middle,13500 TRIDELPHIA ROAD,ELLICOTT CITY,MD,21042,6-8,Middle
-8569334.6577,4759895.5207,465,Howard,13.073,Triadelphia Ridge Elementary,13400 TRIDELPHIA ROAD,ELLICOTT CITY,MD,21042,K-5,Elementary
-8558414.7469,4754176.0313,466,Howard,13.056,Longfellow Elementary,5470 HESPERUS DR,COLUMBIA,MD,21044,PreK-5,Elementary
-8557457.7926,4752853.8588,467,Howard,13.058,Wilde Lake High,5460 TRUMPETER ROAD,COLUMBIA,MD,21044,9-12,High
-8555747.0908,4742511.1766,468,Howard,13.059,Murray Hill Middle,9989 WINTER SUN ROAD,LAUREL,MD,20723,6-8,Middle
-8571829.9312,4761198.8331,469,Howard,13.061,Glenelg High,14025 BURNT WOODS ROAD,GLENELG,MD,21737,9-12,High
-8549092.0074,4751399.808,470,Howard,13.062,Waterloo Elementary,5940 WATERLOO ROAD,COLUMBIA,MD,21045,PreK-5,Elementary
-8562242.1755,4743336.8021,471,Howard,13.063,Fulton Elementary,11600 SCAGGSVILLE ROAD,FULTON,MD,20759,K-5,Elementary
-8545845.4805,4752515.2114,472,Howard,13.050,Rockburn Elementary,6145 MONTGOMERY RD,ELKRIDGE,MD,21075,PreK-5,Elementary
-8551244.4911,4764448.99,473,Howard,13.051,Patapsco Middle,8885 OLD FREDERICK ROAD,ELLICOTT CITY,MD,21043,6-8,Middle
-8562005.0822,4763306.2441,474,Howard,13.052,Manor Woods Elementary,11575 FREDERICK ROAD,ELLICOTT CITY,MD,21042,K-5,Elementary
-8563684.8621,4752521.1835,475,Howard,13.053,River Hill High,12101 ROUTE 108,CLARKSVILLE,MD,21029,9-12,High
-8541422.7844,4752137.0227,476,Howard,13.054,Elkridge Landing Middle,7085 MONTGOMERY ROAD,ELKRIDGE,MD,21075,6-8,Middle
-8550583.9573,4751200.8792,477,Howard,13.055,Long Reach High,6101 OLD DOBBIN LANE,COLUMBIA,MD,21045,9-12,High
-8556981.97,4765462.7962,478,Howard,13.043,Waverly Elementary,10220 WETHERBURN ROAD,ELLICOTT CITY,MD,21042,PreK-5,Elementary
-8563405.757,4749050.9267,479,Howard,13.044,Pointers Run Elementary,6600 SOUTH TROTTER RD,CLARKSVILLE,MD,21029,PreK-5,Elementary
-8547835.8357,4750014.9991,480,Howard,13.045,Mayfield Woods Middle,7950 RED BARN WAY,ELKRIDGE,MD,21075,6-8,Middle
-8556850.1534,4758294.843,481,Howard,13.046,Burleigh Manor Middle,4200 CENTENNIAL LANE,ELLICOTT CITY,MD,21042,6-8,Middle
-8553787.4055,4741042.5439,482,Howard,13.047,Forest Ridge Elementary,9550 GORMAN RD,LAUREL,MD,20723,K-5,Elementary
-8552709.3455,4758381.7597,483,Howard,13.048,Northfield Elementary,9125 NORTHFIELD RD.,ELLICOTT CITY,MD,21042,K-5,Elementary
-8556982.2663,4757947.8058,484,Howard,13.036,Centennial High,4300 CENTENNIAL LANE,ELLICOTT CITY,MD,21042,9-12,High
-8563678.1829,4753077.237,485,Howard,13.037,Clarksville Elementary,12041 ROUTE 108,CLARKSVILLE,MD,21029,K-5,Elementary
-8552458.239,4742604.4848,486,Howard,13.039,Bollman Bridge Elementary,8200 SAVAGE-GUILFORD ROAD,JESSUP,MD,20794,PreK-5,Elementary
-8552498.5583,4742727.9738,487,Howard,13.041,Patuxent Valley Middle,9151 VOLLMERHOUSEN ROAD,JESSUP,MD,20794,6-8,Middle
-8547851.6522,4748157.3741,488,Howard,13.042,Deep Run Elementary,6925 OLD WATERLOO RD,ELKRIDGE,MD,21075,PreK-5,Elementary
-8563079.8147,4749000.4521,489,Howard,13.031,Clarksville Middle,6535 S. TROTTER ROAD,CLARKSVILLE,MD,21029,6-8,Middle
-8565580.9098,4764984.3437,490,Howard,13.032,West Friendship Elementary,12500 FREDERICK ROAD,WEST FRIENDSHIP,MD,21794,K-5,Elementary
-8552649.5799,4745965.2998,491,Howard,13.033,Guilford Elementary,7335 OAKLAND MILLS RD,COLUMBIA,MD,21046,PreK-5,Elementary
-8557481.2642,4749523.5884,492,Howard,13.034,Clemens Crossing Elementary,10320 QUARTERSTAFF RD,COLUMBIA,MD,21044,K-5,Elementary
-8554103.748,4749217.5927,493,Howard,13.035,Cradlerock ES/Lake Elkhorn MS,6700 CRADLEROCK WAY,COLUMBIA,MD,21045,PreK-8,PreK-8
-8519693.6971,4822454.4825,494,Harford,12.055,Norrisville Elementary,5302 NORRISVILLE RD,WHITE HALL,MD,21161,K-5,Elementary
-8493595.1787,4782527.6368,495,Harford,12.054,Edgewood Elementary,2100 CEDAR DRIVE,EDGEWOOD,MD,21040,PreK-5,Elementary
-8559213.3202,4752760.5649,496,Howard,13.023,Swansfield Elementary,5610 CEDAR LANE,COLUMBIA,MD,21044,PreK-5,Elementary
-8550517.1477,4757553.6031,497,Howard,13.026,Ellicott Mills Middle,4445 MONTGOMERY ROAD,ELLICOTT CITY,MD,21043,6-8,Middle
-8553082.9164,4763382.03,498,Howard,13.028,St. Johns Lane Elementary,2960 ST JOHNS LANE,ELLICOTT CITY,MD,21042,K-5,Elementary
-8497339.3576,4800259.4194,499,Harford,12.050,Southampton Middle,1200 MOORES MILL RD,BEL AIR,MD,21014,6-8,Middle
-8487588.1118,4802403.0735,500,Harford,12.051,Churchville Elementary,2935 LEVEL RD,CHURCHVILLE,MD,21028,K-5,Elementary
-8480300.0505,4794060.3293,501,Harford,12.052,George D. Lisby Elementary @ Hillsdale,810 EDMUND ST,ABERDEEN,MD,21001,PreK-5,Elementary
-8472120.1186,4802625.0061,502,Harford,12.053,Meadowvale Elementary,910 GRACE VIEW DR,HAVRE DE GRACE,MD,21078,PreK-5,Elementary
-8482643.2028,4813336.0797,503,Harford,12.056,Darlington Elementary,2119 SHURESVILLE RD,DARLINGTON,MD,21034,K-5,Elementary
-8497953.2876,4779309.9896,504,Harford,12.045,Riverside Elementary,211 STILLMEADOW DR,JOPPA,MD,21085,PreK-5,Elementary
-8499460.8442,4781163.04,505,Harford,12.046,Joppatowne High,555 JOPPA FARM RD,JOPPA,MD,21085,9-12,High
-8475300.8914,4796660.8239,506,Harford,12.047,Roye-Williams Elementary,201 OAKINGTON RD,HAVRE DE GRACE,MD,21078,PreK-5,Elementary
-8503100.7341,4803501.7667,507,Harford,12.048,Forest Lakes Elementary,100 OSBORNE PARKWAY,FOREST HILL,MD,21050,K-5,Elementary
-8496487.5503,4790292.5737,508,Harford,12.049,Abingdon Elementary,399 SINGER ROAD,ABINGDON,MD,21009,PreK-5,Elementary
-8477502.5471,4794358.0216,509,Harford,12.036,Halls Cross Roads Elementary,203 E BEL AIR AVE,ABERDEEN,MD,21001,PreK-5,Elementary
-8492604.1342,4782253.1692,510,Harford,12.037,Deerfield Elementary,2307 WILLOUGHBY BEACH RD,EDGEWOOD,MD,21040,PreK-5,Elementary
-8496924.4506,4791604.0445,511,Harford,12.038,Emmorton Elementary,2502 TOLLGATE ROAD,BEL AIR,MD,21015,K-5,Elementary
-8471574.128,4800166.0945,512,Harford,12.039,Havre de Grace Middle/High,445 LEWIS LANE,HAVRE DE GRACE,MD,21078,6-12,Middle/High
-8500584.5633,4782108.6722,513,Harford,12.040,Joppatowne Elementary,407 TRIMBLE ROAD,JOPPA,MD,21085,PreK-5,Elementary
-8506012.188,4796333.9432,514,Harford,12.030,Fallston Middle,2303 CARRS MILL RD,FALLSTON,MD,21047,6-8,Middle
-8511391.394,4812639.2272,515,Harford,12.031,North Bend Elementary,1445 NORTH BEND RD,JARRETTSVILLE,MD,21084,PreK-5,Elementary
-8494191.7879,4799484.3768,516,Harford,12.033,Fountain Green Elementary,517 FOUNTAIN GREEN RD,BEL AIR,MD,21015,K-5,Elementary
-8487926.3059,4789992.5539,517,Harford,12.034,Church Creek Elementary,4299 CHURCH CREEK ROAD,BELCAMP,MD,21017,PreK-5,Elementary
-8498622.847,4797571.2918,518,Harford,12.035,Bel Air Middle,99 IDLEWILD ST,BEL AIR,MD,21014,6-8,Middle
-8499275.0959,4799159.7583,519,Harford,12.024,Bel Air Elementary,30 E LEE ST,BEL AIR,MD,21014,PreK-5,Elementary
-8492276.951,4801767.0253,520,Harford,12.025,John Archer Special Education,100 THOMAS RUN RD,BEL AIR,MD,21015,PreK-12,Special Ed.
-8505202.0025,4819100.7961,521,Harford,12.026,North Harford Elementary,120 PYLESVILLE RD,PYLESVILLE,MD,21132,K-5,Elementary
-8489846.7771,4815018.5624,522,Harford,12.027,Dublin Elementary,1527 WHITEFORD RD,STREET,MD,21154,PreK-5,Elementary
-8471106.1696,4799588.0116,523,Harford,12.028,Havre de Grace  Elementary,600 JUNIATA ST,HAVRE DE GRACE,MD,21078,PreK-5,Elementary
-8497167.8454,4795578.4857,524,Harford,12.029,Ring Factory Elementary,1400 EMMORTON ROAD,BEL AIR,MD,21014,K-5,Elementary
-8504882.0423,4818945.3164,525,Harford,12.016,North Harford High,211 PYLESVILLE RD,PYLESVILLE,MD,21132,9-12,High
-8514427.9539,4808325.407,526,Harford,12.017,Jarrettsville Elementary,3818 NORRISVILLE RD,JARRETTSVILLE,MD,21084,K-5,Elementary
-8479160.6877,4796185.3594,527,Harford,12.018,Swan Creek School,253 PARADISE ROAD,ABERDEEN,MD,21001,K-12,Alternate
-8497029.9726,4802429.5161,528,Harford,12.020,C. Milton Wright High,1301 N FOUNTAIN GREEN RD,BEL AIR,MD,21015,9-12,High
-8497045.2397,4780293.0826,529,Harford,12.021,Magnolia Middle,299 FT HOYLE RD,JOPPA,MD,21085,6-8,Middle
-8492282.6677,4802089.1401,530,Harford,12.008,Harford Tech High,200 THOMAS RUN RD,BEL AIR,MD,21015,9-12,Career Tech
-8492125.9842,4782335.9743,531,Harford,12.009,Edgewood High,2415 WILLOUGHBY BEACH RD.,EDGEWOOD,MD,21040,9-12,High
-8528386.0667,4617867.5012,532,St. Mary's,18.012,Dr. James A. Forrest Career & Technology Center,24005 POINT LOOKOUT ROAD,LEONARDTOWN,MD,20650,9-12,Career Tech
-8544303.7042,4643618.9022,533,St. Mary's,18.014,Mechanicsville Elementary,28585 THREE NOTCH ROAD,MECHANICSVILLE,MD,20659,K-5,Elementary
-8514931.0387,4622327.5963,534,St. Mary's,18.015,Town Creek Elementary,45805 DENT DRIVE,LEXINGTON PARK,MD,20653,K-5,Elementary
-8528340.4013,4617626.568,535,St. Mary's,18.004,Leonardtown High,23995 POINT LOOKOUT ROAD,LEONARDTOWN,MD,20650,9-12,High
-8501003.8181,4595067.3485,536,St. Mary's,18.006,Ridge Elementary,49430 AIRDELE ROAD,RIDGE,MD,20680,PK-5,Elementary
-8513776.9948,4614804.2927,537,St. Mary's,18.032,George Washington Carver Elementary,46155 CARVER SCHOOL BOULEVARD,GREAT MILLS,MD,20634,PK-5,Elementary
-8531456.7599,4621406.4359,538,St. Mary's,18.008,Leonardtown Elementary,22885 DUKE STREET,LEONARDTOWN,MD,20650,PK-5,Elementary
-8464065.6445,4578567.3584,539,Somerset,19.011,Ewell Elementary School,4005 SMITH ISLAND ROAD,EWELL,MD,21824,PreK-7,Elementary/Middle
-8426265.576,4606863.4704,540,Somerset,19.014,Greenwood Elementary School,11412 DRYDEN ROAD,PRINCESS ANNE,MD,21853,2-5,Elementary
-8504957.2479,4609435.7768,541,St. Mary's,18.002,Spring Ridge Middle,19856 THREE NOTCH ROAD,LEXINGTON PARK,MD,20653,6-8,Middle
-8429183.263,4593951.5298,542,Somerset,19.003,Somerset County Board of Education,7982A TAWES CAMPUS DRIVE,WESTOVER,MD,21871,8-12,Administrative
-8442888.9188,4577559.8307,543,Somerset,19.004,Crisfield Academy & High School,210 N. SOMERSET AVENUE,CRISFIELD,MD,21817,8-12,Middle/High
-8454379.9895,4601625.9216,544,Somerset,19.007,Deal Island Elementary School,23275 LOLA WHEATLEY ROAD,DEAL ISLAND,MD,21821,PreK-5,Elementary
-8426316.3348,4607600.7675,545,Somerset,19.010,Princess Anne Elementary School,11576 LANKFORD STREET,PRINCESS ANNE,MD,21853,PreK-1,Elementary
-8444577.8158,4748008.1606,546,Queen Anne's,17.014,Sudlersville Elementary,300 S. CHURCH STREET,SUDLERSVILLE,MD,21668,PreK-4,Elementary
-8494739.221,4720394.8009,547,Queen Anne's,17.023,Kent Island High,900 LOVE POINT ROAD,STEVENSVILLE,MD,21666,9-12,High
-8425435.0364,4605002.6969,548,Somerset,19.002,Washington Academy & High School,10902 OLD PRINCESS ANNE ROAD,PRINCESS ANNE,MD,21853,8-12,Middle/High
-8468104.4552,4728639.5795,549,Queen Anne's,17.005,Centreville Elementary,213 HOMEWOOD AVENUE,CENTREVILLE,MD,21617,PreK-2,Elementary
-8494644.5874,4718464.341,550,Queen Anne's,17.006,Stevensville Middle,610 MAIN STREET,STEVENSVILLE,MD,21666,6-8,Middle
-8494575.0244,4718775.2323,551,Queen Anne's,17.007,Kent Island Elementary,110 ELEMENTARY WAY,STEVENSVILLE,MD,21666,PreK-2,Elementary
-8481284.693,4716234.4662,552,Queen Anne's,17.009,Grasonville Elementary,5435 MAIN STREET,GRASONVILLE,MD,21638,PreK-5,Elementary
-8458115.2415,4742802.7017,553,Queen Anne's,17.013,Church Hill Elementary,631 MAIN STREET,CHURCH HILL,MD,21623,PreK-4,Elementary
-8569970.127,4680080.8273,554,Prince George's,16.210,Fort Washington Forest Elementary,1300 FILLMORE ROAD,FORT WASHINGTON,MD,20744,PreK-6,Elementary
-8561516.9929,4729547.5161,555,Prince George's,16.213,"King, Jr. (Martin Luther) Middle",4545 AMMENDALE ROAD,BELTSVILLE,MD,20705,6-8,Middle
-8466200.6942,4727008.6144,556,Queen Anne's,17.001,Queen Anne's County High,125 RUTHSBURG ROAD,CENTREVILLE,MD,21617,9-12,High
-8465863.4667,4726556.9673,557,Queen Anne's,17.004,Centreville Middle,231 RUTHSBURG ROAD,CENTREVILLE,MD,21617,6-8,Middle
-8563825.0303,4693506.1299,558,Prince George's,16.205,Allenwood Elementary,6300 HARLEY LANE,TEMPLE HILLS,MD,20748,PreK-5,Elementary
-8558290.5114,4699470.701,559,Prince George's,16.242,Longfields Elementary,3300 NEWKIRK AVENUE,FORESTVILLE,MD,20747,PreK-6,Elementary
-8562443.2773,4700713.2601,560,Prince George's,16.258,Suitland High Annex,5200 SILVER HILL ROAD,FORESTVILLE,MD,20747,9-12,High
-8543305.5479,4715640.1495,561,Prince George's,16.185,Tasker (Benjamin) Middle,4901 COLLINGTON ROAD,BOWIE,MD,20715,6-8,Middle
-8542045.4993,4715834.9543,562,Prince George's,16.195,Kenilworth Elementary,12520 KEMBRIDGE DRIVE,BOWIE,MD,20715,K-5,Elementary
-8561338.8689,4702100.1741,563,Prince George's,16.237,Concord Elementary,2004 CONCORD LANE,DISTRICT HEIGHTS,MD,20747,PreK-6,Elementary
-8558994.3461,4696912.1121,564,Prince George's,16.215,Foulois (Benjamin) Creative and Performing Arts Academy,4601 BEAUFORD ROAD,MORNINGSIDE,MD,20746,K-8,Elementary/Middle
-8556928.1494,4679751.7118,565,Prince George's,16.211,Gwynn Park Middle,8000 DYSON ROAD,BRANDYWINE,MD,20613,6-8,Middle
-8549908.8294,4685623.9088,566,Prince George's,16.244,Mattaponi Elementary,11701 DULEY STATION ROAD,UPPER MARLBORO,MD,20772,K-5,Elementary
-8559971.5002,4737401.5489,567,Prince George's,16.233,Bond Mill Elementary,16001 SHERWOOD AVENUE,LAUREL,MD,20707,K-5,Elementary
-8559319.5135,4690879.0061,568,Prince George's,16.238,Evans (Francis T.) Elementary,6720 OLD ALEXANDRIA FERRY ROAD,CLINTON,MD,20735,PreK-5,Elementary
-8546037.464,4673191.7003,569,Prince George's,16.228,Baden Elementary,13601 BADEN-WESTWOOD ROAD,BRANDYWINE,MD,20613,PreK-6,Elementary
-8557053.1998,4710421.8558,570,Prince George's,16.245,EXCEL Academy Public Charter,7910 SCOTT RD,LANDOVER,MD,20785,K-8,Elementary/Middle
-8556822.101,4711290.1711,571,Prince George's,16.225,Kenmoor Early Childhood Center,3211 82ND AVENUE,LANDOVER,MD,20785,PreK,Special Ed.
-8569006.1348,4696126.7563,572,Prince George's,16.216,Potomac High,5211 BOYDELL AVENUE,OXON HILL,MD,20745,9-12,High
-8572230.8075,4689620.9482,573,Prince George's,16.214,Fort Foote Elementary,8300 OXON HILL ROAD,FORT WASHINGTON,MD,20744,PreK-6,Elementary
-8541902.3667,4720215.9299,574,Prince George's,16.248,Yorktown Elementary,7301 RACE TRACK ROAD,BOWIE,MD,20715,K-5,Elementary
-8553545.9228,4720183.0683,575,Prince George's,16.194,Duval High,9880 GOOD LUCK ROAD,LANHAM,MD,20706,9-12,High
-8551178.0272,4719000.6453,576,Prince George's,16.202,Glenn Dale Elementary,6700 GLENN DALE ROAD,GLENN DALE,MD,20769,K-5,Elementary
-8556879.8664,4710929.509,577,Prince George's,16.212,Kenmoor Middle,2500 KENMOOR DRIVE,LANDOVER,MD,20785,6-8,Middle
-8550913.0667,4706077.6805,578,Prince George's,16.188,Kettering Elementary,11000 LAYTON STREET,UPPER MARLBORO,MD,20774,PreK-5,Elementary
-8561567.8626,4703239.0307,579,Prince George's,16.224,Brooks (Doswell E.) Elementary,1301 BROOKE ROAD,CAPITOL HEIGHTS,MD,20743,PreK-6,Elementary
-8542300.6131,4719762.3195,580,Prince George's,16.223,Chapel Forge Early Childhood Center,12711 MILAN WAY,BOWIE,MD,20715,PreK,Special Ed.
-8542840.2943,4720743.9741,581,Prince George's,16.201,Samuel Ogle Middle,4111 CHELMONT LANE,BOWIE,MD,20715,6-8,Middle
-8558619.7442,4718004.9831,582,Prince George's,16.241,Lamont Elementary,7101 GOOD LUCK ROAD,NEW CARROLLTON,MD,20784,PreK-5,Elementary
-8557028.7157,4712743.5058,583,Prince George's,16.239,Glenarden Woods Elementary,7801 GLENARDEN PARKWAY,LANHAM,MD,20706,2-5,Elementary
-8553925.5005,4717062.555,584,Prince George's,16.200,Seabrook Elementary,6001 SEABROOK ROAD,LANHAM,MD,20706,PreK-5,Elementary
-8561563.1126,4716967.1837,585,Prince George's,16.183,Wirt (William) Middle,62ND PLACE & TUCKERMAN STREET,RIVERDALE,MD,20737,6-8,Middle
-8560263.0808,4715607.2447,586,Prince George's,16.189,Beacon Heights Elementary,6929 FURMAN PARKWAY,RIVERDALE,MD,20737,PreK-6,Elementary
-8562518.9027,4703134.5812,587,Prince George's,16.226,Hall (William W.) Academy,5200 MARLBORO PIKE,CAPITOL HEIGHTS,MD,20743,PreK-8,PreK-8
-8551575.6191,4687178.6927,588,Prince George's,16.227,Rosaryville Elementary,9925 ROSARYVILLE ROAD,UPPER MARLBORO,MD,20772,PreK-5,Elementary
-8563507.6521,4700560.3915,589,Prince George's,16.232,Suitland Elementary,4650 HOMER AVENUE,SUITLAND,MD,20746,PreK-6,Elementary
-8560693.7812,4721366.6828,590,Prince George's,16.184,Kennedy (Dora) French Immersion,8950 EDMONSTON ROAD,GREENBELT,MD,20770,K-8,Elementary/Middle
-8559134.855,4707882.485,591,Prince George's,16.022,Hoyer (Judith P.) Montessori,929 HILL ROAD,LANDOVER,MD,20785-4336,PreK-8,PreK-8
-8570817.4585,4690760.3974,592,Prince George's,16.031,Oxon Hill Elementary,7701 LIVINGSTON ROAD,OXON HILL,MD,20745,PreK-5,Elementary
-8494474.4642,4719086.1977,593,Queen Anne's,17.021,Bayside Elementary,301 CHURCH STREET,STEVENSVILLE,MD,21666,3-5,Elementary
-8561782.9535,4713993.01,594,Prince George's,16.218,Port Towns Elementary,4351 58TH AVENUE,BLADENSBURG,MD,20710,PreK-6,Elementary
-8552675.3604,4708396.3302,595,Prince George's,16.219,Just (Ernest Everett) Middle,1300 CAMPUS WAY NORTH,MITCHELLVILLE,MD,20721,6-8,Middle
-8544753.4746,4623794.2226,596,St. Mary's,18.024,Dynard Elementary,23510 BUSHWOOD ROAD,CHAPTICO,MD,20621,PK-5,Elementary
-8443466.4912,4575841.0902,597,Somerset,19.005,Carter G. Woodson Elementary School,281-A WOODSON SCHOOL ROAD,CRISFIELD,MD,21817,PK-5,Elementary
-8652972.631,4816864.859,598,Washington,21.016,Marshall St. Elementary,1350 MARSHALL STREET,HAGERSTOWN,MD,21740,PreK-12,Special Ed.
-8539360.8166,4697015.5429,599,Prince George's,16.209,Patuxent Elementary,4410 BISHOPMILL DRIVE,UPPER MARLBORO,MD,20772,PreK-5,Elementary
-8537552.629,4769085.3942,600,Baltimore City,30.134,Calvin Rodwell  PK-8 # 256,3501 HILLSDALE RD,BALTIMORE,MD,21207,PK-8,Elementary/Middle
-8561272.2012,4699464.9844,601,Prince George's,16.191,Massie (Samuel P.) Academy,3301 REGENCY PARKWAY,FORESTVILLE,MD,20747,PreK-8,PreK-8
-8559764.8052,4707884.6766,602,Prince George's,16.192,Highland Park Elementary,6501 LOWLAND DRIVE,LANDOVER,MD,20785,PreK-6,Elementary
-8560687.046,4694994.5301,603,Prince George's,16.176,Princeton Elementary,6101 BAXTER DRIVE,SUITLAND,MD,20746,PreK-5,Elementary
-8560958.2355,4717429.1745,604,Prince George's,16.177,Parkdale High,6001 GOOD LUCK ROAD,RIVERDALE,MD,20737,9-12,High
-8565483.3685,4715973.9013,605,Prince George's,16.178,Hyattsville Middle,6001 42ND AVENUE,HYATTSVILLE,MD,20781,6-8,Middle
-8562460.1473,4713417.3749,606,Prince George's,16.180,Bladensburg High,4200 57TH STREET,BLADENSBURG,MD,20710,9-12,High
-8553960.0413,4719954.8648,607,Prince George's,16.181,Goddard (Robert) Montessori,9850 GOOD LUCK ROAD,SEABROOK,MD,20706,PreK-8,PreK-8
-8568710.7019,4721682.5808,608,Prince George's,16.169,Adelphi Elementary,8820 RIGGS ROAD,ADELPHI,MD,20783,PreK-6,Elementary
-8570339.0245,4716857.2799,609,Prince George's,16.170,Ridgecrest Elementary,6120 RIGGS ROAD,HYATTSVILLE,MD,20783,PreK-6,Elementary
-8569267.4591,4676937.6695,610,Prince George's,16.172,Accokeek Academy Annex (H. Ferguson),14500 BERRY ROAD,ACCOKEEK,MD,20607,K-4,Elementary
-8567131.045,4697406.9676,611,Prince George's,16.175,Hillcrest Heights Elementary,4305 22ND PLACE,TEMPLE HILLS,MD,20748,PreK-5,Elementary
-8557438.735,4709037.726,612,Prince George's,16.161,Paca (William) Elementary,7801 SHERIFF ROAD,LANDOVER,MD,20785,PreK-5,Elementary
-8563895.6675,4713090.117,613,Prince George's,16.163,Annapolis Road Academy,5150 ANNAPOLIS ROAD,BLADENSBURG,MD,20710,9-12,High
-8554525.534,4712240.4334,614,Prince George's,16.164,Ardmore Elementary,9301 ARDWICK ARDMORE ROAD,SPRINGDALE,MD,20774,PreK-5,Elementary
-8567243.3286,4694471.3382,615,Prince George's,16.165,Dent (J. Frank) Elementary,2700 CORNING AVENUE,FORT WASHINGTON,MD,20744,PreK-6,Elementary
-8559183.033,4706782.9474,616,Prince George's,16.166,Carmody Hills Elementary,401 JADELEAF AVENUE,CAPITOL HEIGHTS,MD,20743,PreK-5,Elementary
-8562084.5784,4714878.4815,617,Prince George's,16.155,Templeton Elementary,6001 CARTERS LANE,RIVERDALE,MD,20737,PreK-5,Elementary
-8562955.7396,4693295.6814,618,Prince George's,16.156,Marshall (Thurgood) Middle,4909 BRINKLEY ROAD,TEMPLE HILLS,MD,20748,6-8,Middle
-8567140.9597,4686673.8485,619,Prince George's,16.157,Rose Valley Elementary,9800 JACQUELINE DRIVE,FORT WASHINGTON,MD,20744,PreK-5,Elementary
-8567538.6657,4722409.8815,620,Prince George's,16.158,Cherokee Lane Elementary,9000 25TH AVENUE,ADELPHI,MD,20783-1507,K-6,Elementary
-8562634.5941,4700853.6702,621,Prince George's,16.159,Drew-Freeman Middle,2600 BROOKS DRIVE,SUITLAND,MD,20746,6-8,Middle
-8544640.0365,4721213.7405,622,Prince George's,16.148,Rockledge Elementary,7701 LAUREL-BOWIE ROAD,BOWIE,MD,20715,PreK-5,Elementary
-8558926.0857,4697214.6692,623,Prince George's,16.149,Imagine Foundations at Morningside Public Charter,6900 AMES ST,SUITLAND,MD,20746,K-7,Elementary/Middle
-8548120.4218,4711037.891,624,Prince George's,16.150,Woodmore Elementary,12500 WOODMORE ROAD,MITCHELLVILLE,MD,20721,K-5,Elementary
-8569780.8042,4719333.2674,625,Prince George's,16.153,Carole Highlands Elementary,1610 HANNON STREET,TAKOMA PARK,MD,20912,PreK-6,Elementary
-8557741.8539,4717086.8353,626,Prince George's,16.142,Carrollton Elementary,8300 QUINTANA STREET,NEW CARROLLTON,MD,20784,PreK-5,Elementary
-8561335.2574,4689741.4117,627,Prince George's,16.143,Decatur (Stephen) Middle,8200 PINEWOOD DRIVE,CLINTON,MD,20735,6-8,Middle
-8553940.5207,4720188.1121,628,Prince George's,16.144,Reed (Catherine T.) Elementary,9501 GREENBELT ROAD,LANHAM,MD,20706,PreK-5,Elementary
-8554444.6055,4729388.9682,629,Prince George's,16.146,Montpelier Elementary,9200 MUIRKIRK ROAD,LAUREL,MD,20708,PreK-5,Elementary
-8559095.7273,4709728.7445,630,Prince George's,16.147,Columbia Park Elementary,1901 KENT VILLAGE DRIVE,LANDOVER,MD,20785,PreK-6,Elementary
-8568078.3811,4697947.6922,631,Prince George's,16.136,Angelou (Maya) French Immersion,2000 CALLAWAY ST,TEMPLE HILLS,MD,20748,K-8,Elementary/Middle
-8554826.8749,4732978.859,632,Prince George's,16.138,Oaklands Elementary,13710 LAUREL-BOWIE ROAD,LAUREL,MD,20708,PreK-5,Elementary
-8563118.0225,4694521.1275,633,Prince George's,16.139,Middleton Valley Academy,4815 DALTON ST,TEMPLE HILLS,MD,20748,PreK-8,PreK-8
-8564141.4469,4702085.6849,634,Prince George's,16.140,Green Valley Academy,2001 SHADYSIDE AVE,SUITLAND,MD,20746,6-10,Alternate
-8570526.8348,4695528.1613,635,Prince George's,16.141,Glassmanor Elementary,1011 MARCY AVENUE,OXON HILL,MD,20745,PreK-6,Elementary
-8560499.6185,4713006.5834,636,Prince George's,16.131,Cooper Lane Elementary,3817 COOPER LANE,LANDOVER HILLS,MD,20784,PreK-6,Elementary
-8541740.6765,4714768.6981,637,Prince George's,16.132,Heather Hills Elementary,12605 HEMING LANE,BOWIE,MD,20716,2-5,Elementary
-8568687.1624,4721980.5448,638,Prince George's,16.134,Cool Spring Elementary,8910 RIGGS ROAD,ADELPHI,MD,20783,PreK-6,Elementary
-8556285.2719,4719415.3441,639,Prince George's,16.135,Magnolia Elementary,8400 NIGHTINGALE DRIVE,LANHAM,MD,20706,PreK-6,Elementary
-8567167.2649,4716570.6751,640,Prince George's,16.124,Nicholas Orem Middle,6100 EDITORS PARK DRIVE,HYATTSVILLE,MD,20782,6-8,Middle
-8558800.0228,4703403.7027,641,Prince George's,16.126,Bayne (John H.) Elementary,7010 WALKER MILL ROAD,CAPITOL HEIGHTS,MD,20743,PreK-5,Elementary
-8557993.7204,4737218.6034,642,Prince George's,16.127,Scotchtown Hills Elementary,15950 DORSET ROAD,LAUREL,MD,20707,PreK-6,Elementary
-8570803.9138,4693447.531,643,Prince George's,16.128,Hanson (John) Montessori,6360 OXON HILL ROAD,OXON HILL,MD,20745,PreK-8,PreK-8
-8566052.9048,4700008.3327,644,Prince George's,16.129,Overlook  Elementary,3298 CURTIS DRIVE,TEMPLE HILLS,MD,20748,K-5,Elementary
-8568941.7452,4694763.7708,645,Prince George's,16.118,Valley View Elementary,5500 DANBY AVENUE,OXON HILL,MD,20745,PreK-5,Elementary
-8541342.3561,4708059.7262,646,Prince George's,16.119,Pointer Ridge Elementary,1110 PARKINGTON LANE,BOWIE,MD,20716,K-5,Elementary
-8571874.3433,4695327.7386,647,Prince George's,16.120,Forest Heights Elementary,200 TALBERT DRIVE,OXON HILL,MD,20745,PreK-6,Elementary
-8555417.4011,4707419.3983,648,Prince George's,16.122,Pullen (Thomas G.) Creative and Performing Arts Academy,700 BRIGHTSEAT ROAD,LANDOVER,MD,20785,K-8,Elementary/Middle
-8567725.1334,4695436.9972,649,Prince George's,16.123,Barnaby Manor Elementary,2411 OWENS ROAD,OXON HILL,MD,20745,PreK-5,Elementary
-8556285.8398,4732019.1142,650,Prince George's,16.113,Harrison (James H.) Elementary,13200 LARCHDALE ROAD,LAUREL,MD,20708,PreK-6,Elementary
-8553850.6962,4691466.541,651,Prince George's,16.114,Madison (James) Middle,7300 WOODYARD ROAD,UPPER MARLBORO,MD,20772,6-8,Middle
-8562534.2686,4727215.4452,652,Prince George's,16.115,Beltsville Academy,4300 WICOMICO AVENUE,BELTSVILLE,MD,20705,PreK-8,PreK-8
-8559356.3355,4714787.7001,653,Prince George's,16.116,Glenridge Elementary,7200 GALLATIN STREET,LANDOVER HILLS,MD,20784,PreK-6,Elementary
-8557754.4972,4712174.3152,654,Prince George's,16.117,Dodge Park Elementary,3401 HUBBARD ROAD,LANDOVER,MD,20785,PreK-6,Elementary
-8558909.1703,4698316.4662,655,Prince George's,16.104,Forestville High,7001 BELTZ DRIVE,FORESTVILLE,MD,20747,9-12,High
-8564018.2547,4712895.0714,656,Prince George's,16.106,Bladensburg Elementary,4915 ANNAPOLIS ROAD,BLADENSBURG,MD,20710,PreK-6,Elementary
-8558404.8693,4716986.3369,657,Prince George's,16.110,Carroll (Charles) Middle,6130 LAMONT DRIVE,NEW CARROLLTON,MD,20784,6-8,Middle
-8565318.6903,4726730.3192,658,Prince George's,16.101,Fuchs (Frances R.) Early Childhood Center,11011 CHERRY HILL ROAD,BELTSVILLE,MD,20705,Pre-K,Special Ed.
-8544723.9529,4710137.2204,659,Prince George's,16.102,Tall Oaks High,2112 CHURCH ROAD,BOWIE,MD,20721,11-12,High
-8543013.5104,4718553.2147,660,Prince George's,16.089,Bowie High,15200 ANNAPOLIS ROAD,BOWIE,MD,20715,9-12,High
-8567234.3339,4723263.5403,661,Prince George's,16.094,Buck Lodge Middle,2611 BUCK LODGE ROAD,ADELPHI,MD,20783,6-8,Middle
-8547269.9418,4690356.6505,662,Prince George's,16.083,Douglass (Frederick) High,8000 CROOM ROAD,UPPER MARLBORO,MD,20772,9-12,High
-8562015.6081,4690602.8312,663,Prince George's,16.084,Randall (James Ryder) Early Childhood Center,5410 KIRBY ROAD,CLINTON,MD,20735,PreK-5,Elementary
-8572083.2114,4681380.1146,664,Prince George's,16.086,Potomac Landing Elementary,12500 FORT WASHINGTON ROAD,FORT WASHINGTON,MD,20744,PreK-6,Elementary
-8562443.2773,4700713.2601,665,Prince George's,16.087,Suitland High,5200 SILVER HILL ROAD,FORESTVILLE,MD,20747,9-12,High
-8555232.3998,4678361.106,666,Prince George's,16.088,Brandywine Elementary,14101 BRANDYWINE ROAD,BRANDYWINE,MD,20613,PreK-5,Elementary
-8560188.4864,4701478.2309,667,Prince George's,16.076,District Heights Elementary,2200 COUNTY ROAD,DISTRICT HEIGHTS,MD,20747,PreK-5,Elementary
-8565211.2899,4715148.319,668,Prince George's,16.080,Hyattsville Elementary,5311 43RD AVENUE,HYATTSVILLE,MD,20781,PreK-5,Elementary
-8565277.0254,4717427.9089,669,Prince George's,16.081,University Park Elementary,4315 UNDERWOOD STREET,HYATTSVILLE,MD,20782,PreK-6,Elementary
-8570908.6843,4692591.3837,670,Prince George's,16.082,Oxon Hill High,6701 LEYTE DRIVE,OXON HILL,MD,20745,9-12,High
-8563009.7063,4723833.2608,671,Prince George's,16.068,Hollywood Elementary,9811 49TH AVENUE,COLLEGE PARK,MD,20740,PreK-5,Elementary
-8566587.2151,4718102.2528,672,Prince George's,16.072,Northwestern High,7000 ADELPHI ROAD,HYATTSVILLE,MD,20782,9-12,High
-8554129.7199,4701186.9219,673,Prince George's,16.074,Arrowhead Elementary,2300 SANSBURY ROAD,UPPER MARLBORO,MD,20774,PreK-5,Elementary
-8560783.4205,4722542.5186,674,Prince George's,16.075,Springhill Lake Elementary,6060 SPRINGHILL DRIVE,GREENBELT,MD,20770,K-5,Elementary
-8559555.826,4714580.715,675,Prince George's,16.052,Woodridge Elementary,5001 FLINTRIDGE DRIVE,HYATTSVILLE,MD,20784,PreK-6,Elementary
-8562905.1046,4687509.8578,676,Prince George's,16.053,Clinton Grove Elementary,9420 TEMPLE HILL ROAD,CLINTON,MD,20735,PreK-5,Elementary
-8573340.4387,4687094.2948,677,Prince George's,16.055,Indian Queen Elementary,9551 FORT FOOTE ROAD,FORT WASHINGTON,MD,20744,PreK-6,Elementary
-8561834.706,4704766.5092,678,Prince George's,16.056,Capitol Heights Elementary,601 SUFFOLK AVENUE,CAPITOL HEIGHTS,MD,20743,PreK-5,Elementary
-8567466.6674,4691515.1758,679,Prince George's,16.057,Apple Grove Elementary,7400 BELLEFIELD AVENUE,FORT WASHINGTON,MD,20744,PreK-6,Elementary
-8550582.9511,4706588.797,680,Prince George's,16.043,Kettering Middle,65 HERRINGTON DRIVE,UPPER MARLBORO,MD,20774,6-8,Middle
-8568096.241,4686223.9176,681,Prince George's,16.046,Friendly High,10000 ALLENTOWN ROAD,FORT WASHINGTON,MD,20744,9-12,High
-8571099.8591,4694079.1357,682,Prince George's,16.048,Flintstone Elementary,800 COMANCHE DRIVE,OXON HILL,MD,20745,PreK-5,Elementary
-8553766.823,4705844.1555,683,Prince George's,16.050,Williams (Phyllis E.) Elementary,9601 PRINCE PLACE,UPPER MARLBORO,MD,20774,K-5,Elementary
-8563778.7784,4692264.5215,684,Prince George's,16.033,Crossland High,6901 TEMPLE HILL ROAD,TEMPLE HILLS,MD,20748,9-12,High
-8553706.7857,4720293.9073,685,Prince George's,16.034,Owens (Howard B.) Science Center,9601 GREENBELT ROAD,LANHAM,MD,20706,,Science
-8544433.286,4669493.1003,686,Prince George's,16.199,Schmidt (William S.) Outdoor Education Center,18501 AQUASCO ROAD,BRANDYWINE,MD,20613,K-12,Environmental Ed.
-8552638.7022,4707930.842,687,Prince George's,16.234,Lake Arbor Elementary,10205 LAKE ARBOR WAY,MITCHELLVILLE,MD,20721,PreK-5,Elementary
-8542040.2024,4710272.3398,688,Prince George's,16.041,Rieg (Elizabeth C.)  Regional School,15542 PEACH WALKER DRIVE,MITCHELLVILLE,MD,20716,K-12,Special Ed.
-8562578.7116,4698787.1401,689,Prince George's,16.024,Beanes (William) Elementary,5108 DIANNA DRIVE,SUITLAND,MD,20746,PreK-5,Elementary
-8563589.2026,4703209.3176,690,Prince George's,16.025,Bradbury Heights Elementary,1401 GLACIER AVENUE,CAPITOL HEIGHTS,MD,20743,PreK-6,Elementary
-8543808.9969,4718942.9663,691,Prince George's,16.027,Meadowbrook Elementary (Swing Space),3501 MOYLAN DRIVE,BOWIE,MD,20715,K-5,Elementary
-8554511.6004,4731871.7466,692,Prince George's,16.030,Deerfield Run Elementary,13000 LAUREL-BOWIE ROAD,LAUREL,MD,20708,PreK-5,Elementary
-8555321.576,4703766.2106,693,Prince George's,16.017,Wheatley (H.Winship) Early Childhood Center,8801 RITCHIE DRIVE,CAPITOL HEIGHTS,MD,20743,PreK,Special Ed.
-8563378.1738,4719789.2298,694,Prince George's,16.018,Paint Branch Elementary,5101 PIERCE AVENUE,COLLEGE PARK,MD,20740,PreK-6,Elementary
-8565157.2842,4691755.7818,695,Prince George's,16.019,Avalon Elementary,7302 WEBSTER LANE,FORT WASHINGTON,MD,20744,PreK-5,Elementary
-8566143.4392,4688942.857,696,Prince George's,16.023,Tayac Elementary,8600 ALLENTOWN ROAD,FORT WASHINGTON,MD,20744,PreK-5,Elementary
-8555180.3387,4736708.913,697,Prince George's,16.009,Laurel Elementary,516 MONTGOMERY STREET,LAUREL,MD,20707,PreK-5,Elementary
-8559532.8791,4704894.918,698,Prince George's,16.010,Central High,200 CABIN BRANCH ROAD,CAPITOL HEIGHTS,MD,20743,,High
-8556902.6528,4735197.4671,699,Prince George's,16.014,Laurel High,8000 CHERRY LANE,LAUREL,MD,20707,9-12,High
-8567453.8327,4713932.6826,700,Prince George's,16.016,Stone (Thomas S.) Elementary,4500 34TH STREET,MOUNT RAINIER,MD,20712,PreK-5,Elementary
-8557252.2644,4679070.1326,701,Prince George's,16.001,Gwynn Park High,13800 BRANDYWINE ROAD,BRANDYWINE,MD,20613,9-12,High
-8557071.1585,4720838.8238,702,Prince George's,16.002,Roosevelt (Eleanor) High,7601 HANOVER PARKWAY,GREENBELT,MD,20770,9-12,High
-8569300.512,4677097.6126,703,Prince George's,16.005,Accokeek Academy (Eugene Burroughs),14400 BERRY ROAD,ACCOKEEK,MD,20607,5-8,PreK-8
-8555324.99,4733004.4976,704,Prince George's,16.008,Eisenhower (Dwight D.) Middle,13725 BRIARWOOD DRIVE,LAUREL,MD,20708,6-8,Middle
-8570959.9576,4737104.8767,705,Montgomery,15.234,Cloverly Elementary,800 BRIGGS-CHANEY RD,SILVER SPRING,MD,20904,K-5,Elementary
-8591469.6712,4728068.9441,706,Montgomery,15.241,Hoover (Herbert) Middle,8810 POSTOAK RD,ROCKVILLE,MD,20854,6-8,Middle
-8584549.4483,4733781.303,707,Montgomery,15.250,Meadow Hall Elementary,951 TWINBROOK PKWY,ROCKVILLE,MD,20851,K-5,Elementary
-8593154.3455,4734209.5773,708,Montgomery,15.257,Lakewood Elementary,2534 LINDLEY TERRACE,ROCKVILLE,MD,20850,K-5,Elementary
-8573603.0656,4732396.099,709,Montgomery,15.232,Westover Elementary,401 HAWKESBURY LANE,SILVER SPRING,MD,20904,K-5,Elementary
-8584355.8041,4718599.6024,710,Montgomery,15.237,Radnor Center,7000 RADNOR RD,BETHESDA,MD,20034,,Alternate
-8573356.8011,4735898.6659,711,Montgomery,15.252,Stonegate Elementary,14811 NOTLEY RD,SILVER SPRING,MD,20904,K-5,Elementary
-8570774.363,4725681.3111,712,Montgomery,15.230,Key (Francis S.) Middle,910 SCHINDLER DR,SILVER SPRING,MD,20903,6-8,Middle
-8572647.9633,4719135.8141,713,Montgomery,15.249,Piney Branch Elementary,7510 MAPLE AVE,TAKOMA PARK,MD,20912,3-5,Elementary
-8615358.5876,4753851.9669,714,Montgomery,15.233,Monocacy Elementary,18801 BARNESVILLE ROAD,DICKERSON,MD,20842,K-5,Elementary
-8589574.1842,4723503.0351,715,Montgomery,15.253,Seven Locks Elementary,9500 SEVEN LOCKS ROAD,BETHESDA,MD,20817,K-5,Elementary
-8595076.1376,4745645.8726,716,Montgomery,15.247,Watkins Mill Elementary,19001 WATKINS MILL ROAD,GAITHERSBURG,MD,20879,HS-5,Elementary
-8577033.501,4734462.1784,717,Montgomery,15.231,Argyle Middle,2400 BEL PRE ROAD,SILVER SPRING,MD,20906,6-8,Middle
-8578890.521,4733983.4975,718,Montgomery,15.218,Strathmore Elementary,3200 BEAVERWOOD LN,SILVER SPRING,MD,20906,3-5,Elementary
-8580176.3781,4727353.0378,719,Montgomery,15.244,Rock View Elementary,3901 DENFIELD AVE,KENSINGTON,MD,20895,pre-K-5,Elementary
-8580471.1163,4730519.6634,720,Montgomery,15.267,Shriver (Sargent) Elementary,12518 GREENLY DR,SILVER SPRING,MD,20906,pre-K-5,Elementary
-8585499.013,4722310.9074,721,Montgomery,15.245,North Bethesda Middle,8935 BRADMOOR DRIVE,BETHESDA,MD,20817,6-8,Middle
-8516004.2339,4719113.4907,722,Anne Arundel,02.110,Mary Moss @ J. Albert Adams Academy,245 CLAY STREET,ANNAPOLIS,MD,21401,6-9,Alternate
-8541044.8859,4757934.2797,723,Baltimore County,03.194,Catonsville Center for Alternative Studies,901 SOUTH ROLLING ROAD,BALTIMORE,MD,21228,9-12,Alternate
-8467399.7733,4727117.126,724,Queen Anne's,17.012,Kennard Elementary,420 LITTLE KIDWELL AVENUE,CENTREVILLE,MD,21617,3-5,Elementary
-8602726.7106,4743421.7248,725,Montgomery,15.239,Northwest High,13501 RICHTER FARM ROAD,GERMANTOWN,MD,20874,9-12,High                                              
-8589740.7205,4736415.9001,726,Montgomery,15.240,College Gardens Elementary,1700 YALE PLACE,ROCKVILLE,MD,20850,HS-5,Elementary
-8590715.0903,4719244.3566,727,Montgomery,15.243,Carderock Springs Elementary,7401 PERSIMMON TREE LANE,BETHESDA,MD,20817,K-5,Elementary
-8585231.7374,4735302.9969,728,Montgomery,15.224,Ewing (Blair G.) Center,14501 AVERY ROAD (FORMERLY MARK TWAIN CENTER),ROCKVILLE,MD,20853,,Alternate
-8583137.3082,4735170.2398,729,Montgomery,15.225,Barnsley (Lucy V.) Elementary,14516 NADINE DRIVE,ROCKVILLE,MD,20853,pre-K-5,Elementary
-8573557.9496,4737923.1357,730,Montgomery,15.226,Blake (James Hubert) High,300 NORWOOD ROAD,SILVER SPRING,MD,20905,9-12,High
-8573485.2011,4727941.8193,731,Montgomery,15.227,Kemp Mill Elementary,411 SISSON ST,SILVER SPRING,MD,20902,pre-K-5,Elementary
-8617308.9149,4739702.2892,732,Montgomery,15.216,Poole (John) Middle,17014 TOM FOX AVE,POOLESVILLE,MD,20837,6-8,Middle
-8581992.346,4736825.3785,733,Montgomery,15.217,Flower Valley Elementary,4615 SUNFLOWER DR,ROCKVILLE,MD,20853,K-5,Elementary
-8571297.0222,4720983.6479,734,Montgomery,15.219,Rolling Terrace Elementary,705 BAYFIELD ST,TAKOMA PARK,MD,20912,HS-5,Elementary
-8587230.5442,4751352.7967,735,Montgomery,15.221,Laytonsville Elementary,21401 LAYTONSVILLE ROAD,GAITHERSBURG,MD,20882,K-5,Elementary
-8583871.7556,4732599.9218,736,Montgomery,15.222,Sandburg (Carl) Learning Center,1002 FIRST STREET,ROCKVILLE,MD,20850,,Special Ed.
-8586167.5661,4727677.2725,737,Montgomery,15.210,Tilden Center,6300 TILDEN LANE,ROCKVILLE,MD,20852,,Alternate
-8565803.0871,4734052.7917,738,Montgomery,15.211,Paint Branch High,14121 OLD COLUMBIA PIKE,BURTONSVILLE,MD,20866,9-12,High
-8581829.4655,4733716.5677,739,Montgomery,15.212,Parkland Middle,4610 W FRANKFORT DR,ROCKVILLE,MD,20853,6-8,Middle
-8565587.7624,4730839.5249,740,Montgomery,15.213,Galway Elementary,12612 GALWAY DR,SILVER SPRING,MD,20904,pre-K-5,Elementary
-8597460.2858,4757464.7019,741,Montgomery,15.214,Cedar Grove Elementary,24001 RIDGE ROAD,GERMANTOWN,MD,20876,K-5,Elementary
-8586989.1356,4718030.6957,742,Montgomery,15.204,Bannockburn Elementary,6520 DALROY LANE,BETHESDA,MD,20817,K-5,Elementary
-8589601.7073,4734249.3362,743,Montgomery,15.205,Beall Elementary,451 BEALL AVENUE,ROCKVILLE,MD,20850,HS-5,Elementary
-8577689.454,4733368.2032,744,Montgomery,15.206,Bel Pre Elementary,13801 RIPPLING BROOK DRIVE,SILVER SPRING,MD,20906,pre-K-2,Elementary
-8571757.3246,4727320.0305,745,Montgomery,15.208,Burnt Mills Elementary,11211 CHILDS ST,SILVER SPRING,MD,20901,pre-K-5,Elementary
-8576357.052,4741170.144,746,Montgomery,15.197,Farquhar (William) Middle,16915 BACHELOR'S FOREST RD,OLNEY,MD,20832,6-8,Middle
-8603343.5668,4747615.884,747,Montgomery,15.198,"King (Dr. Martin Luther, Jr.) Middle",13737 WISTERIA DRIVE,GERMANTOWN,MD,20874,6-8,Middle
-8603302.7785,4745501.4538,748,Montgomery,15.200,Kingsview Middle,18909 KINGSVIEW ROAD,GERMANTOWN,MD,20874,6-8,Middle
-8570324.4674,4725636.9366,749,Montgomery,15.201,Cresthaven Elementary,1234 CRESTHAVEN DR,SILVER SPRING,MD,20903,3-5,Elementary
-8578417.9086,4732513.5993,750,Montgomery,15.202,Georgian Forest Elementary,3100 REGINA DR,SILVER SPRING,MD,20906,HS-5,Elementary
-8593556.3343,4746349.1801,751,Montgomery,15.190,Whetstone Elementary,19201 THOMAS FARM DRIVE,GAITHERSBURG,MD,20879,pre-K-5,Elementary
-8592187.6864,4743724.6338,752,Montgomery,15.191,Forest Oak Middle,651 SAYBROOKE OAKS BOULEVARD,GAITHERSBURG,MD,20877,6-8,Middle
-8578803.5734,4745390.7753,753,Montgomery,15.192,Greenwood Elementary,3336 GOLDMINE ROAD,BROOKEVILLE,MD,20833,K-5,Elementary
-8581158.9122,4741358.3185,754,Montgomery,15.193,Cashell Elementary,17101 CASHELL RD,ROCKVILLE,MD,20853,pre-K-5,Elementary
-8586919.0802,4734782.6138,755,Montgomery,15.194,Maryvale Elementary,1010 FIRST ST,ROCKVILLE,MD,20850,HS-5,Elementary
-8591227.7193,4729139.2316,756,Montgomery,15.183,Beverly Farms Elementary,8501 POST OAK RD,POTOMAC,MD,20854,K-5,Elementary
-8590381.8016,4726290.0374,757,Montgomery,15.185,Bells Mill Elementary,8225 BELLS MILL RD,POTOMAC,MD,20854,HS-5,Elementary
-8572247.9574,4729982.822,758,Montgomery,15.186,Springbrook High,201 VALLEYBROOK DRIVE,SILVER SPRING,MD,20904,9-12,High
-8585786.0499,4724439.5182,759,Montgomery,15.188,Ashburton Elementary,6314 LONE OAK DRIVE,BETHESDA,MD,20817,K-5,Elementary
-8598016.7245,4751340.2769,760,Montgomery,15.189,Ride (Dr. Sally K.) Elementary,21301 SENECA CROSSING DRIVE,GERMANTOWN,MD,20876,HS-5,Elementary
-8595435.4109,4758463.4783,761,Montgomery,15.173,Rockwell (Lois P.) Elementary,24555 CUTSAIL DRIVE,DAMASCUS,MD,20872,K-5,Elementary
-8570938.9962,4731524.8082,762,Montgomery,15.179,Cannon Road Elementary,901 CANNON RD,SILVER SPRING,MD,20904,K-5,Elementary
-8590742.7415,4726208.788,763,Montgomery,15.209,Cabin John Middle,10701 GAINSBOROUGH RD,ROCKVILLE,MD,20854,6-8,Middle
-8586313.3348,4741818.127,764,Montgomery,15.238,Redland Middle,6505 MUNCASTER MILL RD,ROCKVILLE,MD,20855,6-8,Middle
-8595957.3619,4761004.016,765,Montgomery,15.182,Baker (John T.) Middle,25400 OAK DRIVE,DAMASCUS,MD,20872,6-8,Middle
-8595709.2532,4747954.6582,766,Montgomery,15.166,Watkins Mill High,10301 APPLE RIDGE ROAD,GAITHERSBURG,MD,20879,9-12,High
-8568361.8559,4737399.8821,767,Montgomery,15.167,Briggs Chaney Middle,1901 RAINBOW DRIVE,SILVER SPRING,MD,20905,6-8,Middle
-8580668.23,4746322.0417,768,Montgomery,15.168,Rosa Parks Middle,19200 OLNEY MILL ROAD,OLNEY,MD,20832,6-8,Middle
-8572914.0288,4724282.3223,769,Montgomery,15.171,Montgomery Blair High,"51 UNIVERSITY BOULEVARD, EAST",SILVER SPRING,MD,20901,9-12,High
-8575936.3279,4731098.7255,770,Montgomery,15.172,Kennedy (John F.) High,1901 RANDOLPH RD,SILVER SPRING,MD,20902,9-12,High
-8592453.7766,4732565.7777,771,Montgomery,15.161,Frost (Robert) Middle,9201 SCOTT DRIVE,ROCKVILLE,MD,20850,6-8,Middle
-8603948.465,4746035.548,772,Montgomery,15.162,McNair (Ronald) Elementary,13881 HOPKINS RD,GERMANTOWN,MD,20874,pre-K-5,Elementary
-8599090.7223,4738438.2834,773,Montgomery,15.163,Carson (Rachel) Elementary,100 TSCHIFFELY SQUARE ROAD,GAITHERSBURG,MD,20878,pre-K-5,Elementary
-8577244.0112,4744139.172,774,Montgomery,15.164,Brooke Grove Elementary,2700 SPARTAN ROAD,OLNEY,MD,20832,pre-K-5,Elementary
-8588503.7547,4747715.87,775,Montgomery,15.165,Resnik (Judith A.) Elementary,7301 HADLEY FARMS DRIVE,GAITHERSBURG,MD,20879,pre-K-5,Elementary
-8594691.0534,4759838.0886,776,Montgomery,15.154,Clearspring Elementary,9930 MOYER ROAD,DAMASCUS,MD,20872,HS-5,Elementary
-8565132.9359,4733182.85,777,Montgomery,15.155,Greencastle Elementary,13611 ROBEY RD,SILVER SPRING,MD,20904,pre-K-5,Elementary
-8591632.7689,4749552.3014,778,Montgomery,15.156,Goshen Elementary,8701 WARFIELD ROAD,GAITHERSBURG,MD,20879,K-5,Elementary
-8595487.2189,4734802.9619,779,Montgomery,15.157,Stone Mill Elementary,14323 STONE BRIDGE VIEW DRIVE,GAITHERSBURG,MD,20879,K-5,Elementary
-8599887.5127,4738300.6954,780,Montgomery,15.158,Quince Orchard High,15800 QUINCE ORCHARD BOULEVARD,GAITHERSBURG,MD,20878,9-12,High
-8600715.0815,4744482.8632,781,Montgomery,15.148,Clopper Mill Elementary,18501 CINNAMON DRIVE,GERMANTOWN,MD,20874,HS-5,Elementary
-8571865.151,4722312.2285,782,Montgomery,15.149,Oak View Elementary,400 E. WAYNE AVENUE,SILVER SPRING,MD,20901,3-5,Elementary
-8601171.8663,4736486.5951,783,Montgomery,15.150,Jones Lane Elementary,15110 JONES LANE,GAITHERSBURG,MD,20878,K-5,Elementary
-8591938.8017,4745470.6974,784,Montgomery,15.152,Strawberry Knoll Elementary,18820 STRAWBERRY KNOLL ROAD,GAITHERSBURG,MD,20879,HS-5,Elementary
-8601518.6429,4748741.4491,785,Montgomery,15.153,Waters Landing Elementary,13100 WATERS LANDING RD,GERMANTOWN,MD,20874,K-5,Elementary
-8579095.6356,4730255.1351,786,Montgomery,15.141,Wheaton High,12601 DALEWOOD DR,SILVER SPRING,MD,20906,9-12,High
-8592934.4886,4742261.3412,787,Montgomery,15.144,Gaithersburg Elementary,35 NORTH SUMMIT AVENUE,GAITHERSBURG,MD,20877,pre-K-5,Elementary
-8584749.9636,4721645.2064,788,Montgomery,15.145,Bradley Hills Elementary,8701 HARTSDALE AVENUE,BETHESDA,MD,20817,K-5,Elementary
-8591377.8218,4740651.002,789,Montgomery,15.146,Washington Grove Elementary,8712 OAKMONT STREET,GAITHERSBURG,MD,20877,HS-5,Elementary
-8590649.0956,4744469.5778,790,Montgomery,15.147,Flower Hill Elementary,18425 FLOWER HILL WAY,GAITHERSBURG,MD,20879,pre-K-5,Elementary
-8573679.2713,4742896.471,791,Montgomery,15.135,Sherwood High,300 OLNEY-SANDY SPRING ROAD,SANDY SPRING,MD,20860,9-12,High
-8598402.2658,4749523.3909,792,Montgomery,15.136,Neelsville Middle,11700 NEELSVILLE CHURCH ROAD,GERMANTOWN,MD,20876,6-8,Middle
-8616929.7694,4742349.6037,793,Montgomery,15.137,Poolesville Elementary,19565 FISHER AVENUE,POOLESVILLE,MD,20837,K-5,Elementary
-8591006.1154,4730696.4169,794,Montgomery,15.139,Ritchie Park Elementary,1514 DUNSTER RD,ROCKVILLE,MD,20854,K-5,Elementary
-8578046.6363,4725756.4183,795,Montgomery,15.140,Oakland Terrace Elementary,2720 PLYERS MILL RD,SILVER SPRING,MD,20902,pre-K-5,Elementary
-8581597.132,4731457.8751,796,Montgomery,15.126,Wheaton Woods Elementary,4510 FAROE PLACE,ROCKVILLE,MD,20853,HS-5,Elementary
-8589861.4619,4732697.156,797,Montgomery,15.127,West (Julius) Middle,651 GREAT FALLS ROAD,ROCKVILLE,MD,20850,6-8,Middle
-8583018.9077,4733592.0173,798,Montgomery,15.129,Rock Creek Valley Elementary,5121 RUSSETT RD,ROCKVILLE,MD,20853,K-5,Elementary
-8593295.8113,4741181.6268,799,Montgomery,15.130,Gaithersburg High,101 EDUCATION BLVD,GAITHERSBURG,MD,20877,9-12,High
-8577361.3571,4726529.8039,800,Montgomery,15.131,Stephen Knolls Special Education School,10731 ST MARGARETS WAY,KENSINGTON,MD,20895,,Special Ed.
-8594911.3671,4746444.8573,801,Montgomery,15.117,Montgomery Village Middle,19300 WATKINS MILL ROAD,GAITHERSBURG,MD,20879,6-8,Middle
-8571103.1619,4729777.979,802,Montgomery,15.119,White Oak Middle,12201 NEW HAMPSHIRE AVENUE,SILVER SPRING,MD,20904,6-8,Middle
-8588719.0185,4742654.8587,803,Montgomery,15.121,Mill Creek Towne Elementary,17700 PARK MILL DRIVE,ROCKVILLE,MD,20855,pre-K-5,Elementary
-8578707.7148,4729026.1782,804,Montgomery,15.122,Highland Elementary,3100 MEDWAY ST,SILVER SPRING,MD,20902,HS-5,Elementary
-8598047.8883,4736278.3977,805,Montgomery,15.105,Dufief Elementary,15001 DUFIEF DRIVE,GAITHERSBURG,MD,20878,K-5,Elementary
-8575284.326,4743121.1432,806,Montgomery,15.107,Sherwood Elementary,1401 OLNEY-SANDY SPRING ROAD,SANDY SPRING,MD,20860,K-5,Elementary
-8573289.6863,4720595.273,807,Montgomery,15.108,East Silver Spring Elementary,631 SILVER SPRING AVENUE,SILVER SPRING,MD,20910,HS-5,Elementary
-8587966.0921,4740167.1106,808,Montgomery,15.111,Candlewood Elementary,7210 OSPREY DR,ROCKVILLE,MD,20855,K-5,Elementary
-8561468.6484,4659934.7226,809,Charles,08.046,St. Charles High School,5305 PINEY CHURCH RD,WALDORF,MD,20602,9-12,Middle/High
-8566717.1983,4734706.3646,810,Montgomery,15.098,Fairland Elementary,14315 FAIRDALE RD,SILVER SPRING,MD,20905,HS-5,Elementary
-8598554.8068,4746361.762,811,Montgomery,15.100,Fox Chapel Elementary,19315 ARCHDALE ROAD,GERMANTOWN,MD,20874,pre-K-5,Elementary
-8569779.088,4732368.1331,812,Montgomery,15.102,Page (William T.) Elementary,13400 TAMARACK RD,SILVER SPRING,MD,20904,pre-K-5,Elementary
-8595084.6326,4762657.4832,813,Montgomery,15.103,Damascus Elementary,10201 BETHESDA CHURCH ROAD,DAMASCUS,MD,20872,K-5,Elementary
-8598207.1955,4741134.0352,814,Montgomery,15.104,Diamond Elementary,4 MARQUIS DRIVE,GAITHERSBURG,MD,20878,K-5,Elementary
-8570730.8875,4721431.4119,815,Montgomery,15.089,New Hampshire Estates Elementary,8720 CARROLL AVENUE,SILVER SPRING,MD,20903,HS-2,Elementary
-8595015.6314,4762168.3568,816,Montgomery,15.090,Damascus High,25921 RIDGE ROAD,DAMASCUS,MD,20872,9-12,High
-8581093.3681,4728641.9746,817,Montgomery,15.092,Viers Mill Elementary,11711 JOSEPH MILL RD,SILVER SPRING,MD,20906,HS-5,Elementary
-8579180.5582,4743073.8048,818,Montgomery,15.093,Olney Elementary,3401 QUEEN MARY DR,OLNEY,MD,20832,K-5,Elementary
-8606149.9786,4778375.9204,819,Frederick,10.073,Oakdale High,5850 EAGLEHEAD DRIVE,IJAMSVILLE,MD,21754,9-12,High
-8583417.1726,4738192.0719,820,Montgomery,15.095,Smith (Lathrop E.) Enviromental Ed. Ctr,5110 MEADOWSIDE LANE,ROCKVILLE,MD,20855,,Environmental Ed.                                 
-8593523.1505,4744034.5867,821,Montgomery,15.086,South Lake Elementary,18201 CONTOUR ROAD,GAITHERSBURG,MD,20877,HS-5,Elementary
-8584808.586,4734106.9912,822,Montgomery,15.087,Rockville High,2100 BALTIMORE RD,ROCKVILLE,MD,20853,9-12,High
-8570877.8391,4722514.7079,823,Montgomery,15.088,Montgomery Knolls Elementary,807 DALEVIEW DRIVE,SILVER SPRING,MD,20901,HS-2,Elementary
-8583571.8497,4735056.1742,824,Montgomery,15.074,Wood (Earl B.) Middle,14615 BAUER DRIVE,ROCKVILLE,MD,20853,6-8,Middle
-8599280.4957,4733513.1447,825,Montgomery,15.077,Travilah Elementary,13801 DUFIEF MILL ROAD,GAITHERSBURG,MD,20878,K-5,Elementary
-8586071.1916,4720086.7555,826,Montgomery,15.175,Pyle (Thomas W.) Middle,6311 WILSON LANE,BETHESDA,MD,20817,6-8,Middle
-8579152.703,4727603.0606,827,Montgomery,15.063,Newport Mill Middle,11311 NEWPORT MILL ROAD,KENSINGTON,MD,20902,6-8,Middle
-8575008.1174,4728812.0916,828,Montgomery,15.064,Odessa Shannon Middle,11800 MONTICELLO AVE,SILVER SPRING,MD,20902,6-8,Middle
-8618313.7304,4742149.8727,829,Montgomery,15.066,Poolesville High,17501 WILLARD RD,POOLESVILLE,MD,20837,9-12,High
-8586119.6782,4725356.9375,830,Montgomery,15.067,Walter Johnson High,6400 ROCK SPRING DRIVE,BETHESDA,MD,20814,9-12,High
-8584947.7317,4731524.8637,831,Montgomery,15.072,Twinbrook Elementary,5911 RIDGEWAY AVE,ROCKVILLE,MD,20851,HS-5,Elementary
-8581881.6624,4733466.2446,832,Montgomery,15.055,Brookhaven Elementary,4610 RENN ST,ROCKVILLE,MD,20853,pre-K-5,Elementary
-8573830.7565,4726422.7881,833,Montgomery,15.057,Forest Knolls Elementary,10830 EASTWOOD AVE,SILVER SPRING,MD,20901,HS-5,Elementary
-8570668.7944,4729767.0643,834,Montgomery,15.058,Jackson Road Elementary,900 JACKSON RD,SILVER SPRING,MD,20904,pre-K-5,Elementary
-8579085.0411,4731063.9865,835,Montgomery,15.061,Weller Road Elementary,3301 WELLER RD,SILVER SPRING,MD,20906,HS-5,Elementary
-8582341.7702,4726360.4237,836,Montgomery,15.048,Garrett Park Elementary,4810 OXFORD STREET,GARRETT PARK,MD,20896,K-5,Elementary
-8575998.6247,4728163.2628,837,Montgomery,15.049,Arcola Elementary,1820 FRANWELL AVENUE,SILVER SPRING,MD,20902,HS-5,Elementary
-8579967.3424,4732692.3764,838,Montgomery,15.050,Harmony Hills Elementary,13407 LYDIA ST,SILVER SPRING,MD,20906,HS-5,Elementary
-8564514.7585,4737654.2982,839,Montgomery,15.052,Burtonsville Elementary,15516 OLD COLUMBIA PIKE,BURTONSVILLE,MD,20866,K-5,Elementary
-8576212.1291,4730450.8845,840,Montgomery,15.054,Glenallan Elementary,12520 HEURICH RD,SILVER SPRING,MD,20902,HS-5,Elementary
-8591239.5231,4732838.8502,841,Montgomery,15.040,Fallsmead Elementary,1800 GREENPLACE TER,ROCKVILLE,MD,20850,K-5,Elementary
-8599357.6892,4739977.5224,842,Montgomery,15.042,Ridgeview Middle,16600 RAVEN ROCK DRIVE,GAITHERSBURG,MD,20878,6-8,Middle
-8603113.2026,4747952.7349,843,Montgomery,15.043,Lake Seneca Elementary,13600 WANEGARDEN DR,GERMANTOWN,MD,20874,pre-K-5,Elementary
-8584770.404,4740509.0115,844,Montgomery,15.045,Magruder (Col. Zadok) High,5939 MUNCASTER MILL RD,ROCKVILLE,MD,20855,9-12,High
-8569959.0888,4723040.4979,845,Montgomery,15.035,Broad Acres (JoAnn Leleck ES at) Elementary,710 BEACON RD,SILVER SPRING,MD,20903,HS-5,Elementary
-8572152.7621,4724716.3318,846,Montgomery,15.036,Pine Crest Elementary,201 WOODMOOR DR,SILVER SPRING,MD,20901,3-5,Elementary
-8571706.2389,4723389.5044,847,Montgomery,15.037,Eastern Middle,300 UNIV BLVD EAST,SILVER SPRING,MD,20901,6-8,Middle
-8595114.8071,4746630.6229,848,Montgomery,15.039,Stedwick Elementary,10631 STEDWICK ROAD,GAITHERSBURG,MD,20879,pre-K-5,Elementary
-8565842.5181,4735405.477,849,Montgomery,15.022,Banneker (Benjamin) Middle,14800 PERRYWOOD DRIVE,BURTONSVILLE,MD,20866,6-8,Middle
-8597279.7073,4741567.5076,850,Montgomery,15.024,Brown Station Elementary,851 QUINCE ORCHARD BOULEVARD,GAITHERSBURG,MD,20878,HS-5,Elementary
-8581498.1551,4719773.199,851,Montgomery,15.030,Bethesda-Chevy Chase High,4301 EAST-WEST HIGHWAY,BETHESDA,MD,20814,9-12,High
-8579072.8183,4727290.4903,852,Montgomery,15.031,Einstein (Albert) High,11135 NEWPORT MILL ROAD,KENSINGTON,MD,20895,9-12,High
-8580528.4187,4718595.108,853,Montgomery,15.032,Chevy Chase Elementary,4015 ROSEMARY STREET,CHEVY CHASE,MD,20815,3-6,Elementary
-8582733.4883,4719750.4047,854,Montgomery,15.015,Bethesda Elementary,7600 ARLINGTON ROAD,BETHESDA,MD,20814,K-5,Elementary
-8577680.3543,4724354.0275,855,Montgomery,15.018,Singer (Flora M.) Elementary,2600 HAYDEN DRIVE,SILVER SPRING,MD,20902,pre-K-5,Elementary
-8600993.1155,4746636.3086,856,Montgomery,15.019,Seneca Valley High,12700 MIDDLEBROOK ROAD,GERMANTOWN,MD,20874,9-12,High
-8595543.7065,4738717.7393,857,Montgomery,15.020,Fields Road Elementary,1 SCHOOL DRIVE,GAITHERSBURG,MD,20878,pre-K-5,Elementary
-8579015.664,4747281.6198,858,Montgomery,15.021,Belmont Elementary,19528 OLNEY MILL RD,OLNEY,MD,20832,K-5,Elementary
-8592617.8806,4730153.5254,859,Montgomery,15.007,Cold Spring Elementary,9201 FALLS CHAPEL WAY,POTOMAC,MD,20854,K-5,Elementary
-8575728.7254,4726493.2691,860,Montgomery,15.010,Glen Haven Elementary,10900 INWOOD AVE,SILVER SPRING,MD,20902,pre-K-5,Elementary
-8576849.3393,4722587.9371,861,Montgomery,15.011,Woodlin Elementary,2101 LUZERNE AVE,SILVER SPRING,MD,20910,K-5,Elementary
-8602368.9192,4746026.294,862,Montgomery,15.013,Germantown Elementary,19110 LIBERTY MILL ROAD,GERMANTOWN,MD,20874,K-5,Elementary
-8573239.4896,4721771.7385,863,Montgomery,15.002,Silver Spring International Middle,313 WAYNE AVE,SILVER SPRING,MD,20907,6-8,Middle
-8602942.3695,4755627.2732,864,Montgomery,15.003,Clarksburg Elementary,13530 REDGRAVE PLACE,CLARKSBURG,MD,20871,K-5,Elementary
-8582198.0667,4724810.1196,865,Montgomery,15.004,Kensington-Parkwood Elementary,4710 SAUL RD,KENSINGTON,MD,20895,K-5,Elementary
-8587939.5522,4733041.2299,866,Montgomery,15.005,Richard Montgomery High,250 RICHARD MONTGOMERY DRIVE,ROCKVILLE,MD,20852,9-12,High
-8467170.4694,4752913.2913,867,Kent,14.003,Kent County Middle,400 CAMPUS AVENUE,CHESTERTOWN,MD,21620,6-8,Middle
-8486736.0364,4741045.3035,868,Kent,14.004,Rock Hall Elementary,21203 SHARP STREET,ROCK HALL,MD,21661,PreK-5,Elementary
-8468060.1527,4752201.7951,869,Kent,14.006,Garnett Elementary,320 CALVERT STREET,CHESTERTOWN,MD,21620,PreK-5,Elementary
-8470488.0301,4762620.8991,870,Kent,14.007,Kent County High,25301 LAMBS MEADOW ROAD,WORTON,MD,21678,9-12,High
-8479327.9093,4795914.6267,871,Harford,12.058,Aberdeen High,251 PARADISE ROAD,ABERDEEN,MD,21001,9-12,High
-8528183.9633,4656104.0951,872,Calvert,04.028,Barstow Elementary,295 WILLIAMS ROAD,PRINCE FREDERICK,MD,20678,PreK-5,Elementary
-8429458.6465,4593795.4221,873,Somerset,19.016,Somerset Intermediate School,7970 TAWES CAMPUS DRIVE,WESTOVER,MD,21871,6-7,Middle
-8559181.6007,4819062.9278,874,Carroll,06.055,Ebb Valley Elementary,3100 SWIPER ROAD,MANCHESTER,MD,21102,PreK-5,Elementary
-8497524.3219,4716023.5733,875,Queen Anne's,17.025,Matapeake Middle School,671 ROMANCOKE ROAD,STEVENSVILLE,MD,21666,6-8,Middle
-8653636.0787,4804353.0431,876,Washington,21.050,Rockland Woods Elementary,18201 ROCKLAND DRIVE,HAGERSTOWN,MD,21740,PreK-5,Elementary
-8386926.2822,4610507.3673,877,Worcester,23.015,Worcester Technical High School,6290 WORCESTER HIGHWAY,NEWARK,MD,21841,10-12,Career Tech
-8523018.1829,4621774.2408,878,St. Mary's,18.031,Evergreen Elementary School,43765 EVERGREEN WAY,CALIFORNIA,MD,20619,PreK-5,Elementary
-8558098.2192,4815799.1831,879,Carroll,06.057,Manchester Valley High,3300 MAPLE GROVE ROAD,MANCHESTER,MD,21102,9-12,High
-8574084.3147,4764976.6453,880,Howard,13.085,Bushy Park Elementary,14601 CARRS MILL ROAD,GLENWOOD,MD,21738,PreK-5,Elementary
-8446429.1692,4662323.9103,881,Dorchester,09.019,North Dorchester Middle,5745 CLOVERDALE ROAD,HURLOCK,MD,21643,6-8,Middle
-8562176.6932,4744013.2326,882,Howard,13.088,Cedar Lane School,11630 SCAGGSVILLE ROAD,FULTON,MD,20759,PreK-12,Special Ed.
-8569776.1371,4756243.7652,883,Howard,13.083,Dayton Oaks Elementary,4691 TEN OAKS ROAD,DAYTON,MD,21036,PreK-5,Elementary
-8550777.12,4758137.1409,884,Howard,13.084,Veterans Elementary,4355 MONTGOMERY ROAD,ELLICOTT CITY,MD,21043,PreK-5,Elementary
-8600609.0928,4751151.7477,885,Montgomery,15.273,"Gibbs, Jr. (William B.) Elementary School",12615 ROYAL CROWN DR,GERMANTOWN,MD,20876,pre-K-5,Elementary
-8517780.6279,4719016.1655,886,Anne Arundel,02.132,Germantown Elementary,200 WINDELL AVENUE,ANNAPOLIS,MD,21401,PreK-5,Elementary
-8567585.9888,4716488.9503,887,Prince George's,16.259,Felegy (Edward M.)  Elementary,6110 EDITORS PARK DRIVE,HYATTSVILLE,MD,20782,PreK-5,Elementary
-8530879.235,4779744.851,888,Baltimore County,03.215,West Towson Elementary,6914 CHARLES STREET,TOWSON,MD,21204,K-5,Elementary
-8470318.9788,4656559.5366,889,Dorchester,09.018,Dorchester Career & Technology Center,2465 CAMBRIDGE BELTWAY,CAMBRIDGE,MD,21613,10-12,Career Tech
-8648489.8454,4811325.1387,890,Washington,21.052,Ruth Ann Monroe Primary,1311 YALE DRIVE,HAGERSTOWN,MD,21740,PreK-2,Elementary
-8560812.5532,4721640.0948,891,Prince George's,16.256,Greenbelt Middle,6301 BREEZEWOOD DRIVE,GREENBELT,MD,20770,6-8,Middle
-8443874.7528,4747856.6382,892,Queen Anne's,17.026,New Sudlersville Middle,600 CHARLES STREET,SUDLERSVILLE,MD,21668,5-8,Middle
-8503244.2804,4800004.534,893,Harford,12.059,Red Pump Elementary,600 RED PUMP RD,BEL AIR,MD,21014,K-5,Elementary
-8617909.6954,4780325.9874,894,Frederick,10.074,Earth and Space Sciences Lab (ESSL),210 MADISON ST,FREDERICK,MD,21701,,Science
-8534621.8768,4771599.2314,895,Baltimore City,30.251,Pimlico PK-8 # 223,4849 PIMLICO RD,BALTIMORE,MD,21215,PK-8,PreK-8
-8535608.9974,4766037.9165,896,Baltimore City,30.262,Edgewood PK-5 # 067,1900 EDGEWOOD STREET,BALTIMORE,MD,21216,PK-5,Elementary
-8531576.8839,4765650.6805,897,Baltimore City,30.056,George G. Kelson Building # 157,701 GOLD ST,BALTIMORE,MD,21217,PK-8,PreK-8
-8608784.3658,4769756.1883,898,Frederick,10.071,Centerville Elementary,3601 CARRIAGE HILL DRIVE,FREDERICK,MD,21704,K-5,Elementary
-8621241.5851,4775956.3823,899,Frederick,10.068,Tuscarora High,5312 BALLENGER CREEK PIKE,FREDERICK,MD,21703,9-12,High
-8564281.6348,4767871.2949,900,Howard,13.082,Marriotts Ridge High,12100 WOODFORD DRIVE,MARRIOTSVILLE,MD,21104,9-12,High
-8651840.9932,4814016.6759,901,Washington,21.053,Barbara Ingram School for the Arts/Vincent Rauth Groh Academ,7-11 SOUTH POTOMAC STREET,HAGERSTOWN,MD,21740,9-12,High
-8620994.3901,4774838.2204,902,Frederick,10.070,Tuscarora Elementary,6321 LAMBERT DRIVE,FREDERICK,MD,21703,PreK-5,Elementary
-8618653.8492,4778197.7223,903,Frederick,10.069,Crestwood Middle,7100 FOXCROFT DRIVE,FREDERICK,MD,21703,6-8,Middle
-8527012.4133,4768339.734,904,Baltimore City,30.224,Abbottston Building # 050,1300 GORSUCH AVENUE,BALTIMORE,MD,21218,PreK-5,Elementary
-8521802.0169,4765418.8827,905,Baltimore City,30.186,Armistead Gardens PK-8 # 243,5001-5061 E EAGER ST,BALTIMORE,MD,21205,PK-8,PreK-8
-8523598.8666,4762352.2012,906,Baltimore City,30.166,Canton Building # 230,801-829 S HIGHLAND AVE,BALTIMORE,MD,21224,6-12,Middle/High
-8531075.219,4761835.3334,907,Baltimore City,30.018,Charles Carroll Barrister Elementary # 034,1327 WASHINGTON BOULEVARD,BALTIMORE,MD,21230,PK-5,Elementary
-8531356.2676,4762105.6463,908,Baltimore City,30.249,Diggs-Johnson Building # 162,1300 HERKIMER ST,BALTIMORE,MD,21223,K-8,PreK-8
-8526834.1487,4764294.0975,909,Baltimore City,30.147,Paul Laurence Dunbar Middle Building #133,500 N CAROLINE ST,BALTIMORE,MD,21205,9-12,High
-8530406.0609,4765676.2696,910,Baltimore City,30.267,Eutaw Marshburn Elementary # 011,1624 EUTAW PLACE,BALTIMORE,MD,21217,PreK-5,Elementary
-8526478.2512,4766680.4266,911,Baltimore City,30.273,Harford Heights #037,1919 N. BROADWAY,BALTIMORE,MD,21213,PK-5,Elementary
-8543065.1394,4713117.0396,912,Prince George's,16.250,Northview Elementary,3700 NORTHVIEW DRIVE,BOWIE,MD,20716,PreK-5,Elementary
-8587769.3982,4728436.6748,913,Montgomery,15.242,Farmland Elementary,7000 OLD GATE RD,ROCKVILLE,MD,20853,K-5,Elementary
-8532656.1723,4763654.411,914,Baltimore City,30.067,Lockerman-Bundy Elementary # 261,301 N PULASKI ST,BALTIMORE,MD,21223,PK-5/ELC,Elementary
-8561281.8628,4706950.4283,915,Prince George's,16.252,Seat Pleasant Elementary,6411 G STREET,SEAT PLEASANT,MD,20743-1714,PreK-6,Elementary
-8538838.4963,4762475.868,916,Baltimore City,30.237,West Baltimore Building #080,201 N BEND RD,BALTIMORE,MD,21229,6-12,Middle/High
-8579470.151,4731035.5582,917,Montgomery,15.268,Loiederman (A. Mario) Middle,12701 GOODHILL ROAD,SILVER SPRING,MD,20906,6-8,Middle
-8598315.4293,4755023.332,918,Montgomery,15.276,Wells (Hallie) Middle,11701 LITTLE SENECA PKWY,CLARKSBURG,MD,20871,6-8,Middle
-8569049.3246,4803824.1902,919,Carroll,06.052,Winters Mill High,560 GORSUCH ROAD,WESTMINSTER,MD,21157,9-12,High
-8570269.9739,4724236.6143,920,Montgomery,15.271,Roscoe Nix Elementary,1100 CORLISS STREET,SILVER SPRING,MD,20903,pre-K-2,Elementary
-8543946.1844,4720147.6756,921,Prince George's,16.249,Whitehall Elementary,3901 WOODHAVEN LANE,BOWIE,MD,20715,K-5,Elementary
-8550711.6006,4779610.6021,922,Baltimore County,03.196,New Town High School,4931 NEW TOWN BOULEVARD,OWINGS MILLS,MD,21117,9-12,High
-8496425.8152,4794596.9373,923,Harford,12.057,Patterson Mill Middle/High,85 PATTERSON MILL ROAD,BEL AIR,MD,21215,6-12,Middle/High
-8547837.9594,4750954.1306,924,Howard,13.078,Bellows Spring Elementary,8125 OLD STOCKBRIDGE DRIVE,ELLICOTT CITY,MD,21043,PreK-5,Elementary
-8531283.445,4769132.6214,925,Baltimore City,30.165,Robert Poole Building #056,1300 W. 36TH ST.,BALTIMORE,MD,21211,6-12,Middle/High
-8569226.2201,4670802.185,926,Charles,08.044,Theodore G. Davis Middle School,2495 DAVIS ROAD,WALDORF,MD,20603,6-8,Middle
-8784596.5173,4815272.8798,927,Allegany,01.037,Mountain Ridge High,100 DR. NANCY S. GRASMICK LANE,FROSTBURG,MD,21532,9-12,High
-8609059.0804,4768963.3008,928,Frederick,10.076,Urbana Middle,3511 PONTIUS COURT,IJAMSVILLE,MD,21754,6-8,Middle
-8597491.6312,4738211.1789,929,Montgomery,15.261,Lakelands Park Middle,1200 MAIN STREET,GAITHERSBURG,MD,20878,6-8,Middle
-8528136.6202,4667294.0993,930,Calvert,04.026,Huntingtown High,4125 N. SOLOMONS ISLAND RD,HUNTINGTOWN,MD,20639,9-12,High
-8588007.8065,4776066.5063,931,Carroll,06.053,Parr's Ridge Elementary,202 WATERSVILLE ROAD,MOUNT AIRY,MD,21771,PreK-2,Elementary
-8600915.6832,4753580.8379,932,Montgomery,15.262,Rocky Hill Middle,22401 BRICK HAVEN WAY,CLARKSBURG,MD,20871,6-8,Middle
-8575512.8813,4658240.3823,933,Charles,08.009,Maurice J. McDonough High,7165 MARSHALL CORNER ROAD,POMFRET,MD,20675,9-12,High
-8564334.1034,4729603.0344,934,Prince George's,16.182,Calverton Elementary,3400 BELTSVILLE ROAD,BELTSVILLE,MD,20705,PreK-5,Elementary
-8569806.6341,4715580.3097,935,Prince George's,16.090,Chillum Elementary,1420 CHILLUM ROAD,HYATTSVILLE,MD,20782,PreK-5,Elementary
-8553826.0454,4718736.2219,936,Prince George's,16.203,Gaywood Elementary,6701 97TH AVENUE,SEABROOK,MD,20706,PreK-5,Elementary
-8561277.0166,4711734.9718,937,Prince George's,16.107,Spellman (Gladys Noon) Elementary,3324 64TH AVENUE,CHEVERLY,MD,20785,PreK-6,Elementary
-8546309.2586,4719794.0945,938,Prince George's,16.058,High Bridge Elementary,7011 HIGH BRIDGE ROAD,BOWIE,MD,20720,K-5,Elementary
-8555052.3867,4715772.1574,939,Prince George's,16.154,McHenry (James) Elementary,8909 MCHENRY LANE,LANHAM,MD,20706,PreK-5,Elementary
-8548998.5714,4708540.1727,940,Prince George's,16.133,Kingsford Elementary,1401 ENTERPRISE ROAD,MITCHELLVILLE,MD,20721,PreK-5,Elementary
-8568063.5709,4718111.5439,941,Prince George's,16.049,Lewisdale Elementary,2400 BANNING PLACE,HYATTSVILLE,MD,20783,PreK-5,Elementary
-8548145.5646,4689133.3565,942,Prince George's,16.004,Marlton Elementary,8506 OLD COLONY DRIVE SOUTH,UPPER MARLBORO,MD,20772,PreK-5,Elementary
-8553589.1126,4691776.5742,943,Prince George's,16.168,Melwood Elementary,7100 WOODYARD ROAD,UPPER MARLBORO,MD,20772,K-5,Elementary
-8567472.9088,4712923.3399,944,Prince George's,16.039,Mount Rainier Elementary,4011 32ND STREET,MT. RAINIER,MD,20712,PreK-6,Elementary
-8557530.1769,4701223.7777,945,Prince George's,16.145,North Forestville Elementary,2311 RITCHIE ROAD,FORESTVILLE,MD,20747,PreK-6,Elementary
-8568246.2077,4698109.5675,946,Prince George's,16.230,Panorama Elementary,2002 CALLAWAY STREET,TEMPLE HILLS,MD,20748,PreK-6,Elementary
-8563654.0799,4716124.6952,947,Prince George's,16.079,Riverdale Elementary,5006 RIVERDALE ROAD,RIVERDALE,MD,20737,PreK-5,Elementary
-8557732.038,4718252.6331,948,Prince George's,16.112,Robert Frost Elementary,6419 85TH AVENUE,NEW CARROLLTON,MD,20784,K-5,Elementary
-8561878.9514,4713858.3475,949,Prince George's,16.051,Rogers Heights Elementary,4301 58TH AVENUE,BLADENSBURG,MD,20710,PreK-6,Elementary
-8566190.0738,4694474.0607,950,Prince George's,16.221,Samuel Chase Elementary,5700 FISHER ROAD,TEMPLE HILLS,MD,20748,PreK-5,Elementary
-8543810.423,4717154.9229,951,Prince George's,16.137,Tulip Grove Elementary,2909 TRAINOR LANE,BOWIE,MD,20715,0,Elementary
-8560497.2664,4685757.8923,952,Prince George's,16.187,Waldon Woods Elementary,10301 THRIFT ROAD,CLINTON,MD,20735,PreK-5,Elementary
-8561390.8312,4698955.757,953,Prince George's,16.197,Jackson (Andrew) Academy,3500 REGENCY PARKWAY,FORESTVILLE,MD,20747,PreK-8,PreK-8
-8565768.3496,4697399.9792,954,Prince George's,16.152,Stoddert (Benjamin) Middle,2501 OLSON STREET,TEMPLE HILLS,MD,20748,6-8,Middle
-8566221.0833,4688739.5883,955,Prince George's,16.121,Gourdine (Isaac J.) Middle,8700 ALLENTOWN ROAD,FORT WASHINGTON,MD,20744,6-8,Middle
-8573173.1615,4687547.2569,956,Prince George's,16.162,Oxon Hill Middle,9570 FORT FOOTE ROAD,FORT WASHINGTON,MD,20744,6-8,Middle
-8553933.773,4716017.0047,957,Prince George's,16.229,Thomas Johnson Middle,5401 BARKER PLACE,LANHAM,MD,20706,6-8,Middle
-8558874.3579,4704069.6012,958,Prince George's,16.196,Walker Mill Middle,800 KAREN BOULEVARD,CAPITOL HEIGHTS,MD,20743,6-8,Middle
-8565352.7928,4727752.4534,959,Prince George's,16.085,High Point High,3601 POWDER MILL ROAD,BELTSVILLE,MD,20705,9-12,High
-8551540.1585,4705461.7133,960,Prince George's,16.011,Largo High,505 LARGO ROAD,UPPER MARLBORO,MD,20774,9-12,High
-8560626.984,4687709.0088,961,Prince George's,16.103,Surrattsville High,6101 GARDEN DRIVE,CLINTON,MD,20735,9-12,High
-8528436.3128,4784673.5396,962,Baltimore County,03.169,Timonium Elementary,2001 EASTRIDGE ROAD,TIMONIUM,MD,21093,K-5,Elementary
-8621887.1153,4787128.5989,963,Frederick,10.054,Whittier Elementary,2400 WHITTIER DRIVE,FREDERICK,MD,21702,pk-5,Elementary
-8449750.654,4680349.8314,964,Caroline,05.008,Preston Elementary,225 MAIN ST,PRESTON,MD,21655,PreK-5,Elementary
-8441083.8303,4705991.1959,965,Caroline,05.005,Lockerman Middle,410 LOCKERMAN ST,DENTON,MD,21629,6-8,Middle
-8540026.6719,4633298.531,966,St. Mary's,18.009,Margaret Brent Middle,29675 POINT LOOKOUT ROAD,MECHANICSVILLE,MD,20659,6-8,Middle
-8497938.7587,4680601.2729,967,Talbot,20.009,Tilghman Elementary,21374 FOSTER AVENUE,TILGHMAN,MD,21671,K-5,Elementary
-8643774.0714,4795732.0516,968,Washington,21.010,Boonsboro Middle,1 J H WADE DRIVE,BOONSBORO,MD,21713,6-8,Middle
-8657654.6512,4803751.1206,969,Washington,21.043,Fountain Rock Elementary,17145 LAPPANS ROAD,HAGERSTOWN,MD,21740,PreK-5,Elementary
-8656090.6009,4810578.5311,970,Washington,21.037,Lincolnshire Elementary,17545 LINCOLNSHIRE ROAD,HAGERSTOWN,MD,21740,PreK-5,Elementary
-8530292.3573,4762022.9646,971,Baltimore City,30.177,George Washington Elementary # 022,800 SCOTT ST,BALTIMORE,MD,21230,PreK-5,Elementary
-8568538.6526,4716725.5189,972,Prince George's,16.253,Rosa L. Parks Elementary,6111 AGER ROAD,HYATTSVILLE,MD,20782,PreK-6,Elementary
-8534974.5442,4765227.8265,973,Baltimore City,30.214,Belmont Elementary # 217,1406 NORTH ELLAMONT ST,BALTIMORE,MD,21216,PK-5,Elementary
-8547791.5223,4697943.5065,974,Prince George's,16.235,Obama (Barack) Elementary,12700 BROOKE LN,UPPER MARLBORO,MD,20772,PreK-5,Elementary
-8559109.6053,4728331.3981,975,Prince George's,16.255,Vansville Elementary,6813 AMMENDALE ROAD,BELTSVILLE,MD,20705,PreK-5,Elementary
-8547983.7837,4697839.341,976,Prince George's,16.254,"Wise, Jr. (Dr. Henry A.) High",12650 BROOKE LANE,UPPER MARLBORO,MD,20772,9-12,High
-8524980.8737,4773882.9802,977,Baltimore City,30.205,Yorkwood Elementary # 219,5931 YORKWOOD RD,BATLIMORE,MD,21239,PK-5,Elementary
-8519364.7881,4762692.5313,978,Baltimore City,30.105,Southeast Building Middle/High # 255,6820 FAIT AVE,BALTIMORE,MD,21224,6-12,Alternate
-8786489.4547,4818300.3523,979,Allegany,01.029,Frost Elementary,260 SHAW STREET,FROSTBURG,MD,21532,PreK-5,Elementary
-8517249.9723,4744546.654,980,Anne Arundel,02.097,Riviera Beach Elementary,8515 JENKINS ROAD,PASADENA,MD,21122,PreK-5,Elementary
-8428948.5872,4593652.239,981,Somerset,19.017,Somerset County Technical High School,7994 TAWES CAMPUS DR,WESTOVER,MD,21871,7-12,Career Tech
-8539122.254,4739212.7244,982,Anne Arundel,02.004,Van Bokkelen Elementary,1140 REECE ROAD,SEVERN,MD,21144,PreK-5,Elementary
-8528989.4215,4744676.6679,983,Anne Arundel,02.020,Glen Burnie High,7550 BALTIMORE-ANNAPOLIS BOULEVARD,GLEN BURNIE,MD,21060,9-12,High
-8541602.8902,4760646.4838,984,Baltimore County,03.177,Former Catonsville Elementary,615 FREDERICK ROAD,CATONSVILLE,MD,21228,PreK-5,Elementary
-8514632.2906,4779910.9553,985,Baltimore County,03.096,Seven Oaks Elementary,9220 SEVEN COURTS DRIVE,BALTIMORE,MD,21236,PreK-5,Elementary
-8510513.3185,4771150.6525,986,Baltimore County,03.046,Middle River Middle,800 MIDDLE RIVER ROAD,BALTIMORE,MD,21220,6-8,Middle
-8786661.4432,4815828.2293,987,Allegany,01.002,Beall Elementary,EAST COLLEGE AVENUE,FROSTBURG,MD,21532,PreK-5,Elementary
-8777759.6406,4804721.1337,988,Allegany,01.003,Bel Air Elementary,14401 BARTON BOULEVARD,CUMBERLAND,MD,21502,PreK-5,Elementary
-8416405.2109,4633655.5014,989,Wicomico,22.025,Salisbury Middle,607 MORRIS STREET,SALISBURY,MD,21801,6-8,Middle
-8549001.8681,4776647.087,990,Baltimore County,03.032,Randallstown High,4000 OFFUTT ROAD,RANDALLSTOWN,MD,21133,9-12,High
-8564222.7766,4778212.4276,991,Carroll,06.014,Carrolltowne Elementary,6542 RIDGE RD,SYKESVILLE,MD,21784,PreK-5,Elementary
-8572101.9048,4800090.9754,992,Carroll,06.038,Friendship Valley Elementary,1100 GIST RD,WESTMINSTER,MD,21157,K-5,Elementary
-8631664.6506,4784464.0974,993,Frederick,10.072,Middletown Primary,403 FRANKLIN STREET,MIDDLETOWN,MD,21769,PK-2,Elementary
-8607082.1279,4778488.4942,994,Frederick,10.062,Oakdale Elementary,5830 OAKDALE SCHOOL ROAD,IJAMSVILLE,MD,21754,K-5,Elementary
-8620659.1071,4778418.7472,995,Frederick,10.052,Orchard Grove Elementary,5898 HANNOVER DRIVE,FREDERICK,MD,21701,PK-5,Elementary
-8617926.0119,4780462.4526,996,Frederick,10.003,Lincoln A,250 MADISON STREET,FREDERICK,MD,21701,Adult,Special Ed.
-8617784.2436,4780281.211,997,Frederick,10.004,Lincoln Elementary,200 MADISON STREET,FREDERICK,MD,21701,PK-5,Elementary
-8559427.4084,4755715.4244,998,Howard,,Homewood Center,10914 ROUTE 108,ELLICOTT CITY,MD,21042,6-12,Alternate
-8562224.1057,4743811.5752,999,Howard,13.070,Lime Kiln Middle,11650 SCAGGSVILLE ROAD,FULTON,MD,20759,6-8,Middle
-8591290.5347,4804633.6041,1000,Carroll,06.044,Elmer Wolfe Elementary,119 NORTH MAIN STREET,UNION BRIDGE,MD,21791,PreK-5,Elementary
-8556123.2113,4807883.051,1001,Carroll,06.054,Shiloh Middle School,3675 WILLOW ST,HAMPSTEAD,MD,21074,6-8,Middle
-8570964.394,4805350.1376,1002,Carroll,06.025,Wm. Winchester Elementary,70 MONROE STREET,WESTMINSTER,MD,21157,PreK-5,Elementary
-8530231.1096,4757843.0817,1003,Baltimore City,30.239,Arundel PK-2 # 164,2400 ROUND RD,BALTIMORE,MD,21225,PK-2,Elementary
-8556270.5543,4808306.5223,1004,Carroll,06.022,Hampstead Elementary,3737 SHILOH ROAD,HAMPSTEAD,MD,21074,PreK-5,Elementary
-8553222.9191,4711922.6154,1005,Prince George's,16.174,Flowers (Charles Herbert)  High,10001 ARDWICK ARDMORE ROAD,SPRINGDALE,MD,20774,9-12,High
-8479267.1127,4795486.087,1006,Harford,12.044,Bakerfield Elementary,36 BAKER ST,ABERDEEN,MD,21001,Pre-K-5,Elementary
-8604191.1391,4743264.3375,1007,Montgomery,15.254,Matsunaga (Spark M.) Elementary,13902 BROMFIELD ROAD,GERMANTOWN,MD,20874,K-5,Elementary
-8607126.54,4778114.7011,1008,Frederick,10.063,Oakdale Middle,5810 OAKDALE SCHOOL ROAD,IJAMSVILLE,MD,21754,6-8,Middle
-8530175.0608,4765152.3061,1009,Baltimore City,30.168,Booker T. Washington Building # 130,1301 MCCULLOH ST,BALTIMORE,MD,21217,6-12,Middle/High
-8526080.8444,4769417.8372,1010,Baltimore City,30.226,Mergenthaler Vocational-Technical High CTE #410,3500 HILLEN RD,BALTIMORE,MD,21218,9-12,High
-8557405.8734,4712015.1994,1011,Prince George's,16.190,"Woods, Sr. (Judge Sylvania W.) Elementary",3000 CHURCH STREET,GLENARDEN,MD,20706,PreK-6,Elementary
-8530001.8633,4739295.6778,1012,Anne Arundel,02.133,Old Mill Middle South,620 PATRIOT LANE,MILLERSVILLE,MD,21108,6-8,Middle
-8537822.5469,4757217.4066,1013,Baltimore County,03.160,Arbutus Elementary,1300 SULPHUR SPRING ROAD,BALTIMORE,MD,21227,PreK-5,Elementary
-8538796.3179,4757248.2864,1014,Baltimore County,03.048,Arbutus Middle,5525 SHELBOURNE RD,BALTIMORE,MD,21227,6-8,Middle
-8529013.3314,4753517.7447,1015,Anne Arundel,02.085,Brooklyn Park Elementary,200 14TH AVENUE,BALTIMORE,MD,21225,PreK-5,Elementary
-8534869.2736,4724009.5091,1016,Anne Arundel,02.045,Crofton Meadows Elementary,2020 TILGHMAN DRIVE,CROFTON,MD,21114,K-5,Elementary
-8547055.6225,4774665.0105,1017,Baltimore County,03.026,Church Lane Elementary,3820 FERNSIDE ROAD,RANDALLSTOWN,MD,21133,PreK-5,Elementary
-8524977.1953,4779643.0994,1018,Baltimore County,03.123,Cromwell Valley Elementary Magnet,825 PROVIDENCE ROAD,TOWSON,MD,21286,K-5,Elementary
-8527696.1039,4726653.5579,1019,Anne Arundel,02.077,South Shore Elementary,1376 FAIRFIELD LOOP ROAD,CROWNSVILLE,MD,21032,K-5,Elementary
-8517213.9808,4715670.27,1020,Anne Arundel,02.061,Annapolis Middle,1399 FOREST DRIVE,ANNAPOLIS,MD,21403,6-8,Middle
-8545242.8727,4767635.387,1021,Baltimore County,03.171,Dogwood Elementary,7215 DOGWOOD ROAD,BALTIMORE,MD,21244,PreK-5,Elementary
-8534896.6037,4721268.6723,1022,Anne Arundel,02.038,Crofton Middle,2301 DAVIDSONVILLE ROAD,GAMBRILLS,MD,21054,6-8,Middle
-8543322.4941,4738442.1851,1023,Anne Arundel,02.087,MacArthur Middle,3500 ROCKENBACH ROAD,FORT MEADE,MD,20755,6-8,Middle
-8525485.3238,4734123.9076,1024,Anne Arundel,02.089,Severna Park Middle,450 JUMPERS HOLE ROAD,SEVERNA PARK,MD,21146,6-8,Middle
-8523241.0895,4718020.0773,1025,Anne Arundel,02.030,Annapolis High,2700 RIVA ROAD,ANNAPOLIS,MD,21401,9-12,High
-8528307.8501,4776279.4372,1026,Baltimore County,03.049,Dumbarton Middle,300 DUMBARTON ROAD,BALTIMORE,MD,21212,6-8,Middle
-8542427.8119,4739218.6819,1027,Anne Arundel,02.013,Meade High,1100 CLARK ROAD,FORT MEADE,MD,20755,9-12,High
-8519150.9291,4742359.5246,1028,Anne Arundel,02.055,Northeast High,1121 DUVALL HIGHWAY,PASADENA,MD,21122,9-12,High
-8530232.3941,4739216.1384,1029,Anne Arundel,02.002,Old Mill High,600 PATRIOT LANE,MILLERSVILLE,MD,21108,9-12,High
-8529213.7973,4702848.3036,1030,Anne Arundel,02.068,Southern High,4400 SOLOMONS ISLAND ROAD,HARWOOD,MD,20776,9-12,High
-8517446.5963,4718948.0296,1031,Anne Arundel,02.111,Studio 39,291 LOCUST AVENUE,ANNAPOLIS,MD,21401,9-12,Middle/High
-8530449.8619,4738661.8876,1032,Anne Arundel,02.039,Ruth Parker Eason,648 OLD MILL ROAD,MILLERSVILLE,MD,21108,PreK-12,Special Ed.
-8523996.5717,4657921.7803,1033,Calvert,04.012,Calvert Country,1350 DARES BEACH RD,PRINCE FREDERICK,MD,20678,PreK-12,Special Ed.
-8525081.7991,4658061.1533,1034,Calvert,04.025,Career and Technology Academy,330 DORSEY ROAD,PRINCE FREDERICK,MD,20678,9-12,Career Tech
-8518674.1311,4739250.4384,1035,Anne Arundel,02.091,Jacobsville Elementary,3801 MOUNTAIN ROAD,PASADENA,MD,21122,PreK-5,Elementary
-8542184.6871,4763650.3674,1036,Baltimore County,03.103,Johnnycake Elementary,5910 CRAIGMONT ROAD,BALTIMORE,MD,21228,PreK-5,Elementary
-8511972.7588,4768379.2321,1037,Baltimore County,03.148,Kenwood High,501 STEMMERS RUN ROAD,BALTIMORE,MD,21221,9-12,High
-8547649.8961,4705010.2637,1038,Prince George's,16.207,Perrywood Elementary,501 WATKINS PARK DRIVE,UPPER MARLBORO,MD,20774,K-5,Elementary
-8529416.963,4783017.0025,1039,Baltimore County,03.087,Lutherville Laboratory,1700 NORTH YORK ROAD,LUTHERVILLE,MD,21093,K-5,Elementary
-8570167.8086,4782475.4399,1040,Carroll,06.045,Linton Springs Elementary,375 RONSDALE RD,SYKESVILLE,MD,21784,PreK-5,Elementary
-8509489.4433,4769786.8212,1041,Baltimore County,03.142,Martin Boulevard Elementary,210 RIVERTON ROAD,BALTIMORE,MD,21220,PreK-5,Elementary
-8570673.2085,4802253.0342,1042,Carroll,06.027,Carroll Springs Special Education,495 SOUTH CENTER STREET,WESTMINSTER,MD,21157,PreK-12,Special Ed.
-8510692.9735,4768321.1271,1043,Baltimore County,03.167,Middlesex Elementary,142 BENNETT ROAD,BALTIMORE,MD,21221,PreK-5,Elementary
-8539647.9893,4773426.989,1044,Baltimore County,03.091,Milbrook Elementary,4300 CREST HEIGHTS ROAD,BALTIMORE,MD,21215,1-5,Elementary
-8551007.6262,4779673.6953,1045,Baltimore County,03.143,New Town Elementary,4924 NEW TOWN BOULEVARD,OWINGS MILLS,MD,21117,K-5,Elementary
-8544533.7721,4774124.6254,1046,Baltimore County,03.115,Northwest Academy of Health Sciences,4627 OLD COURT ROAD,BALTIMORE,MD,21208,6-8,Middle
-8559301.4098,4667693.2285,1047,Charles,08.038,J.P. Ryon Elementary,12140 VIVIAN ADAMS DRIVE,WALDORF,MD,20601,PreK-5,Elementary
-8548241.9163,4783013.6334,1048,Baltimore County,03.124,Owings Mills Elementary,10824 REISTERSTOWN ROAD,OWINGS MILLS,MD,21117,PreK-5,Elementary
-8548788.2649,4782510.0115,1049,Baltimore County,03.073,Owings Mills High,124 TOLLGATE ROAD,OWINGS MILLS,MD,21117,9-12,High
-8518935.1714,4775915.1197,1050,Baltimore County,03.082,Parkville Middle,8711 AVONDALE ROAD,BALTIMORE,MD,21234,6-8,Middle
-8513201.6003,4778916.2437,1051,Baltimore County,03.007,Perry Hall Middle,4300 EBENEZER ROAD,BALTIMORE,MD,21236,6-8,Middle
-8538052.4974,4775882.1718,1052,Baltimore County,03.033,Pikesville High,7621 LABYRINTH ROAD,BALTIMORE,MD,21208,9-12,High
-8531356.9405,4785538.8175,1053,Baltimore County,03.131,Pinewood Elementary,200 RICKSWOOD ROAD,TIMONIUM,MD,21093,PreK-5,Elementary
-8524045.33,4777935.046,1054,Baltimore County,03.139,Pleasant Plains Elementary,8300 PLEASANT PLAINS ROAD,TOWSON,MD,21286,PreK-5,Elementary
-8528691.7044,4787033.027,1055,Baltimore County,03.023,Pot Spring Elementary,2410 SPRINGLAKE DRIVE,TIMONIUM,MD,21093,PreK-5,Elementary
-8539606.0651,4817660.5553,1056,Baltimore County,03.013,Prettyboy Elementary,19810 MIDDLETOWN ROAD,FREELAND,MD,21053,K-5,Elementary
-8517184.9466,4769702.2112,1057,Baltimore County,03.109,Red House Run Elementary,1717 WEYBURN ROAD,BALTIMORE,MD,21237,PreK-5,Elementary
-8538268.9959,4755000.5209,1058,Baltimore County,03.132,Relay Elementary,5885 SELFORD ROAD,BALTIMORE,MD,21227,PK-5,Elementary
-8622929.7456,4783113.2922,1059,Frederick,10.058,Waverley Elementary,201 WAVERLEY DRIVE,FREDERICK,MD,21702,PK-5,Elementary
-8611965.8435,4789818.9213,1060,Frederick,10.002,Walkersville Elementary,83 FREDERICK STREET,WALKERSVILLE,MD,21793,PreK-5,Elementary
-8542272.7397,4764668.1061,1061,Baltimore County,03.176,Southwest Academy,6200 JOHNNYCAKE ROAD,BALTIMORE,MD,21207,6-8,Middle
-8511066.958,4770762.5615,1062,Baltimore County,03.057,Victory Villa Elementary,500 COMPASS ROAD,BALTIMORE,MD,21220,PreK-5,Elementary
-8546027.9754,4760792.5983,1063,Baltimore County,03.130,Westchester Elementary,2300 OLD FREDERICK ROAD,BALTIMORE,MD,21228,PreK-5,Elementary
-8499107.1705,4804926.9997,1064,Harford,12.041,Hickory Elementary,2100 CONOWINGO RD,BEL AIR,MD,21014,K-5,Elementary
-8517432.8376,4730149.9386,1065,Anne Arundel,02.096,Severn River Middle,241 PENINSULA FARM ROAD,ARNOLD,MD,21012,6-8,Middle
-8561543.6809,4720501.8432,1066,Prince George's,16.220,Berwyn Heights Elementary,6200 PONTIAC STREET,BERWYN HEIGHTS,MD,20740,PreK-6,Elementary
-8562955.7026,4708648.2337,1067,Prince George's,16.222,Gray (Robert R.) Elementary,4949 ADDISON ROAD,CAPITOL HEIGHTS,MD,20743,PreK-6,Elementary
-8567839.2876,4721684.9267,1068,Prince George's,16.231,Mary Harris Mother Jones Elementary,2405 TECUMSEH STREET,ADELPHI,MD,20783,PreK-5,Elementary
-8557758.4729,4707849.821,1069,Prince George's,16.054,Rice (Cora L.) Elementary,950 NALLEY ROAD,LANDOVER,MD,20785,PreK-5,Elementary
-8557721.3455,4707783.9929,1070,Prince George's,16.208,Gholson (G. James) Middle,900 NALLEY ROAD,LANDOVER,MD,20785,6-8,Middle
-8547837.3853,4772337.2981,1071,Baltimore County,03.198,Windsor Mill Middle,8300 WINDSOR MILL ROAD,BALTIMORE,MD,21244,6-8,Middle
-8543678.0075,4777620.1049,1072,Baltimore County,03.199,Woodholme Elementary,300 MOUNT WILSON LANE,BALTIMORE,MD,21208,PreK-5,Elementary
-8534743.4392,4787452.1212,1073,Baltimore County,03.200,Mays Chapel Elementary,12250 ROUNDWOOD RD,TIMONIUM,MD,21093,PreK-5,Elementary
-8509621.4169,4781372.1276,1074,Baltimore County,03.204,Crossroads Elementary,FORGE ROAD AT CROSS ROAD,BALTIMORE,MD,21128,,
-8506306.9357,4775016.1098,1075,Baltimore County,03.208,Vincent Farm Elementary,6019 EBENEZER ROAD,BALTIMORE,MD,21162,PreK-5,Elementary
-8558948.8227,4666610.4643,1076,Charles,08.022,Thomas Stone High,3785 LEONARDTOWN ROAD,WALDORF,MD,20601,9-12,High
-8551354.5769,4753534.8515,1077,Howard,13.024,Phelps Luck Elementary,5370 OLDSTONE CT,COLUMBIA,MD,21045,PreK-5,Elementary
-8561615.0898,4665722.6161,1078,Charles,08.037,Dr. Samuel A. Mudd Elementary,820 STONE AVE,WALDORF,MD,20602,PreK-5,Elementary
-8603315.0082,4736344.3245,1079,Montgomery,15.051,Darnestown Elementary,15030 TURKEY FOOT ROAD,GAITHERSBURG,MD,20878,K-5,Elementary
-8583772.7838,4716009.8637,1080,Montgomery,15.215,Westland Middle,5511 MASSACHUSETTS  AVENUE,BETHESDA,MD,20816,6-8,Middle
-8568142.6534,4653104.6099,1081,Charles,08.033,Walter J. Mitchell Elementary,400 WILLOW LANE,LA PLATA,MD,20646,PreK-5,Elementary
-8584798.7034,4717019.4084,1082,Montgomery,15.060,Wood Acres Elementary,5800 CROMWELL DRIVE,BETHESDA,MD,20816,K-5,Elementary
-8516596.6925,4698947.6141,1083,Anne Arundel,02.113,Shady Side Elementary,4859 ATWELL ROAD,SHADY SIDE,MD,20764,PreK-5,Elementary
-8517166.9387,4706833.2738,1084,Anne Arundel,02.105,Mayo Elementary,1260 MAYO RIDGE ROAD,EDGEWATER,MD,21037,K-5,Elementary
-8514516.0313,4713250.0724,1085,Anne Arundel,02.084,Hillsmere Elementary,3052 ARUNDEL ON THE BAY ROAD,ANNAPOLIS,MD,21403,PreK-5,Elementary
-8531340.3238,4710065.6092,1086,Anne Arundel,02.098,Davidsonville Elementary,962 CENTRAL AVENUE WEST,DAVIDSONVILLE,MD,21035,K-5,Elementary
-8535500.2178,4626164.4889,1087,St. Mary's,18.005,Benjamin Banneker Elementary,27180 POINT LOOKOUT ROAD,LOVEVILLE,MD,20656,PK-5,Elementary
-8535505.2307,4625839.5282,1088,St. Mary's,18.018,Loveville Building (part of Benjamin Banneker Elementary),27110 POINT LOOKOUT ROAD,LOVEVILLE,MD,20656,PK-5,Elementary
-8520618.7098,4627141.18,1089,St. Mary's,18.026,Hollywood Elementary,44345 JOY CHAPEL ROAD,HOLLYWOOD,MD,20636,PK-5,Elementary
-8528445.7706,4618199.6417,1090,St. Mary's,18.001,Leonardtown Middle,24015 POINT LOOKOUT ROAD,LEONARDTOWN,MD,20650,6-8,Middle
-8522612.7169,4710481.0996,1091,Anne Arundel,02.099,South River High,201 CENTRAL AVENUE EAST,EDGEWATER,MD,21037,9-12,High
-8540338.5386,4730404.7375,1092,Anne Arundel,02.100,Piney Orchard Elementary,2641 STRAWBERRY LAKE WAY,ODENTON,MD,21113,K-5,Elementary
-8520231.2115,4733526.9486,1093,Anne Arundel,02.086,Folger McKinsey Elementary,175 ARUNDEL BEACH ROAD,SEVERNA PARK,MD,21146,K-5,Elementary
-8531014.5582,4748974.9309,1094,Anne Arundel,02.088,Hilltop Elementary,415 MELROSE AVENUE,GLEN BURNIE,MD,21061,K-5,Elementary
-8537060.8356,4738349.2863,1095,Anne Arundel,02.090,Ridgeway Elementary,1440 EVERGREEN ROAD,SEVERN,MD,21144,K-5,Elementary
-8533965.825,4749783.4681,1096,Anne Arundel,02.127,Lindale Middle,415 ANDOVER ROAD,LINTHICUM,MD,21090,6-8,Middle
-8526630.0329,4742320.7365,1097,Anne Arundel,02.079,Marley Elementary,715 COOPER ROAD,GLEN BURNIE,MD,21060,PreK-5,Elementary
-8525004.634,4741400.4865,1098,Anne Arundel,02.080,Freetown Elementary,7904 FREETOWN ROAD,GLEN BURNIE,MD,21060,PreK-5,Elementary
-8522213.3066,4721366.1704,1099,Anne Arundel,02.081,Rolling Knolls Elementary,1985 VALLEY ROAD,ANNAPOLIS,MD,21401,PreK-5,Elementary
-8551312.6156,4735425.3063,1100,Anne Arundel,02.082,Maryland City Elementary,3359 CRUMPTON SOUTH,LAUREL,MD,20724,PreK-5,Elementary
-8517476.4534,4719277.3478,1101,Anne Arundel,02.083,Phoenix Academy,1411 CEDAR PARK DRIVE,ANNAPOLIS,MD,21401,K-12,Alternate
-8531088.6834,4741766.3067,1102,Anne Arundel,02.073,Glen Burnie Park Elementary,500 MARLBORO ROAD,GLEN BURNIE,MD,21061,PreK-5,Elementary
-8542736.1227,4737734.1216,1103,Anne Arundel,02.074,Manor View Elementary,2900 MACARTHUR ROAD,FORT MEADE,MD,20755,1-5,Elementary
-8521658.2718,4690033.2146,1104,Anne Arundel,02.075,Deale Elementary,759 MASONS BEACH ROAD,DEALE,MD,20751,K-5,Elementary
-8528215.9265,4753607.8635,1105,Anne Arundel,02.076,Park Elementary,201 EAST 11TH AVENUE,BALTIMORE,MD,21225,PreK-5,Elementary
-8533146.1508,4740917.1355,1106,Anne Arundel,02.078,Quarterfield Elementary,7967 QUARTERFIELD ROAD,SEVERN,MD,21144,PreK-5,Elementary
-8783317.457,4815752.4804,1107,Allegany,01.013,Eckhart Alternative,17000 NATIONAL HIGHWAY SW,FROSTBURG,MD,21532,6-12,Alternate
-8792883.0594,4802286.6304,1108,Allegany,01.014,Westmar Middle,16915 LOWER GEORGE'S CREEK ROAD SW,LONACONING,MD,21539,6-8,Middle
-8523465.8605,4737320.2647,1109,Anne Arundel,02.070,Pasadena Elementary,401 EAST PASADENA ROAD,PASADENA,MD,21122,K-5,Elementary
-8544914.8648,4738683.1192,1110,Anne Arundel,02.072,West Meade EEC,7722 RAY STREET,FORT MEADE,MD,20755,PreK-K,Elementary
-8775146.085,4814353.6208,1111,Allegany,01.033,Parkside Elementary,50 PARKSIDE BOULEVARD,LAVALE,MD,21502,PreK-5,Elementary
-8768722.9092,4817527.2324,1112,Allegany,01.035,Braddock Middle,909 HOLLAND STREET,CUMBERLAND,MD,21502,6-8,Middle
-8765949.0373,4813535.2973,1113,Allegany,01.034,Washington Middle,200 N. MASSACHUSSETTS AVENUE,CUMBERLAND,MD,21502,6-8,Middle
-8768156.4034,4811680.4435,1114,Allegany,01.004,John Humbird Elementary,120 MARY STREET,CUMBERLAND,MD,21502,PreK-5,Elementary
-8766187.5511,4814386.8836,1115,Allegany,01.011,Fort Hill High,500 GREENWAY AVENUE,CUMBERLAND,MD,21502,9-12,High
-8767377.5272,4819390.9502,1116,Allegany,01.030,Northeast Elementary,11001 FOREST AVENUE,CUMBERLAND,MD,21502,PreK-5,Elementary
-8780894.9664,4822605.0295,1117,Allegany,01.025,Mt. Savage Elementary/Middle,13201 NEW SCHOOL ROAD NW,MT. SAVAGE,MD,21545,PreK-8,PreK-8
-8775485.7447,4806496.5122,1118,Allegany,01.032,Cresaptown Elementary,13202 SIXTH AVENUE,CRESAPTOWN,MD,21502,PreK-5,Elementary
-8773536.4921,4817958.5327,1119,Allegany,01.022,Cash Valley Elementary,10601 CASH VALLEY ROAD,CUMBERLAND,MD,21502,PreK-5,Elementary
-8798892.8823,4790952.5704,1120,Allegany,01.024,Westernport Elementary,172 CHURCH STREET,WESTERNPORT,MD,21562,PreK-5,Elementary
-8774757.3767,4808086.0789,1121,Allegany,01.027,Center For Career & Technical Education,"14211 MCMULLEN HIGHWAY, SW",CRESAPTOWN,MD,21502,11-12,Career Tech
-8790187.6719,4804833.3847,1122,Allegany,01.001,George's Creek Elementary,15600 LOWER GEORGE'S CREEK ROAD SW,LONACONING,MD,21539,PreK-5,Elementary
-8768943.2105,4815181.7465,1123,Allegany,01.017,West Side Elementary,425 PACA STREET,CUMBERLAND,MD,21502,PreK-5,Elementary
-8745767.0697,4822635.0251,1124,Allegany,01.020,Flintstone Elementary,22000 NATIONAL PIKE SW,FLINTSTONE,MD,21530,PreK-5,Elementary
-8767160.1059,4813170.0495,1125,Allegany,01.021,South Penn Elementary,500 EAST SECOND STREET,CUMBERLAND,MD,21502,PreK-5,Elementary
-8584293.4949,4725036.0512,1126,Montgomery,15.016,Grosvenor Center,5701 GROSVENOR LN,BETHESDA,MD,20014,,Alternate                                         
-8572742.3005,4722281.003,1127,Montgomery,15.101,Highland View Elementary,9010 PROVIDENCE AVENUE,SILVER SPRING,MD,20901,K-5,Elementary
-8587605.1322,4731713.9607,1128,Montgomery,15.014,Bayard Rustin Elementary,332 W EDMONSTON DR,ROCKVILLE,MD,20851,,Elementary
-8585737.7114,4728108.6952,1129,Montgomery,15.220,Luxmanor Elementary,6201 TILDEN LANE,ROCKVILLE,MD,20852,K-5,Elementary
-8595338.9314,4724780.4127,1130,Montgomery,15.110,Potomac Elementary,10311 RIVER ROAD,POTOMAC,MD,20854,K-5,Elementary
-8601224.562,4754060.4078,1131,Montgomery,15.196,Clarksburg High,22500 WIMS ROAD,CLARKSBURG,MD,20871,9-12,High
-8576645.231,4721872.3234,1132,Montgomery,15.062,Rosemary Hills Elementary,2111 PORTER RD,SILVER SPRING,MD,20910,pre-K-2,Elementary
-8592230.2437,4739613.758,1133,Montgomery,15.203,Rosemont Elementary,16400 ALDEN AVENUE,GAITHERSBURG,MD,20877,pre-K-5,Elementary
-8584722.8125,4741623.4272,1134,Montgomery,15.160,Sequoyah Elementary,17301 BOWIE MILL ROAD,DERWOOD,MD,20855,K-5,Elementary
-8581890.5708,4717218.3494,1135,Montgomery,15.008,Somerset Elementary,5811 WARWICK PLACE,CHEVY CHASE,MD,20815,K-5,Elementary
-8593347.7366,4739914.4848,1136,Montgomery,15.174,Summit Hall Elementary,101 WEST DEER PARK ROAD,GAITHERSBURG,MD,20877,HS-5,Elementary
-8573053.6277,4719596.3876,1137,Montgomery,15.001,Takoma Park Middle,7611 PINEY BRANCH RD,SILVER SPRING,MD,20910,6-8,Middle
-8572967.195,4719171.108,1138,Montgomery,15.081,Takoma Park Elementary,7511 HOLLY AVENUE,TAKOMA PARK,MD,20912,pre-K-2,Elementary
-8600534.8894,4739768.0494,1139,Montgomery,15.187,Marshall (Thurgood) Elementary,12260 MCDONALD CHAPEL DRIVE,GAITHERSBURG,MD,20876,K-5,Elementary
-8585189.4489,4727159.2046,1140,Montgomery,15.125,Tilden Middle,11211 OLD GEORGETOWN ROAD,ROCKVILLE,MD,20852,6-8,Middle
-8578987.7907,4730544.5797,1141,Montgomery,15.142,Edison (Thomas) High,12501 DALEWOOD DRIVE,SILVER SPRING,MD,20906,10-12,Career Tech
-8585814.0097,4719051.7002,1142,Montgomery,15.134,Whitman (Walt) High,7100 WHITTIER BOULEVARD,BETHESDA,MD,20817,9-12,High
-8594554.6128,4728491.5264,1143,Montgomery,15.033,Wayside Elementary,10011 GLEN RD,ROCKVILLE,MD,20854,K-5,Elementary
-8593691.8414,4757916.0852,1144,Montgomery,15.143,Woodfield Elementary,24200 WOODFIELD ROAD,GAITHERSBURG,MD,20879,K-5,Elementary
-8585873.185,4723008.6214,1145,Montgomery,15.075,Wyngate Elementary,9300 WADSWORTH DRIVE,BETHESDA,MD,20817,K-5,Elementary
-8566903.7684,4732402.2148,1146,Montgomery,15.265,Fairland Center,13313 OLD COLUMBIA PIKE,SILVER SPRING,MD,20904,,Alternate                                         
-8589708.7788,4742186.9937,1147,Montgomery,15.275,Shady Grove Middle,8100 MID COUNTY HIGHWAY,GAITHERSBURG,MD,20877,6-8,Middle
-8599230.8299,4745447.2998,1148,Montgomery,15.259,Clemente (Roberto) Middle,18808 WARING STATION ROAD,GERMANTOWN,MD,20874,6-8,Middle
-8594095.3044,4736441.3967,1149,Montgomery,15.266,RICA School,15000 BROSCHART ROAD,ROCKVILLE,MD,20850,,Special Ed.
-8370074.0483,4627253.1812,1150,Worcester,23.014,Stephen Decatur Middle,9815 SEAHAWK ROAD,BERLIN,MD,21811,7-8,Middle
-8574069.1099,4726783.5626,1151,Montgomery,15.046,Northwood High,"919 UNIVERSITY BLVD., WEST",SILVER SPRING,MD,20901,9-12,High
-8579756.0778,4721521.6067,1152,Montgomery,15.195,North Chevy Chase Elementary,3700 JONES BRIDGE ROAD,CHEVY CHASE,MD,20815,3-6,Elementary
-8393196.7346,4603058.1418,1153,Worcester,23.009,Snow Hill Middle,522 COULBOURNE LANE,SNOW HILL,MD,21863,4-8,Elementary/Middle
-8649092.2386,4816067.5149,1154,Washington,21.044,Potomac Heights Elementary,301 E. MAGNOLIA AVENUE,HAGERSTOWN,MD,21740,PreK-5,Elementary
-8546432.7471,4754832.2992,1155,Howard,13.057,Ilchester Elementary,4981 ILCHESTER RD,ELLICOTT CITY,MD,21043,PreK-5,Elementary
-8564571.4251,4767751.0537,1156,Howard,13.049,Mount View Middle,12101 WOODFORD DRIVE,MARRIOTTSVILLE,MD,21104,6-8,Middle
-8600652.1056,4745713.8654,1157,Montgomery,15.151,McAuliffe (Christa S.) Elementary,12500 WISTERIA DRIVE,GERMANTOWN,MD,20874,HS-5,Elementary
-8597437.7453,4748865.2242,1158,Montgomery,15.159,Daly (Capt. James E.) Elementary,20301 BRANDERMILL DRIVE,GAITHERSBURG,MD,20876,pre-K-5,Elementary
-8575286.9298,4725450.9832,1159,Montgomery,15.235,Sligo Middle,1401 DENNIS AVE,SILVER SPRING,MD,20902,6-8,Middle
-8577289.7075,4720552.3301,1160,Montgomery,15.138,Rock Creek Forest Elementary,8330 GRUBB ROAD,CHEVY CHASE,MD,20815,K-5,Elementary
-8591980.8,4732703.3604,1161,Montgomery,15.023,Wootton (Thomas S.) High,2100 WOOTTON PARKWAY,ROCKVILLE,MD,20850,9-12,High
-8573350.8596,4721719.6157,1162,Montgomery,15.264,Sligo Creek Elementary,500 SCHUYLER AVENUE,SILVER SPRING,MD,20910,K-5,Elementary
-8583024.8713,4715697.3223,1163,Montgomery,15.017,Westbrook Elementary,5110 ALLAN TERRACE,BETHESDA,MD,20816,K-5,Elementary
-8416888.2318,4634561.8084,1164,Wicomico,22.029,West Salisbury Elementary,1321 WEST ROAD,SALISBURY,MD,21801,PreK-2,Elementary
-8395632.7942,4634919.4053,1165,Wicomico,22.019,Pittsville Elementary/Middle,34404 OLD OCEAN CITY ROAD,PITTSVILLE,MD,21850,4-8,Elementary/Middle
-8393096.242,4603045.8194,1166,Worcester,23.013,Cedar Chapel Special School,510 COULBOURNE LANE,SNOW HILL,MD,21863,,Special Ed.
-8360955.6758,4628547.6638,1167,Worcester,23.006,Ocean City Elementary,12828 CENTER DRIVE,OCEAN CITY,MD,21842,PreK-4,Elementary
-8569517.8378,4717327.7007,1168,Prince George's,16.167,Chavez (Cesar) Elementary,6609 RIGGS ROAD,HYATTSVILLE,MD,20782,PreK-6,Elementary
-8530386.5023,4748167.9702,1169,Anne Arundel,02.063,George Cromwell Elementary,221 OLEN DRIVE,GLEN BURNIE,MD,21061,K-5,Elementary
-8529767.6774,4749387.0697,1170,Anne Arundel,02.118,North Glen Elementary,615 W FURNACE BRANCH ROAD,GLEN BURNIE,MD,21061,PreK-5,Elementary
-8514161.9378,4728601.3221,1171,Anne Arundel,02.023,Broadneck Elementary,470 SHORE ACRES ROAD,ARNOLD,MD,21012,K-5,Elementary
-8542271.7026,4739613.3538,1172,Anne Arundel,02.104,Meade Middle,1103 26TH STREET,FORT MEADE,MD,20755,6-8,Middle
-8530863.3074,4779868.7223,1173,Baltimore County,03.195,Ridge Ruxton School,6916 CHARLES STREET,TOWSON,MD,21204,Sp.,Special Ed.
-8560872.0966,4701680.481,1174,Prince George's,16.160,Key (Francis Scott) Elementary,2301 SCOTT KEY DRIVE,DISTRICT HEIGHTS,MD,20747,PreK-5,Elementary
-8529798.6378,4766003.1133,1175,Baltimore City,30.069,Mt. Royal Elementary/Middle # 066,121 MCMECHEN STREET,BALTIMORE,MD,21217,K-8,Elementary/Middle
-8523798.569,4763271.191,1176,Baltimore City,30.072,Highlandtown PK-8 #  215,3223 E PRATT ST,BALTIMORE,MD,21224,PK-8,PreK-8
-8536439.9172,4770125.6538,1177,Baltimore City,30.074,George W. F. McMechen Special Ed. High # 177,4411 GARRISON BLVD,BALTIMORE,MD,21215,9-12,Special Ed.
-8520503.8024,4767148.3348,1178,Baltimore City,30.057,Moravia Park Building #105A,6201 FRANKFORD AVE,BALTIMORE,MD,21206,PreK-2,Elementary
-8527501.972,4770898.8601,1179,Baltimore City,30.064,Walter P. Carter PK-8 # 134,820 E 43RD ST,BALTIMORE,MD,21212,PK-8,PreK-8
-8528317.868,4760540.9972,1180,Baltimore City,30.044,Thomas Johnson PK-8 # 084,100 E HEATH ST,BALTIMORE,MD,21230,PreK-8,PreK-8
-8536326.368,4767112.5346,1181,Baltimore City,30.045,Windsor Hills PK-8 # 087,4001 ALTO RD,BALTIMORE,MD,21216,Pre-K-8,PreK-8
-8525622.2706,4765808.7468,1182,Baltimore City,30.053,Collington Square PK-8 # 097,1409 N COLLINGTON AVE,BALTIMORE,MD,21213,PreK-8,PreK-8
-8530401.1591,4769354.8119,1183,Baltimore City,30.030,Hampden PK-8 #055,3608 CHESTNUT AVE,BALTIMORE,MD,21211,PreK-8,PreK-8
-8530668.1507,4766424.1708,1184,Baltimore City,30.034,Dorothy I. Height Elementary # 061,2011 LINDEN AVE,BALTIMORE,MD,21217,PreK-5,Elementary
-8534232.5079,4767311.272,1185,Baltimore City,30.040,William H. Lemmel Building #079,2801 N DUKELAND ST,BALTIMORE,MD,21216,6-12,Middle/High
-8524781.9892,4764044.8294,1186,Baltimore City,30.042,William Paca Elementary # 083,200 N LAKEWOOD AVE,BALTIMORE,MD,21224,PreK-5,Elementary
-8525423.0455,4768731.3315,1187,Baltimore City,30.022,Montebello PK-8 # 044,2040 E 32ND ST,BALTIMORE,MD,21218,PK-8,PreK-8
-8528328.0481,4761504.0263,1188,Baltimore City,30.023,Federal Hill Prep PK-5 # 045,1040 WILLIAM ST,BALTIMORE,MD,21230,PreK-5,Elementary
-8524399.763,4762734.3927,1189,Baltimore City,30.025,Hampstead Hill Acad. PK-8 # 047,500 S LINWOOD AVE,BALTIMORE,MD,21224,PreK-8,PreK-8
-8527657.1889,4769088.1938,1190,Baltimore City,30.028,Waverly PK-8 # 051,3400 ELERSLIE AVE,BALTIMORE,MD,21218,PreK-8,PreK-8
-8528758.2177,4767577.9055,1191,Baltimore City,30.029,Margaret Brent PK-8 # 053,100 EAST 26TH ST,BALTIMORE,MD,21218,PreK-8,PreK-8
-8525955.1396,4763017.4416,1192,Baltimore City,30.016,Wolfe Street Academy Elementary # 023 (formerly General Wolf,245 S WOLFE ST,BALTIMORE,MD,21231,PreK-5,Elementary
-8526478.2512,4766680.4266,1193,Baltimore City,30.019,Harford Heights Building #036,1919 NORTH BROADWAY,BALTIMORE,MD,21213,PK-5,Elementary
-8528589.4465,4766626.0381,1194,Baltimore City,30.020,Dallas F. Nicholas Elementary # 039,201 E. 21ST STREET,BALTIMORE,MD,21218,PK-5,Elementary
-8522063.1485,4772000.0027,1195,Baltimore City,30.021,Hamilton Building # 041,5609 SEFTON AVE,BALTIMORE,MD,21214,"K-8;",Elementary/Middle/High
-8528172.087,4744757.6827,1196,Anne Arundel,02.065,Glendale Elementary,105 CARROLL ROAD,GLEN BURNIE,MD,21060,PreK-5,Elementary
-8540230.6444,4738580.1505,1197,Anne Arundel,02.066,Meade Heights Elementary,1925 REECE ROAD,FORT MEADE,MD,20755,PreK-5,Elementary
-8522037.1272,4746716.5099,1198,Anne Arundel,02.067,Solley Elementary,7608 SOLLEY ROAD,GLEN BURNIE,MD,21060,PreK-5,Elementary
-8515882.0048,4715334.5427,1199,Anne Arundel,02.069,Tyler Heights Elementary,200 JANWALL STREET,ANNAPOLIS,MD,21403,PreK-5,Elementary
-8518859.3423,4718517.3281,1200,Anne Arundel,02.058,Mills-Parole Elementary,1 GEORGE & MARION PHELPS LANE,ANNAPOLIS,MD,21401,PreK-5,Elementary
-8526582.5895,4742995.247,1201,Anne Arundel,02.059,Marley Middle,10 DAVIS COURT,GLEN BURNIE,MD,21060,6-8,Middle
-8544258.7735,4738211.5987,1202,Anne Arundel,02.060,Pershing Hill Elementary,7600 29TH DIVISION ROAD,FORT MEADE,MD,20755,1-5,Elementary
-8510981.3809,4737731.7448,1203,Anne Arundel,02.062,Bodkin Elementary,8320 VENTNOR ROAD,PASADENA,MD,21122,K-5,Elementary
-8540113.2059,4742744.751,1204,Anne Arundel,02.064,Frank Hebron-Harman Elementary,7660 RIDGE CHAPEL ROAD,HANOVER,MD,21076,PreK-5,Elementary
-8521336.4163,4732038.3323,1205,Anne Arundel,02.052,Severna Park Elementary,6 RIGGS AVENUE,SEVERNA PARK,MD,21146,K-5,Elementary
-8531488.6151,4729605.4235,1206,Anne Arundel,02.053,Millersville Elementary,1601 MILLERSVILLE ROAD,MILLERSVILLE,MD,21108,K-5,Elementary
-8531235.2305,4749370.7926,1207,Anne Arundel,02.054,North County High,10 EAST 1ST AVENUE,GLEN BURNIE,MD,21061,9-12,High
-8516209.4411,4730078.1964,1208,Anne Arundel,02.056,Belvedere Elementary,360 BROADWATER ROAD,ARNOLD,MD,21012,PreK-5,Elementary
-8536653.6562,4732066.0328,1209,Anne Arundel,02.057,Arundel Middle,1179 HAMMOND LANE,ODENTON,MD,21113,6-8,Middle
-8511503.0541,4726353.3096,1210,Anne Arundel,02.047,Windsor Farm Elementary,591 BROADNECK ROAD,ANNAPOLIS,MD,21409,K-5,Elementary
-8537895.5547,4733627.5705,1211,Anne Arundel,02.048,Odenton Elementary,1290 ODENTON ROAD,ODENTON,MD,21113,PreK-5,Elementary
-8528298.6499,4736264.8222,1212,Anne Arundel,02.049,Shipley's Choice Elementary,310 GOVERNOR STONE PARKWAY,MILLERSVILLE,MD,21108,K-5,Elementary
-8530880.9945,4743820.0761,1213,Anne Arundel,02.051,Corkran Middle,7600 QUARTERFIELD ROAD,GLEN BURNIE,MD,21061,6-8,Middle
-8536201.3176,4731890.4152,1214,Anne Arundel,02.040,Arundel High,1001 ANNAPOLIS ROAD,GAMBRILLS,MD,21054,9-12,High
-8536905.1523,4723615.7756,1215,Anne Arundel,02.041,Crofton Elementary,1405 DUKE OF KENT DRIVE,CROFTON,MD,21114,k-5,Elementary
-8528176.5936,4696447.2351,1216,Anne Arundel,02.042,Southern Middle,5235 SOLOMONS ISLAND ROAD,LOTHIAN,MD,20711,6-8,Middle
-8537104.6366,4741425.2084,1217,Anne Arundel,02.043,Severn Elementary,838 REECE ROAD,SEVERN,MD,21144,PreK-5,Elementary
-8521399.2193,4740648.1128,1218,Anne Arundel,02.044,Northeast Middle,7922 OUTING AVENUE,PASADENA,MD,21122,6-8,Middle
-8522295.9327,4712747.2469,1219,Anne Arundel,02.033,Edgewater Elementary,121 WASHINGTON ROAD,EDGEWATER,MD,21037,K-5,Elementary
-8514574.6733,4718312.8432,1220,Anne Arundel,02.034,Annapolis Elementary,180 GREEN STREET,ANNAPOLIS,MD,21401,PreK-5,Elementary
-8514070.4156,4717373.9031,1221,Anne Arundel,02.035,Eastport Elementary,420 FIFTH STREET,ANNAPOLIS,MD,21403,PreK-5,Elementary
-8516315.1376,4720430.8479,1222,Anne Arundel,02.036,West Annapolis Elementary,505 MELVIN AVENUE,ANNAPOLIS,MD,21401,K-5,Elementary
-8516531.9756,4717701.3518,1223,Anne Arundel,02.037,Bates Middle,701 CHASE STREET,ANNAPOLIS,MD,21401,6-8,Middle
-8528545.7505,4696861.9215,1224,Anne Arundel,02.024,Lothian Elementary,5175 SOLOMONS ISLAND ROAD,LOTHIAN,MD,20711,PreK-5,Elementary
-8513357.7281,4740799.8821,1225,Anne Arundel,02.031,Fort Smallwood Elementary,1720 POPLAR RIDGE ROAD,PASADENA,MD,21122,PreK-5,Elementary
-8510799.3491,4727378.1478,1226,Anne Arundel,02.032,Broadneck High,1265 GREEN HOLLY DRIVE,ANNAPOLIS,MD,21409,9-12,High
-8514668.6896,4714996.4447,1227,Anne Arundel,02.017,Georgetown East Elementary,111 DOGWOOD ROAD,ANNAPOLIS,MD,21403,PreK-5,Elementary
-8522346.3109,4710145.1117,1228,Anne Arundel,02.018,Central Middle,221 CENTRAL AVENUE EAST,EDGEWATER,MD,21037,6-8,Middle
-8522797.3237,4710465.2891,1229,Anne Arundel,02.019,Center of Applied Technology South,211 CENTRAL AVENUE EAST,EDGEWATER,MD,21037,9-12,Career Tech
-8530435.5455,4744638.9354,1230,Anne Arundel,02.022,Richard Henry Lee Elementary,400 A STREET,GLEN BURNIE,MD,21061,K-5,Elementary
-8537588.5835,4729314.7936,1231,Anne Arundel,02.010,Four Seasons Elementary,979 WAUGH CHAPEL ROAD,GAMBRILLS,MD,21054,PreK-5,Elementary
-8511731.3564,4737557.1767,1232,Anne Arundel,02.012,Chesapeake High,4798 MOUNTAIN ROAD,PASADENA,MD,21122,9-12,High
-8523301.17,4710723.7771,1233,Anne Arundel,02.014,Central Special,140 STEPNEY LANE,EDGEWATER,MD,21037,PreK-12,Special Ed.
-8520398.0399,4742330.8804,1234,Anne Arundel,02.015,High Point Elementary,7789 EDGEWOOD AVENUE,PASADENA,MD,21122,PreK-5,Elementary
-8545627.9449,4742583.0238,1235,Anne Arundel,02.016,Jessup Elementary,2798 CHAMPION FOREST AVENUE,JESSUP,MD,20794,PreK-5,Elementary
-8522664.5216,4732744.0684,1236,Anne Arundel,02.005,Severna Park High,60 ROBINSON ROAD,SEVERNA PARK,MD,21146,9-12,High
-8532618.3473,4740427.0459,1237,Anne Arundel,02.006,Center of Applied Technology North,800 STEVENSON ROAD,SEVERN,MD,21144,9-12,Career Tech
-8517432.8376,4730149.9386,1238,Anne Arundel,02.007,Magothy River Middle,241 PENINSULA FARM ROAD,ARNOLD,MD,21012,6-8,Middle
-8532980.6639,4750712.1602,1239,Anne Arundel,02.008,Linthicum Elementary,101 SCHOOL LANE,LINTHICUM,MD,21090,K-5,Elementary
-8511306.4219,4737803.9686,1240,Anne Arundel,02.009,Chesapeake Bay Middle,4804 MOUNTAIN ROAD,PASADENA,MD,21122,6-8,Middle
-8531857.2843,4748086.6814,1241,Anne Arundel,02.124,Ferndale EEC,105 PACKARD AVENUE,GLEN BURNIE,MD,21061,PreK-K,Elementary
-8529513.101,4754630.0429,1242,Anne Arundel,02.121,Belle Grove Elementary,4502 BELLE GROVE RD,BALTIMORE,MD,21225,PreK-5,Elementary
-8529283.2431,4752700.2065,1243,Anne Arundel,02.092,Brooklyn Park Middle,200 HAMMONDS LANE,BALTIMORE,MD,21225,6-8,Middle
-8530122.9873,4739438.4215,1244,Anne Arundel,02.001,Old Mill Middle North,610 PATRIOT LANE,MILLERSVILLE,MD,21108,6-8,Middle
-8530258.8785,4740089.3431,1245,Anne Arundel,02.003,Rippling Woods Elementary,530 NOLFIELD DRIVE,GLEN BURNIE,MD,21061,PreK-5,Elementary
-8528703.86,4741860.0883,1246,Anne Arundel,02.120,Woodside Elementary,160 FUNKE ROAD,GLEN BURNIE,MD,21061,PreK-5,Elementary
-8528693.6305,4740133.0761,1247,Anne Arundel,02.114,Southgate Elementary,290 SHETLANDS LANE,GLEN BURNIE,MD,21061,PreK-5,Elementary
-8526240.8245,4746487.8187,1248,Anne Arundel,02.134,Point Pleasant Elementary,1035 DUMBARTON ROAD,GLEN BURNIE,MD,21060,PreK-5,Elementary
-8532800.1446,4752318.6904,1249,Anne Arundel,02.119,Overlook Elementary,401 HAMPTON ROAD,LINTHICUM,MD,21090,PreK-5,Elementary
-8530178.7835,4742334.3861,1250,Anne Arundel,02.109,Oakwood Elementary,330 OAK MANOR DRIVE,GLEN BURNIE,MD,21061,PreK-5,Elementary
-8519953.7311,4729995.3418,1251,Anne Arundel,02.094,Jones Elementary,122 HOYLE LANE,SEVERNA PARK,MD,21146,K-5,Elementary
-8509788.037,4727237.4661,1252,Anne Arundel,02.116,Cape St. Claire Elementary,931 BLUE RIDGE DRIVE,ANNAPOLIS,MD,21409,K-5,Elementary
-8525858.8947,4733898.6489,1253,Anne Arundel,02.029,Benfield Elementary,365 LYNWOOD DRIVE,SEVERNA PARK,MD,21146,PreK-5,Elementary
-8516383.2508,4726579.3715,1254,Anne Arundel,02.106,Arnold Elementary,95 JOYCE LANE EAST,ARNOLD,MD,21012,K-5,Elementary
-8526685.5141,4742207.1008,1255,Anne Arundel,02.095,Marley Glen Special Education,200 SCOTT AVENUE,GLEN BURNIE,MD,21060,PreK-12,Special Ed.
-8527987.2585,4732690.575,1256,Anne Arundel,02.122,Arlington Echo Education Center,975 INDIAN LANDING ROAD,MILLERSVILLE,MD,21108,K-12,Environmental Ed.
-8518543.4813,4743749.6056,1257,Anne Arundel,02.108,Sunset Elementary,8572 FORT SMALLWOOD ROAD,PASADENA,MD,21122,PreK-5,Elementary
-8523672.476,4733695.6541,1258,Anne Arundel,02.107,Oak Hill Elementary,34 TRUCKHOUSE ROAD,SEVERNA PARK,MD,21146,K-5,Elementary
-8515181.8063,4736894.8465,1259,Anne Arundel,02.103,Lake Shore Elementary,4531 MOUNTAIN ROAD,PASADENA,MD,21122,PreK-5,Elementary
-8523089.0856,4710807.6564,1260,Anne Arundel,02.117,Central Elementary,130 STEPNEY LANE,EDGEWATER,MD,21037,K-5,Elementary
-8521559.6995,4699534.9919,1261,Anne Arundel,02.123,Carrie Weedon EEC,911 GALESVILLE ROAD,GALESVILLE,MD,20765,PreK,Elementary
-8537782.2215,4730991.6523,1262,Anne Arundel,02.102,Waugh Chapel Elementary,840 SUNFLOWER DRIVE,ODENTON,MD,21113,PreK-5,Elementary
-8537533.2628,4721331.8704,1263,Anne Arundel,02.115,Crofton Woods Elementary,1750 URBY DRIVE,CROFTON,MD,21114,K-5,Elementary
-8551670.1478,4734316.3109,1264,Anne Arundel,02.093,Brock Bridge Elementary,405 BROCK BRIDGE ROAD,LAUREL,MD,20724,PreK-5,Elementary
-8526252.3566,4690310.8369,1265,Anne Arundel,02.101,Tracey's Elementary,20 DEALE ROAD,TRACEY'S LANDING,MD,20779,K-5,Elementary
-8520242.0028,4761270.4581,1266,Baltimore City,30.240,Holabird PK-8 # 229,1500 IMLA ST,BALTIMORE,MD,21224,PK-8,PreK-8
-8538776.1737,4762353.7408,1267,Baltimore City,30.041,North Bend PK-8 # 081,181 NORTH BEND ROAD,BALTIMORE,MD,21229,PreK-8,PreK-8
-8497593.3107,4716271.5072,1268,Queen Anne's,17.024,Matapeake Elementary,651 ROMANCOKE ROAD,STEVENSVILLE,MD,21666,PK-5,Elementary
-8527364.8462,4767819.8635,1269,Baltimore City,30.198,Coldstream Park PK-8 # 031,1400 EXETER HALL AVE,BALTIMORE,MD,21218,6-8,Middle
-8525714.015,4763815.9407,1270,Baltimore City,30.017,Commodore John Rodgers PK-8 # 027,100 N CHESTER STREET,BALTIMORE,MD,21231,PK-8,PreK-8
-8537002.638,4769414.7998,1271,Baltimore City,30.167,Forest Park High # 406,3701 ELDORADO AVE.,BALTIMORE,MD,21207,9-12,High
-8520544.566,4772208.951,1272,Baltimore City,30.095,Glenmount PK-8 # 235,6211 WALTHER AVE,BALTIMORE,MD,21206,PK-8,PreK-8
-8533057.9808,4763534.8735,1273,Baltimore City,30.225,Mary A. Winterling Elementary (formerly Bentalou Elementary),220 NORTH BENTALOU STREET,BALTIMORE,MD,21223,PK-5,Elementary
-8538978.0719,4736631.7627,1274,Anne Arundel,02.129,Seven Oaks Elementary,1905 TOWN CENTER BOULEVARD,ODENTON,MD,21113,PreK-5,Elementary
-8535488.5746,4726258.4353,1275,Anne Arundel,02.131,Nantucket Elementary,2350 NANTUCKET DRIVE,CROFTON,MD,21114,K-5,Elementary
-8438837.176,4814938.1649,1276,Cecil,07.042,New Cecil School of Technology,912 APPLETON RD,ELKTON,MD,21921,,Career Tech
-8536942.3074,4763663.1773,1277,Baltimore City,30.246,Edmondson High School Building # 400A,501 ATHOL AVENUE,BALTIMORE,MD,21229,9-12,High
-8526898.4937,4765701.2106,1278,Baltimore City,30.204,Dr. Bernard E. Harris Sr. Elementary # 250,1400 NORTH CAROLINE ST,BALTIMORE,MD,21213,PK-5,Elementary
-8520471.7434,4767533.2958,1279,Baltimore City,30.232,Moravia Park Building #105B (formerly Frankford #216),6001 FRANKFORD AVE,BALTIMORE,MD,21206,3-5,Elementary
-8527561.7006,4765252.6193,1280,Baltimore City,30.234,Johnston Square Elementary # 016,1101 VALLEY ST,BALTIMORE,MD,21202,PreK-5,Elementary
-8529836.8703,4764516.9788,1281,Baltimore City,30.236,Joseph C. Briscoe Building #451,900 DRUID HILL AVENUE,BALTIMORE,MD,21201,6-12,Middle/High
-8531813.687,4771506.9808,1282,Baltimore City,30.227,Western High Building #407,4600 FALLS RD,BALTIMORE,MD,21209,9-12,High
-8529418.2452,4758012.3559,1283,Baltimore City,30.228,Southside Building # 181 (formerly #180 Dr. Arnett J. Brown),2700 SEAMON AVE,BALTIMORE,MD,21225,9-12,High
-8525940.5763,4772261.2838,1284,Baltimore City,30.229,Northwood Elementary # 242,5201 LOCH RAVEN BLVD,BALTIMORE,MD,21239,PK-5,Elementary
-8529543.8697,4757796.4316,1285,Baltimore City,30.230,Dr. Carter Goodwin Woodson PK-8 # 160,2501 SEABURY RD,BALTIMORE,MD,21225,PK-8,PreK-8
-8526360.2509,4767260.9765,1286,Baltimore City,30.219,Lake Clifton Park Building # 456 (formerly Fairmount Harford,2555 HARFORD ROAD,BALTIMORE,MD,21218,9-12,High
-8529741.6502,4757249.1322,1287,Baltimore City,30.220,CHERRY HILL 3-8 #159,801 BRIDGEVIEW RD,BALTIMORE,MD,21225,3-8,Elementary/Middle
-8536842.4912,4773723.2367,1288,Baltimore City,30.221,Cross Country PK-8 # 247,6100 CROSS COUNTRY BLVD,BALTIMORE,MD,21215,PK-8,PreK-8
-8520386.6109,4762188.9577,1289,Baltimore City,30.222,Graceland Park/O'Donnell Heights PK-8 # 240,6300 O'DONNELL ST,BALTIMORE,MD,21224,PK-8,PreK-8
-8604645.3174,4783169.0883,1290,Frederick,10.081,Blue Heron Elementary,7100 EAGLEHEAD DRIVE,NEW MARKET,MD,21774,K-5,Elementary
-8526627.3165,4763319.6777,1291,Baltimore City,30.223,Lombard Building # 057,1601 E LOMBARD ST,BALTIMORE,MD,21231,PK-1,Elementary
-8522736.2638,4774316.5904,1292,Baltimore City,30.209,Professional Development Center Building #93 [aka Dr. Samuel,2500 E NORTHERN PARKWAY,BALTIMORE,MD,21214,6-12,Middle/High
-8523642.1281,4771834.3433,1293,Baltimore City,30.210,Garrett Heights PK-8 # 212,2800 ALISA AVE,BALTIMORE,MD,21214,PK-8,PreK-8
-8530872.4133,4763629.359,1294,Baltimore City,30.213,Harbor City Building - West #413,1001 W. SARATOGA ST.,BALTIMORE,MD,21223,9-12,High
-8534598.0162,4769190.2449,1295,Baltimore City,30.218,Dr. Nathan Pitts/Ashburton PK-8 # 058,3935 HILTON ROAD,BALTIMORE,MD,21215,PK-8,PreK-8
-8529966.0199,4764564.8851,1296,Baltimore City,30.203,The Historic Samuel Coleridge-Taylor Elementary # 122,507 W PRESTON ST,BALTIMORE,MD,21201,PK-5,Elementary
-8527246.7965,4772633.2496,1297,Baltimore City,30.206,Chinquapin Building # 046,900 WOODBOURNE AVE,BALTIMORE,MD,21212,5-8,Middle/High
-8531822.6386,4762882.8716,1298,Baltimore City,30.208,Steuart Hill PK-5 # 004,30 S GILMOR ST,BALTIMORE,MD,21223,PreK-5,Elementary
-8530776.0132,4762934.1603,1299,Baltimore City,30.197,James McHenry Building # 010,31 S SCHROEDER ST,BALTIMORE,MD,21223,PK-8,PreK-8
-8534051.97,4771168.8273,1300,Baltimore City,30.199,Edgecombe Circle PK-8 # 062,2835 VIRGINIA AVE,BALTIMORE,MD,21215,PreK-5,Elementary
-8535603.4511,4763591.3611,1301,Baltimore City,30.201,Mary E. Rodman Elementary # 204,3510 W MULBERRY ST,BALTIMORE,MD,21229,PK-5,Elementary
-8526770.8196,4763311.3496,1302,Baltimore City,30.202,City Springs PK-8 # 008,100 SOUTH CAROLINE ST,BALTIMORE,MD,21231,PreK-8,PreK-8
-8523323.2094,4767813.0418,1303,Baltimore City,30.191,Brehms Lane ES # 231,3536 BREHMS LANE,BALTIMORE,MD,21213,PK-7,PreK-8
-8522680.0418,4766912.754,1304,Baltimore City,30.193,Sinclair Lane Elementary # 248,3880 SINCLAIR LANE,BALTIMORE,MD,21213,PK-5,Elementary
-8526096.488,4774157.4438,1305,Baltimore City,30.194,Leith Walk PK-8 # 245,1235 SHERWOOD AVE,BALTIMORE,MD,21239,PK-8,PreK-8
-8537497.617,4761965.7795,1306,Baltimore City,30.195,Beechfield PK-8 # 246,301 SOUTH BEECHFIELD AVE,BALTIMORE,MD,21229,PK-8,PreK-8
-8520461.8597,4774274.3267,1307,Baltimore City,30.196,Woodhome PK-8 # 205,7300 MOYER AVE,BALTIMORE,MD,21234,PK-8,PreK-8
-8533662.1044,4764829.5506,1308,Baltimore City,30.184,Calverton PK-8 # 075,1100 WHITMORE AVE,BALTIMORE,MD,21216,3-8,PreK-8
-8531983.6738,4771417.5361,1309,Baltimore City,30.185,Baltimore Polytechnic Institute # 403,1400 W COLD SPRING LANE,BALTIMORE,MD,21209,9-12,High
-8538677.4409,4774000.9455,1310,Baltimore City,30.187,Northwestern High #401,6900 PARK HEIGHTS AVE,BALTIMORE,MD,21215,9-12,High
-8535555.7714,4766251.013,1311,Baltimore City,30.188,Walbrook Building #411,2000 EDGEWOOD ST,BALTIMORE,MD,21216,6-12,Middle/High
-8520282.217,4770239.5857,1312,Baltimore City,30.189,Hazelwood K-8 # 210,4517 HAZELWOOD AVE,BALTIMORE,MD,21206,PreK-8,PreK-8
-8536377.0772,4764013.4866,1313,Baltimore City,30.176,Wildwood PK-8 # 088 (formerly Lyndhurst),621 WILDWOOD PKWY,BALTIMORE,MD,21229,PreK-8,Elementary/Middle
-8529010.4854,4764468.4427,1314,Baltimore City,30.178,Baltimore School for the Arts # 415,712 CATHEDRAL ST,BALTIMORE,MD,21202,9-12,High
-8532084.7099,4758078.4062,1315,Baltimore City,30.179,Lakeland PK-8 # 012,2921 STRANDEN RD,BALTIMORE,MD,21230,PreK-8,PreK-8
-8537208.728,4763749.1311,1316,Baltimore City,30.180,Westside Skill Center (CTE) # 400B,4501 EDMONDSON AVE,BALTIMORE,MD,21229,9-12,High
-8526462.7042,4760142.683,1317,Baltimore City,30.181,Francis Scott Key Elementary/Middle # 076,1425 E FORT AVE,BALTIMORE,MD,21230,PreK-8,Elementary/Middle
-8522008.4883,4765143.4595,1318,Baltimore City,30.171,Claremont Special Ed. High # 307,5301 ERDMAN AVE,BALTIMORE,MD,21205,6-12,Middle/High
-8523776.0542,4774250.3796,1319,Baltimore City,30.174,Northern Building #402,2201 PINEWOOD AVE,BALTIMORE,MD,21214,9-12,High
-8526944.8315,4754107.8696,1320,Baltimore City,30.175,Bay Brook PK-8 # 124A,4301 TENTH ST,BALTIMORE,MD,21225,PK-8,PreK-8
-8521785.6965,4770331.4525,1321,Baltimore City,30.161,Gardenville Elementary # 211,5300 BELAIR ROAD,BALTIMORE,MD,21206,PreK-5,Elementary
-8533417.1983,4762205.2064,1322,Baltimore City,30.162,Frederick Elementary # 260,2501 FREDERICK AVE,BALTIMORE,MD,21223,PK-5,Elementary
-8519994.9516,4763671.382,1323,Baltimore City,30.164,Patterson High # 405,100 KANE ST,BALTIMORE,MD,21224,9-12,High
-8532710.2152,4759429.409,1324,Baltimore City,30.149,Morrell Park PK-8 # 220,2601 TOLLEY ST,BALTIMORE,MD,21230,PK-8,PreK-8
-8525683.6043,4771478.8481,1325,Baltimore City,30.154,Lois T. Murray Special Ed. PK-8 # 313,1600 E ARLINGTON AVE,BALTIMORE,MD,21239,PK-8,Special Ed.
-8529181.2568,4761339.2186,1326,Baltimore City,30.155,Sharp-Leadenhall Special Ed. ES # 314,150 W WEST STREET,BALTIMORE,MD,21230,K-5,Special Ed.
-8527852.7228,4755654.2038,1327,Baltimore City,30.159,Maree G. Farring PK-8 # 203,300 PONTIAC AVE,BALTIMORE,MD,21225,PK-8,PreK-8
-8533224.5198,4766592.9335,1328,Baltimore City,30.140,Robert W. Coleman Elementary # 142,2400 WINDSOR AVE,BALTIMORE,MD,21217,PK-5,Elementary
-8525430.2623,4764416.6347,1329,Baltimore City,30.144,Tench Tilghman PK-8 # 013,600 N PATTERSON PARK AVE,BALTIMORE,MD,21205,PK-8,PreK-8
-8527912.3391,4761346.9868,1330,Baltimore City,30.146,Digital Harbor High # 416,1100 COVINGTON ST,BALTIMORE,MD,21230,9-12,High
-8538812.5506,4773680.3005,1331,Baltimore City,30.148,Fallstaff PK-8 # 241,3801 FALLSTAFF RD,BALTIMORE,MD,21215,PK-8,PreK-8
-8536381.2938,4768492.1263,1332,Baltimore City,30.135,Liberty PK-5 # 064,3901 MAINE AVE,BALTIMORE,MD,21207,PreK-5,Elementary
-8521690.8539,4768268.472,1333,Baltimore City,30.137,Northeast Middle # 049,5001 MORAVIA RD,BALTIMORE,MD,21206,6-8,Middle
-8531511.2595,4763320.6037,1334,Baltimore City,30.115,Francis M. Wood Building # 178,100 N. CALHOUN STREET,BALTIMORE,MD,21223,9-12,High
-8534100.5308,4765379.2131,1335,Baltimore City,30.127,Rosemont PK-8 # 063,2777 PRESSTMAN ST,BALTIMORE,MD,21216,PreK-8,PreK-8
-8526932.0961,4764060.5472,1336,Baltimore City,30.128,Paul Laurence Dunbar High # 414,1400 ORLEANS ST,BALTIMORE,MD,21231,9-12,High
-8526414.2836,4755025.9473,1337,Baltimore City,30.099,Benjamin Franklin Building # 239,1201 CAMBRIA ST,BALTIMORE,MD,21225,9-12,High
-8533403.4129,4766304.6888,1338,Baltimore City,30.108,William S. Baer Special Ed. PK-12 # 301,2001 NORTH WARWICK AVE,BALTIMORE,MD,21216,PK-12,Special Ed.
-8526749.1392,4768441.9952,1339,Baltimore City,30.110,Baltimore City College # 480,3220 THE ALAMEDA,BALTIMORE,MD,21218,9-12,High
-8533173.1537,4766866.7923,1340,Baltimore City,30.111,Frederick Douglass HS # 450,2301 GWYNNS FALLS PKWY,BALTIMORE,MD,21217,9-12,High
-8532902.5074,4765427.0207,1341,Baltimore City,30.113,Carver Vocational-Technical High CTE # 454,2201 PRESSTMAN ST,BALTIMORE,MD,21216,9-12,Career Tech
-8537999.0102,4764063.6277,1342,Baltimore City,30.090,Thomas Jefferson PK-8 # 232,605 DRYDEN DRIVE,BALTIMORE,MD,21229,PK-8,PreK-8
-8530917.3873,4773020.4763,1343,Baltimore City,30.092,Roland Park Elementary/Middle # 233,5207 ROLAND AVE,BALTIMORE,MD,21210,PK-8,PreK-8
-8536419.6435,4771990.156,1344,Baltimore City,30.094,Arlington PK-8 # 234,3705 W. ROGERS AVE,BALTIMORE,MD,21215,PK-5,Elementary
-8522336.5667,4773344.9431,1345,Baltimore City,30.096,Hamilton PK-8  # 236,6101 OLD HARFORD RD,BALTIMORE,MD,21214,PK-8,PreK-8
-8523206.6784,4763207.9249,1346,Baltimore City,30.098,Highlandtown PK-8 # 237,231 S.EATON STREET,BALTIMORE,MD,21224,PK-8,PreK-8
-8527976.4309,4773452.9962,1347,Baltimore City,30.076,Govans Elementary # 213,5801 YORK RD,BALTIMORE,MD,21212,PK-5,Elementary
-8528263.8067,4771066.6435,1348,Baltimore City,30.077,Guilford PK-8 # 214,4520 YORK RD,BALTIMORE,MD,21212,PK-8,PreK-8
-8531286.112,4759292.703,1349,Baltimore City,30.082,Westport PK-8 # 225,2401 NEVADA STREET,BALTIMORE,MD,21230,PK-8,PreK-8
-8521766.5118,4762482.7608,1350,Baltimore City,30.086,John Ruhrah PK-8 #228,701 S RAPPOLLA ST,BALTIMORE,MD,21224,PK-8,PreK-8
-8533003.37,4804059.203,1351,Baltimore County,03.097,Hereford Middle,712 CORBETT ROAD,MONKTON,MD,21111,6-8,Middle
-8531763.836,4755675.6982,1352,Baltimore County,03.100,Baltimore Highlands Elementary,4200 ANNAPOLIS RD,BALTIMORE,MD,21227,PreK-5,Elementary
-8540340.9216,4764581.8808,1353,Baltimore County,03.101,Edmondson Heights Elementary,1600 LANGFORD ROAD,BALTIMORE,MD,21207,PreK-5,Elementary
-8542458.2534,4767990.3756,1354,Baltimore County,03.102,Featherbed Lane Elementary,6700 RICHARDSON ROAD,BALTIMORE,MD,21207,PreK-5,Elementary
-8538609.1126,4779207.1329,1355,Baltimore County,03.090,Fort Garrison Elementary,3310 WOODVALLEY DRIVE,BALTIMORE,MD,21208,PreK-5,Elementary
-8540455.4462,4769713.8133,1356,Baltimore County,03.092,Powhatan Elementary,3300 KELOX ROAD,BALTIMORE,MD,21207,PreK-5,Elementary
-8535936.53,4776457.3198,1357,Baltimore County,03.093,Summit Park Elementary,6920 DIANA ROAD,BALTIMORE,MD,21209,K-5,Elementary
-8533639.7315,4807899.2536,1358,Baltimore County,03.094,Hereford High,17301 YORK ROAD,PARKTON,MD,21120,9-12,High
-8528380.12,4780569.7813,1359,Baltimore County,03.095,George Washington Carver Center for Arts and Technology,938 NORTH YORK ROAD,TOWSON,MD,21204,9-12,High
-8532867.1147,4757539.0398,1360,Baltimore County,03.084,Lansdowne Middle,2400 LANSDOWNE ROAD,BALTIMORE,MD,21227,6-8,Middle
-8538931.5237,4775862.0214,1361,Baltimore County,03.085,Pikesville Middle,7701 SEVEN MILE LANE,BALTIMORE,MD,21208,6-8,Middle
-8532286.7871,4819729.5177,1362,Baltimore County,03.086,Seventh District Elementary,20300 YORK ROAD,PARKTON,MD,21120,PreK-5,Elementary
-8546153.2542,4761275.9896,1363,Baltimore County,03.088,Catonsville Middle,2301 EDMONDSON AVE,BALTIMORE,MD,21228,6-8,Middle
-8541573.066,4773423.538,1364,Baltimore County,03.089,Bedford Elementary,7407 DORMAN DRIVE,BALTIMORE,MD,21208,1-5,Elementary
-8600689.5788,4755685.9215,1365,Montgomery,15.274,Wilson Wims Elementary,12520 BLUE SKY DR,CLARKSBURG,MD,20871,K-5,Elementary
-8655964.038,4816743.3089,1366,Washington,21.055,Jonathan Hager Elementary,12615 SEDGWICK WAY,HAGERSTOWN,MD,21740,PreK-5,Elementary
-8541641.277,4760161.9011,1367,Baltimore County,03.217,Catonsville Elementary,106 BLOOMSBURY AVE,CATONSVILLE,MD,21228,PreK-5,Elementary
-8549744.0772,4778060.2199,1368,Baltimore County,03.216,Lyons Mill Elementary,9435 LYONS MILL ROAD,OWINGS MILLS,MD,21117,K-5,Elementary
-8542322.4734,4748344.1905,1369,Howard,13.089,Hanover Hills Elementary,7030 BANBURY DR,HANOVER,MD,21076,PreK-5,Elementary
-8599495.2595,4754216.2949,1370,Montgomery,15.281,Snowden Farm Elementary School,22500 SWEETSPIRE DR.,CLARKSBURG,MD,20871,,
-8532262.4048,4764160.8416,1371,Baltimore City,30.150,Harriet Tubman Building # 138,1807 HARLEM AVE,BALTIMORE,MD,21217,K-5,Elementary
-8567423.6399,4665737.1291,1372,Charles,08.048,Billingsley Elementary School,10069 BILLINGSLEY RD,WHITE PLAINS,MD,20695,PreK-5,Elementary
-8622328.2695,4780376.7837,1373,Frederick,10.079,Butterfly Ridge Elementary School,601 CONTENDER WAY,FREDERICK,MD,21703,PreK-5,Elementary
-8527121.5917,4771752.9763,1374,Baltimore City,30.173,Winston Middle # 209,1101 WINSTON AVE,BALTIMORE,MD,21212,"4-6,",Elementary/Middle/High
-8529083.6723,4764043.8108,1375,Baltimore City,30.284,Baltimore Leadership School for Young Women,128 W FRANKLIN ST,BALTIMORE,MD,21201,6-12,Middle/High
-8510780.6711,4779637.838,1376,Baltimore County,03.219,Honeygo Elementary,4816 E JOPPA RD,PERRY HALL,MD,21128,,Elementary
-8651354.0193,4812124.3634,1377,Washington,21.056,Public Service Academy,701 FREDERICK ST,HAGERSTOWN,MD,21740,,
-8611136.2267,4790955.7538,1378,Frederick,10.080,Rock Creek School,55 B WEST FREDERICK STREET,WALKERSVILLE,MD,21793,,Special Ed.
-8534661.2342,4721908.015,1379,Anne Arundel,02.135,Crofton High,2291 DAVIDSONVILLE ROAD,GAMBRILLS,MD,21054,9-12,High
